fmid,street,city,county,state,zip,organic,bakedgoods,cheese,crafts,flowers,eggs,honey,coffee,lon,lat
1018261,,Danville,Caledonia,Vermont,5828,Y,Y,Y,Y,Y,Y,Y,Y,-72.140337,44.411036
1000709,71 Waterwitch Avenue,Highlands,Monmouth,New Jersey,7732,Y,Y,Y,Y,Y,Y,Y,N,-73.994358,40.404837
1019846,110 W. Main St.,West Union,Adams,Ohio,45693,N,Y,N,N,Y,N,Y,Y,-83.546459,38.795336
1012163,5 Stillwater Road,Blairstown,Warren,New Jersey,7825,Y,Y,Y,Y,Y,Y,Y,Y,-74.955689,40.982893
1019418,116 Dock St.,Wilmington,New Hanover,North Carolina,28401,-,Y,Y,Y,Y,Y,Y,Y,-77.94793,34.234207
1018284,715 Riverside Avenue,Jacksonville,Duval,Florida,32204,N,Y,Y,Y,Y,Y,Y,Y,-81.6762903,30.3164943
1000194,10 Pine Ave.,Riverside,Cook,Illinois,60546,N,Y,N,N,Y,Y,Y,Y,-87.8201027,41.8277856
1019259,303 Williams Blvd,Kenner,Jefferson,Louisiana,70062,-,Y,Y,Y,Y,Y,Y,Y,-90.246653,29.973156
1019927,320 Ogden Avenue,Jersey City,Hudson,New Jersey,7307,-,Y,Y,N,N,Y,Y,N,-74.042798,40.744736
1019635,5 S. Walnut Street,Milford,Sussex,Delaware,19963,-,Y,N,Y,Y,Y,Y,N,-75.42808,38.913062
1019070,Main Street,Roanoke,Huntington,Indiana,46783,-,Y,N,Y,Y,N,N,Y,-85.373322,40.961979
1019899,1013 13th Ave,Rock Valley,Sioux,Iowa,51247,-,Y,N,Y,N,Y,N,N,-96.300832,43.200223
1020173,503 Seventh Street,Rockford,Winnebago,Illinois,61104,-,Y,N,Y,Y,Y,Y,Y,-89.08098,42.262526
1019033,108 Water St.,Rockmart,Polk,Georgia,30153,Y,Y,Y,Y,Y,Y,Y,Y,-85.053094,33.997669
1011829,5050 Liberty Ave,Pittsburgh,Allegheny,Pennsylvania,15224,Y,Y,Y,N,Y,Y,Y,Y,-79.944435,40.459005
1012576,Route 28 & Monroe Street,Rockville,Montgomery,Maryland,20850,N,Y,Y,N,Y,Y,Y,Y,-77.1492295,39.0819115
1019048,North Main Avenue & 8th Street NW,Choteau,Teton,Montana,59422,-,Y,N,Y,Y,Y,Y,Y,-112.188004,47.818183
1011286,12724 Main Street,Rogers,Hennepin,Minnesota,55374,N,Y,N,Y,Y,Y,Y,N,-93.551965,45.186933
1019747,270 County Line Road,Rogersville,Webster,Missouri,65741,-,Y,N,Y,Y,Y,Y,Y,-93.066381,37.115153
1003969,1492 East Main,Ashland,Jackson,Oregon,97520,Y,N,Y,Y,Y,Y,Y,Y,-122.6905,42.1949
1003970,99 Hawthorne St,Medford,Jackson,Oregon,97501,Y,Y,Y,Y,Y,Y,Y,Y,-122.854244,42.336896
1003971,Oak & N Main,Ashland,Jackson,Oregon,97520,Y,Y,Y,Y,Y,Y,Y,N,-122.700426,42.192172
1018637,500 City Center Dr,Rohnert Park,Sonoma,California,94928,Y,Y,Y,Y,Y,Y,N,Y,-122.703949,38.349284
1011778,2720 Kirchoff Road,Rolling Meadows,Cook,Illinois,60008,N,Y,N,Y,Y,N,Y,Y,-88.016174,42.078232
1019479,155-199 Hwy 93,Ronan,Lake,Montana,59864,-,Y,Y,Y,Y,Y,Y,N,-114.097574,47.5276
1018396,401 N MortonSt,"Bloomington, IN ",Monroe,Indiana,47404,Y,Y,Y,Y,Y,Y,Y,Y,-86.5369425,39.1703084
1018349,380 Nassau Road,Roosevelt,Nassau,New York,11575,Y,N,N,N,Y,N,Y,N,-73.5908479,40.6817846
1019973,2020 Beatties Ford Road,Charlotte,Mecklenburg,North Carolina,28216,N,N,N,N,N,N,N,Y,-80.854493,35.262802
1010821,302 S. Broadway Ave.,Tyler,Smith,Texas,75701,N,Y,Y,Y,Y,Y,Y,Y,-95.300309,32.347948
1019194,30 Birch St,Roslindale,Suffolk,Massachusetts,2131,Y,Y,N,Y,Y,Y,Y,Y,-71.1304386,42.2862298
1019791,920 Perry Hwy,Pittsburgh,Allegheny,Pennsylvania,15229,-,Y,Y,Y,N,Y,Y,Y,-80.036108,40.533713
1021218,3745 Constellation Rd,LOMPOC,Santa Barbara,California,93436,N,Y,N,Y,N,Y,Y,N,-120.466224,34.700679
1005261,Kupuna Lp/Kupuohi Street,Waipahu,Honolulu,Hawaii,96797,N,N,N,N,N,N,N,N,-158.032652,21.38912
1019119,"7278 Ladysmith Road, ",Ruther Glen,Caroline,Virginia,22546,N,Y,N,Y,Y,Y,Y,Y,-77.518506,38.016661
1003915,US Highway 8 & W. 2nd  Street,Ladysmith,Rusk,Wisconsin,54848,Y,Y,Y,Y,Y,Y,Y,Y,-91.09924,45.464998
1019620,320 West C St.,Russellville,Pope,Arkansas,72801,Y,Y,N,N,Y,Y,Y,Y,-93.135468,35.280402
1018563,909 E. 2nd St.,Bloomington,Monroe,Indiana,47401,Y,Y,Y,Y,Y,Y,Y,Y,-86.521677,39.161531
1018975,220 E. Mississippi Avenue,Ruston,Lincoln,Louisiana,71270,-,Y,N,Y,Y,Y,Y,Y,-92.635542,32.529214
1019715,Rockfish School Lane,Afton,Nelson,Virginia,22920,N,Y,Y,Y,Y,Y,N,N,-78.886752,37.7874422
1019825,700 s third st,Columbus,Franklin,Ohio,43206,-,Y,Y,Y,Y,Y,Y,Y,-82.994617,39.948137
1019734,135 W. Main St,Saint Paris,Champaign,Ohio,43072,-,Y,Y,Y,N,N,Y,N,-83.959772,40.127699
1002062,12 Park Ave,Salamanca,Cattaraugus,New York,14779,N,Y,N,Y,Y,Y,Y,N,-78.041832,42.211214
1003412,Front Street at Derby Square,Salem,Essex,Massachusetts,1970,Y,Y,Y,N,Y,Y,Y,N,-70.894653,42.520665
1019211,14 Main Street,Salem,Rockingham,New Hampshire,3079,-,Y,Y,Y,N,Y,Y,Y,-71.2372585,42.781773
1004988,S. Ann Arbor Street,Saline,Washtenaw,Michigan,48176,N,Y,Y,Y,Y,Y,Y,Y,-83.781146,42.165956
1004990,7265 Saline Ann Arbor Road,Saline,Washtenaw,Michigan,48176,N,Y,Y,N,N,Y,Y,Y,-83.785094,42.179728
1002485,2211 NE 139th Street,Vancouver,Clark,Washington,98686,Y,Y,N,Y,Y,Y,Y,Y,-122.648554,45.720387
1019932,4335 Glendale Milford Road,Blue Ash,Butler,Ohio,45242,-,Y,N,Y,Y,N,Y,N,-84.389892,39.251798
1019428,817 West Dupont Road,Fort Wayne,Allen,Indiana,46825,Y,Y,N,Y,Y,Y,Y,Y,-85.152678,41.175641
1005262,5337 Likini Street,Honolulu,Honolulu,Hawaii,96818,N,Y,N,N,Y,N,N,N,-157.904131,21.346157
1009080,100 Alemany Boulevard,San Francisco,San Francisco,California,94110,Y,Y,Y,N,Y,Y,Y,Y,-122.4085979,37.7373447
1018449,919 Main St,Sanford,York,Maine,4073,N,Y,Y,Y,Y,Y,N,N,-70.774653,43.438711
1019913,224 Dexter St,Providence,Providence,Rhode Island,2907,-,N,N,N,N,N,N,N,-71.42853,41.811066
1020185,Jackson Street at Homestead Road,Santa Clara,Santa Clara,California,95050,Y,Y,Y,Y,Y,Y,Y,Y,-121.967934,37.364613
1018625,1501 Farmers Lane,Santa Rosa,Sonoma,California,95404,Y,Y,Y,Y,Y,Y,Y,Y,-122.689399,38.434379
1018315,Courthouse Square & 4th St,Santa Rosa,Sonoma,California,95404,Y,Y,Y,Y,Y,Y,Y,Y,-122.71359,38.4406777
1011160,4587 Woodbine Road,Pace,Santa Rosa,Florida,32571,-,Y,Y,Y,N,Y,Y,Y,-87.183559,30.603977
1007261,152 East Grandview Parkway,Traverse City,Grand Traverse,Michigan,49684,Y,Y,Y,N,Y,Y,Y,Y,-85.621764,44.765173
1020098,1837 Plaudit Place,Lexington,Fayette,Kentucky,40509,-,Y,N,Y,Y,N,Y,N,-84.418747,38.014875
1008303,200 Lake Saracen Drive,Pine Bluff,Jefferson,Arkansas,71601,N,Y,N,Y,N,Y,Y,N,-92.004296,34.231049
1012203,Riverside Park,Saranac Lake,Franklin,New York,12983,-,Y,Y,Y,Y,Y,Y,Y,-74.131251,44.32463
1019323,Thomas Dr./ Highway 29,Finley,Lake,California,95435,Y,Y,Y,Y,Y,Y,Y,Y,-122.87534,38.992593
1019443,Rt 116 at Institute Lane,North Scituate,Providence,Rhode Island,2857,N,Y,N,Y,Y,Y,Y,N,-71.586035,41.834131
1012037,"430 Park Ave (Municipal Parking Lot), Scotch Plains, New Jersey 07076",Scotch Plains,Union,New Jersey,7076,Y,Y,Y,N,Y,Y,Y,Y,-74.397557,40.650167
1019627,Rt. 14 & Rt. 97,Scotland,Windham,Connecticut,6264,-,Y,N,Y,Y,Y,Y,Y,-72.081503,41.698757
1020088,corner of North Broadway and Washington Street,Georgetown,Scott,Kentucky,40324,Y,Y,Y,Y,Y,N,Y,N,-84.559554,38.211492
1019515,61 Main St.,Scottsville,Monroe,New York,14546,N,Y,Y,N,Y,Y,Y,N,-77.753379,43.022276
1019445,5081 Carbondale Drive,Columbus,Franklin,Ohio,43232,-,Y,N,Y,N,N,Y,N,-82.847372,39.924927
1018167,1 Blue Hawk Drive,Exeter,Rockingham,New Hampshire,3833,Y,Y,Y,N,N,Y,Y,Y,-71.0003126,43.0168516
1019372,102 S Main St,Bluffton,Allen,Ohio,45817,Y,Y,N,N,Y,N,Y,N,-83.892721,40.893082
1018172,141 Rollins Road,Rollinsford,Strafford,New Hampshire,3869,Y,Y,Y,N,N,Y,Y,Y,-70.8601023,43.2155618
1019237,410 Main Street,Sealy,Austin,Texas,77474,-,Y,N,Y,N,Y,Y,Y,-96.159309,29.78029
1021233,2868 NC-345,Wanchese,Dare,North Carolina,27981,Y,Y,N,Y,Y,Y,Y,Y,-75.645391,35.854615
1018773,2233 W 16th St,"Sedalia, MO",Pettis,Missouri,65301,N,Y,N,Y,Y,Y,Y,Y,-93.255481,38.698011
1019610,100 north main st.,Winston-Salem,Forsyth,North Carolina,27101,-,N,N,N,Y,Y,Y,N,-80.244023,36.09598
1019442,15 Water Street,Seneca Falls,Seneca,New York,13148,-,Y,Y,Y,Y,Y,Y,Y,-76.800314,42.909109
1019395,Herman Dierks Park   604 East Hayes Avenue,De Queen,Sevier,Arkansas,71832,-,Y,N,Y,Y,Y,Y,N,-94.342133,34.042245
1010838,123 Mulberry Street,Shallotte,Brunswick,North Carolina,28470,-,Y,N,Y,Y,Y,Y,N,-78.386035,33.975058
1019455,235 S. Washington Street,Shawano,Shawano,Wisconsin,54166,N,Y,Y,Y,Y,N,Y,N,-88.6112,44.779493
1019976,151 W Washington Street,SHELBYVILLE,Shelby,Indiana,46176,-,Y,N,Y,N,Y,Y,Y,-85.780478,39.52422
1019440,360 N Main St,Bluffton,Wells,Indiana,46714,-,Y,N,Y,Y,Y,Y,N,-85.172111,40.743479
1020103,170 W. Joe B. Hall Avenue,Shepherdsville,Bullitt,Kentucky,40165,Y,Y,N,Y,Y,Y,Y,N,-85.709198,37.988053
1018988,5300 Philadelphia Dr.,Dayton,Montgomery,Ohio,45415,N,Y,Y,Y,Y,Y,Y,Y,-84.235026,39.819046
1019319,15300 Westminster Way,Shoreline,King,Washington,98133,Y,Y,N,Y,Y,Y,Y,Y,-122.348144,47.743402
1012179,1600 E. Lake Bluff Blvd,Shorewood,Milwaukee,Wisconsin,53211,Y,Y,Y,N,Y,Y,Y,Y,-87.890488,43.096929
1020004,101 Crockett Street,Shreveport,Caddo,Louisiana,71101,N,Y,Y,Y,Y,Y,Y,Y,-93.744962,32.514186
1018771,901 N Pope ST,Silver City,Grant,New Mexico,88061,N,Y,Y,Y,Y,Y,Y,N,-108.276185,32.774517
1021219,"3025 Highway 180 E, Silver City, NM 88061",Silver City,Grant,New Mexico,88061,N,Y,N,N,N,Y,Y,N,-108.242482,32.787733
1011044,1500 Griffith Park Blvd,Los Angeles,Los Angeles,California,90026,Y,Y,Y,Y,Y,Y,Y,Y,-118.277386,34.090541
1016822,10 Station Ave,Kellogg,Shoshone,Idaho,83837,-,Y,Y,Y,Y,Y,N,Y,-116.120504,47.536412
1018601,2222 Bucklin Hill Rd,Silverdale,Kitsap,Washington,98383,Y,Y,Y,N,Y,Y,Y,N,-122.668607,47.651931
1018092,1415 Key Highway,Baltimore,Baltimore City,Maryland,21230,N,Y,Y,Y,Y,Y,N,Y,-76.601326,39.273864
1011811,2757 Tapo Canyon rd,Simi Valley,Ventura,California,93093,Y,Y,Y,Y,Y,Y,Y,Y,-118.718091,34.285295
1010560,100 Pearl Street,Sioux City,Woodbury,Iowa,51101,Y,Y,Y,Y,Y,Y,Y,Y,-96.408445,42.490552
1003169,611 Lincoln Street,Sitka,Sitka,Alaska,99835,N,N,N,N,Y,N,N,N,-135.326742,57.051519
1018814,6475 Columbus Rd SE,Deming,Luna,New Mexico,88030,N,N,N,N,Y,Y,Y,N,-107.750939,32.189126
1019869,"Gateway Park, 100 Midway Street",Slippery Rock,Butler,Pennsylvania,16057,-,Y,N,Y,Y,Y,Y,Y,-80.050842,41.062533
1020163,224 Tank Farm Rd,San Luis Obispo,San Luis Obispo,California,93401,-,Y,N,N,Y,Y,Y,N,-120.667181,35.247189
1010014,110 Ag. Center lane,Carthage,Smith,Tennessee,37030,Y,Y,N,N,Y,Y,Y,N,-85.9461859,36.2233523
1020022,3315 Hyland,Costa Mesa,Orange,California,92626,Y,Y,Y,N,Y,Y,Y,N,-117.927099,33.694867
1019926,58 West Main Street,sodus,Wayne,New York,14551,N,Y,Y,N,Y,N,Y,N,-77.062753,43.237102
1020159,636 Center Street,Bowling Green,Warren,Kentucky,42102,Y,Y,Y,Y,Y,Y,Y,Y,-86.438462,36.970919
1018313,10TH & GROVE  - SUMMER MARKET,Boise City,Ada,Idaho,83702,Y,Y,Y,N,Y,Y,Y,Y,-116.444084,43.532957
1003836,444 South Cedros Avenue,Solana Beach,San Diego,California,92075,Y,Y,Y,Y,Y,Y,Y,Y,-117.269204,32.987194
1019829,193 E. Corral Ave,Soldotna,Kenai Peninsula,Alaska,99669,-,Y,N,Y,Y,Y,Y,Y,-151.067584,60.49304
1019671,800 Georgian Place,Somerset,Somerset,Pennsylvania,15501,N,Y,N,N,Y,Y,N,Y,-79.072141,40.022787
1020039,167 Holland Street,Somerville,Middlesex,Massachusetts,2144,-,N,N,N,N,N,N,N,-71.125686,42.40098
1020040,50 Cross Street,Somerville,Middlesex,Massachusetts,2145,-,N,N,N,N,N,N,N,-71.087099,42.385778
1011934,530 Mystic Avenue,Somerville,Middlesex,Massachusetts,2145,Y,N,N,N,N,N,N,N,-71.091856,42.396251
1011935,24 North Street,Somerville,Middlesex,Massachusetts,2144,-,N,N,N,N,N,N,N,-71.131331,42.407206
1019803,4750 Soutel Dr,Jacksonville,Duval,Florida,32208,-,N,N,N,N,N,N,Y,-81.72001,30.40374
1020067,Adeline at 63rd Street,Berkeley,Alameda,California,94703,Y,Y,N,N,Y,Y,Y,N,-122.271931,37.847765
1019385,39 Ballpark Road,Sewanee,Franklin,Tennessee,37375,Y,Y,Y,Y,Y,N,Y,Y,-85.917223,35.193923
1019676,103 Carlisle Street,Gettysburg,Adams,Pennsylvania,17325,Y,Y,Y,N,Y,Y,Y,Y,-77.234147,39.830597
1018316,516 S. 8th Street,Boise City,Ada,Idaho,83702,Y,Y,Y,Y,N,Y,Y,Y,-116.19193,43.60798
1018138,900 Fuller Ave SE,Grand Rapids,Kent,Michigan,49506,-,Y,N,Y,N,N,Y,N,-85.6394126,42.9464659
1021214,2000 South Blvd.,Charlotte,Mecklenburg,North Carolina,28203,Y,Y,Y,Y,Y,Y,Y,Y,-80.860801,35.20911
1019599,3309 W. Hwy 29,Georgetown,Williamson,Texas,78628,-,Y,N,N,N,Y,Y,Y,-97.745633,30.631014
1002526,105 W. Danville Street,South Hill,Mecklenburg,Virginia,23970,Y,Y,Y,Y,Y,Y,Y,N,-78.1301422,36.7244013
1019915,2 Salt Pond Rd,Wakefield,Washington,Rhode Island,2879,-,N,N,N,N,N,N,N,-71.49696,41.428192
1019511,110 W. Liberty,South Lyon,Oakland,Michigan,48178,-,Y,Y,Y,Y,Y,Y,Y,-83.653169,42.461015
1019091,Alder Street and Cedar Avenue,Scranton,Lackawanna,Pennsylvania,18505,Y,Y,Y,N,Y,Y,Y,Y,-75.6668643,41.4003507
1018098,Lake & Illinois Avenues,St. Joseph,Buchanan,Missouri,64504,N,Y,N,Y,Y,Y,Y,N,-94.865955,39.718654
1002063,1900 Constitution Ave,Olean,Cattaraugus,New York,14760,N,Y,N,Y,Y,Y,Y,N,-78.041832,42.211214
1019979,8505 Durand Ave,sturtevant,Racine,Wisconsin,53177,-,Y,N,Y,Y,N,Y,N,-87.888847,42.697348
1020101,1961 Burlington Pike,Burlington,Boone,Kentucky,41005,Y,Y,N,N,Y,Y,Y,N,-84.721563,39.022231
1010997,7901 SW 40th St.,Miami,Miami-Dade,Florida,33155,Y,Y,N,Y,Y,Y,Y,Y,-80.325631,25.73197
1005560,497 Farmers Market Drive,Hillsville,Carroll,Virginia,24343,-,Y,Y,Y,Y,Y,Y,N,-80.772836,36.742228
1019305,18917 Joy Road,Detroit,Wayne,Michigan,48228,N,Y,N,Y,Y,N,Y,N,-83.130895,42.362216
1018952,23500 US Hwy 160,Walsenburg,Huerfano,Colorado,81089,-,N,N,N,N,N,N,N,-104.831846,37.600391
1019173,6118 Crawfordsville Rd.,Speedway,Marion,Indiana,46224,-,N,Y,Y,Y,Y,Y,N,-86.2670429,39.8008667
1019784,4600 Spotsylvania Parkway,Spotsylvania,Spotsylvania,Virginia,22407,-,Y,N,N,N,Y,N,N,-77.495899,38.219747
1019452,12150 Gordon Road,Fredericksburg,Spotsylvania,Virginia,22407,N,Y,Y,N,Y,Y,Y,Y,-77.563047,38.29038
1019782,12150 Gordon Road,Fredericksburg,Spotsylvania,Virginia,22170,-,Y,Y,N,Y,Y,Y,Y,-77.559528,38.289909
1003588,Public Square,Batesville,Panola,Mississippi,38606,-,Y,N,Y,Y,N,Y,N,-89.952098,34.316885
1018312,N.Lombard and N.Philidelphia,Portland,Multnomah,Oregon,97203,Y,Y,Y,Y,Y,Y,Y,Y,-122.7544853,45.5901096
1006833,7th and Story Street,Boone,Boone,Iowa,50036,-,Y,N,Y,N,Y,Y,N,-93.879688,42.062726
1020042,300 North Mill Street,St. Louis,Gratiot,Michigan,48880,N,Y,N,Y,N,Y,Y,Y,-84.608269,43.410742
1019628,,St. Maries,Benewah,Idaho,83861,-,Y,N,Y,Y,Y,Y,Y,-116.586445,47.318286
1020176,4100 Shelbyville Rd,Louisville,Jefferson,Kentucky,40207,Y,Y,Y,Y,Y,Y,Y,Y,-85.646194,38.251785
1019675,204 S Talbot St,St. Michaels,Talbot,Maryland,21663,Y,Y,Y,N,Y,Y,Y,Y,-76.225202,38.785161
1007810,210 Holyoke,Lakeville,Dakota,Minnesota,55044,-,N,N,N,N,N,N,N,-93.2429,44.6451
1012278,First Street and First Avenue South,St Petersburg,Pinellas,Florida,33701,Y,Y,Y,Y,Y,Y,Y,Y,-82.633652,27.769964
1012766,31 Main Street,Stafford Springs,Tolland,Connecticut,6076,N,Y,Y,Y,Y,Y,Y,N,-72.304724,41.953553
1018211,1000 N. First St.,Albemarle,Stanly,North Carolina,28001,N,Y,Y,N,Y,Y,Y,N,-80.197218,35.366184
1012100,One Armory Square,Springfield,Hampden,Massachusetts,1102,-,Y,N,Y,Y,N,Y,Y,-72.581067,42.108668
1018918,180 Airport Road,Shippensburg,Cumberland,Pennsylvania,17257,Y,Y,Y,Y,Y,Y,Y,Y,-77.477569,40.050647
1019318,1931 Boone Village Shopping Center,Boonville,Cooper,Missouri,65233,-,Y,N,Y,Y,Y,Y,N,-92.741591,38.955643
1010057,301 Spring Street,Murfreesboro,Rutherford,Tennessee,37130,Y,Y,Y,Y,Y,Y,Y,Y,-86.416062,35.852209
1019526,1567 Pilgrim Drive,Stow,Summit,Ohio,44224,-,Y,N,Y,N,Y,Y,Y,-81.452156,41.168794
1018451,1799 Mountain Road,Stowe,Lamoille,Vermont,5672,Y,Y,Y,Y,Y,Y,Y,Y,-72.712004,44.473531
1012116,524 N. Main Street,Suffolk,Suffolk,Virginia,23434,-,Y,Y,Y,Y,Y,Y,Y,-76.58185,36.737591
1019545,380 W. Crosier St.,Akron,Summit,Ohio,44311,Y,Y,N,Y,Y,N,Y,Y,-81.542318,41.058965
1019036,200 Miller road,Sumter,Sumter,South Carolina,29153,Y,Y,Y,Y,N,Y,Y,N,-80.373,33.9324793
1019112,"4138 Main St, Unit A",Timnath,Larimer,Colorado,80547,-,Y,Y,Y,Y,Y,Y,Y,-104.981878,40.529078
1007271,one Ardovino Dr,sunland park,Dona Ana,New Mexico,88063,Y,Y,Y,Y,Y,Y,Y,Y,-106.557437,31.791358
1019092,2532 E 7th Ave,Flagstaff,Coconino,Arizona,86004,-,Y,Y,Y,N,Y,Y,Y,-111.612866,35.212156
1020186,Murphy Avenue at Washington Avenue,Sunnyvale,Santa Clara,California,94086,Y,Y,Y,Y,Y,Y,Y,Y,-122.026323,37.385784
1019693,90 Town Center St,Daleville,Botetourt,Virginia,24083,-,Y,N,Y,Y,Y,Y,N,-79.912646,37.417795
1008173,Veteran's Pkwy & Surfside Blvd,Cape Coral,Lee,Florida,33991,-,Y,Y,Y,N,Y,Y,N,-82.024341,26.608161
1020149,501 Main,Cedarville,Modoc,California,96104,N,Y,N,Y,Y,Y,Y,N,-120.171665,41.527832
1019481,N1915 Julius Dr,Greenville,Winnebago,Wisconsin,54942,Y,Y,Y,Y,Y,N,Y,N,-88.557375,44.311141
1002765,Intersection of M22 & M204,Suttons Bay,Leelanau,Michigan,49682,Y,Y,Y,Y,Y,Y,Y,N,-85.647075,44.980186
1019981,330 Town Center Ave,Suwanee,Gwinnett,Georgia,30024,-,Y,N,N,Y,Y,Y,Y,-84.063354,34.05617
1019437,121 Park Avenue,Swarthmore,Delaware,Pennsylvania,19081,N,Y,Y,Y,Y,Y,Y,Y,-75.34911,39.901799
1018923,6942 West Comanche Avenue,Tampa,Hillsborough,Florida,33634,Y,Y,Y,Y,Y,Y,Y,Y,-82.560612,27.999259
1019015,400 N Lake Blvd,Tahoe City,Nevada,California,96145,Y,Y,Y,Y,Y,N,Y,Y,-120.14113,39.169938
1020036,13101 So. Virginia Street,RENO,Washoe,Nevada,89511,Y,Y,N,Y,N,Y,Y,N,-119.755381,39.416292
1018476,400 Camina de la Placita,Taos,Taos,New Mexico,87571,-,Y,Y,N,Y,Y,Y,Y,-105.574539,36.407207
1018394,6th Street and Main Street,Bottineau,Bottineau,North Dakota,58318,Y,Y,N,N,Y,Y,Y,N,-100.4459433,48.8262788
1020073,751 Taylorsville Rd,Taylorsville,Spencer,Kentucky,40071,-,Y,N,Y,Y,Y,Y,N,-85.344893,38.03192
1011738,Main Street at West Court Street,Greenville,Greenville,South Carolina,29601,Y,Y,Y,Y,Y,Y,Y,Y,-82.4000115,34.8485031
1019138,28 Main St,Jaffrey,Cheshire,New Hampshire,3452,-,Y,Y,Y,Y,Y,Y,N,-72.023787,42.815213
1003982,South Oak St,Telluride,San Miguel,Colorado,81435,Y,Y,N,Y,Y,Y,Y,Y,-107.813086,37.936843
1020147,5300 Claremont Ave.,Oakland,Alameda,California,94618,Y,Y,Y,Y,Y,Y,Y,Y,-122.259736,37.839774
1019075,11302 N 56th St,Temple Terrace,Hillsborough,Florida,33617,N,Y,N,N,N,Y,Y,Y,-82.394125,28.050964
1019384,213 Sussex Ave W,Tenino,Thurston,Washington,98589,-,Y,N,Y,Y,N,Y,N,-122.860375,46.853829
1018994,3380 Chicago Dr.,Hudsonville,Ottawa,Michigan,49426,-,Y,N,Y,Y,Y,Y,Y,-85.8654557,42.8677383
1010998,2800 Poplar Street,Terre Haute,Vigo,Indiana,47803,Y,Y,Y,Y,Y,Y,Y,Y,-87.37607,39.464145
1000710,"Lakeline Mall parking lot, behind Sears & Dillard's",Cedar Park,Williamson,Texas,78613,Y,Y,Y,Y,Y,Y,Y,Y,-97.806683,30.469036
1019165,15200 Annapolis Road,Bowie,Prince George's,Maryland,20715,-,Y,N,Y,Y,Y,Y,Y,-76.741902,38.97832
1021216,4902 Airport Blvd,Austin,Travis,Texas,78722,Y,Y,Y,Y,Y,Y,Y,Y,-97.707309,30.296761
1018279,7110 West Q Ave,Kalamazoo,Kalamazoo,Michigan,49009,Y,Y,Y,Y,Y,Y,Y,Y,-85.687996,42.201444
1010472,North Country Club Drive,Cullowhee,Jackson,North Carolina,28723,-,N,Y,Y,Y,Y,Y,N,-83.183494,35.300975
1021235,113 Market Street,Cullowhee,Jackson,North Carolina,28723,N,N,Y,Y,Y,Y,Y,N,-83.181023,35.311143
1012690,1408 Short Eleventh Street,Lincoln,Logan,Illinois,62656,Y,Y,Y,N,Y,Y,Y,Y,-89.38516,40.154182
1021204,Towncenter lane,Charlottesville,Albemarle,Virginia,22911,-,Y,N,Y,Y,Y,N,Y,-78.445556,38.126837
1020049,2 S Artillery Dr,Sumter,Sumter,South Carolina,29150,-,Y,Y,Y,N,Y,Y,Y,-80.361114,33.919521
1018768,854 N Barlow Rd,Lincoln,Alcona,Michigan,48742,-,Y,N,Y,Y,Y,Y,N,-83.403188,44.680782
1019047,7 Ballpark way,Old Orchard Beach,York,Maine,4064,-,Y,N,Y,Y,Y,Y,Y,-70.391653,43.514488
1021203,Lancaster BLVD,LANCASTER,Los Angeles,California,93534,-,Y,N,Y,N,Y,Y,Y,-118.142518,34.69773
1020096,2420 Center Street,Catlettsburg,Boyd,Kentucky,41129,N,Y,N,N,Y,Y,Y,N,-82.630489,38.470783
1019596,111 Capitol Heights Blvd,Capitol Heights,Prince George's,Maryland,20743,-,N,N,Y,N,N,N,N,-76.913335,38.887555
1018959,One Public Square,Clarksville,Montgomery,Tennessee,37040,Y,Y,N,Y,Y,Y,Y,N,-87.361048,36.528219
1019181,183 main street,cornwall n.y.,Orange,New York,12518,Y,Y,Y,N,Y,Y,Y,Y,-74.059815,41.442234
1019303,001 - 1st Street,Creede,Mineral,Colorado,81130,Y,Y,Y,Y,Y,Y,N,N,-106.926949,37.852344
1019544,13060 Factory Lane,Louisville/Jefferson County metro government (balance),Jefferson,Kentucky,40245,N,Y,Y,Y,Y,Y,Y,Y,-85.508543,38.286927
1019775,411 Wessel Drive,Fairfield,Butler,Ohio,45014,N,Y,Y,Y,N,Y,Y,Y,-84.563916,39.334042
1019931,Main St,Hillsboro,Sierra,New Mexico,88042,-,Y,N,Y,Y,Y,N,Y,-107.569106,32.920178
1019948,"250 Jackson Street, 5th Floor",Lowell,Middlesex,Massachusetts,1852,Y,N,Y,N,N,Y,Y,Y,-71.312805,42.641166
1019166,3900 Campus Drive,College Park,Prince George's,Maryland,20742,N,Y,Y,Y,Y,Y,Y,Y,-76.947513,38.985968
1019626,156 Sterling City Road,Lyme,New London,Connecticut,6371,N,Y,Y,N,Y,Y,N,Y,-72.101949,41.4878526
1020099,10699 US-60,Ashland,Boyd,Kentucky,41102,N,Y,N,N,Y,Y,Y,N,-82.712555,38.400138
1019751,1686 county road 517,Allamuchy,Warren,New Jersey,7820,-,Y,Y,Y,Y,Y,Y,Y,-74.813622,40.914599
1019697,1335 Donald Lee Hollowell Parkway,Atlanta,Fulton,Georgia,,Y,N,N,N,N,N,N,N,-84.426967,33.773326
1019700,3800 Main Street,College Park,Fulton,Georgia,30337,Y,N,N,N,N,N,N,N,-84.46008,33.638149
1019699,30 Alabama Street SW,Atlanta,Fulton,Georgia,30303,Y,N,N,N,N,N,N,N,-84.390574,33.755202
1019698,70 Hamilton E. Holmes,Atlanta,Fulton,Georgia,30311,Y,N,N,N,N,N,N,N,-84.476405,33.764764
1019696,,Atlanta,Fulton,Georgia,,-,N,N,N,N,N,N,N,-84.416667,33.728652
1012357,19305 Gulf Blvd,Indian Shores,Pinellas,Florida,33785,-,Y,N,Y,N,N,Y,Y,-82.842837,27.84788
1019001,210 Center Ave,Weston,Lewis,West Virginia,26452,N,Y,N,Y,N,Y,Y,N,-80.465764,39.037553
1019504,66 East Mill Road,Long Valley,Morris,New Jersey,7853,-,Y,Y,Y,Y,Y,Y,N,-74.770016,40.784492
1019966,194 Second St.,Amherst,Amherst,Virginia,24521,-,Y,Y,Y,Y,Y,Y,Y,-79.048305,37.583077
1019205,319 N. Lake St,Boyne City,Charlevoix,Michigan,49712,Y,Y,Y,Y,Y,Y,Y,Y,-85.015378,45.21685
1018422,492 Hill St.,Green Lake,Green Lake,Wisconsin,54941,Y,Y,N,Y,Y,N,Y,N,-88.960382,43.845375
1016917,1st and Gjoa,"Petersburg, AK",Wrangell-Petersburg,Alaska,99833,N,Y,N,N,Y,N,N,Y,-132.955913,56.81193
1019928,611 Doug Baker Blvd,Birmingham,Shelby,Alabama,35242,N,Y,N,Y,Y,Y,Y,Y,-86.666868,33.40644
1011497,12025 Susquehanna Trail S,Glen Rock,York,Pennsylvania,17327,-,Y,Y,Y,Y,Y,Y,Y,-76.730703,39.793503
1019517,7 Fan Hill Road,Monroe,Fairfield,Connecticut,6468,-,Y,Y,N,Y,Y,Y,N,-73.207774,41.33221
1002101,135 East Main st,Orange,Franklin,Massachusetts,1364,N,Y,Y,Y,Y,Y,N,N,-72.3033449,42.590734
1019739,14697 Delaware St,Westminster,Adams,Colorado,80023,-,Y,Y,Y,N,N,Y,N,-104.992071,39.961115
1019826,401 NE Second St.,Gresham,Multnomah,Oregon,97030,N,Y,Y,Y,Y,Y,Y,Y,-122.426975,45.499582
1019975,3220 E 3rd St.,Bloomington,Monroe,Indiana,47403,-,Y,Y,Y,Y,Y,N,Y,-86.491053,39.164192
1018628,320 N McDowell Blvd,Petaluma,Sonoma,California,94954,Y,Y,Y,Y,Y,Y,Y,Y,-122.630899,38.252337
1019351,103 Carlisle Street,Gettysburg,Adams,Pennsylvania,17325,N,Y,Y,N,Y,Y,Y,Y,-77.234147,39.830597
1018227,1 JFK Memorial Dr,Braintree,Norfolk,Massachusetts,2184,Y,Y,Y,N,Y,Y,Y,Y,-71.004927,42.206437
1009992,9100 113th St,Seminole,Pinellas,Florida,33772,-,Y,Y,Y,Y,Y,Y,Y,-82.796388,27.855798
1018624,Parking lot at Boyes Blvd & Hwy 12,Boyes Hot Springs,Sonoma,California,95476,Y,Y,N,N,N,N,N,Y,-122.482053,38.31433
1000278,2000 Territory Drive,Galena,Jo Daviess,Illinois,61036,N,Y,N,Y,N,Y,Y,N,-90.31353,42.404443
1020015,225 Main St,Little Falls,Passaic,New Jersey,7424,Y,Y,Y,N,Y,Y,Y,Y,-74.21035,40.872239
1010798,625 Booth Street,Reno,Washoe,Nevada,89509,Y,Y,N,Y,Y,Y,Y,Y,-119.827646,39.514749
1012799,2242 N. Main St.,Londonderry,Windham,Vermont,5148,Y,Y,Y,Y,Y,Y,Y,Y,-72.821619,43.228259
1008826,250 First Street,Woodland,Yolo,California,95695,Y,Y,N,Y,Y,Y,Y,N,-121.7737712,38.6792311
1008827,Corner of Cottonwood and Gibson Rd,Woodland,Yolo,California,95695,Y,Y,N,N,Y,Y,Y,N,-121.793045,38.663686
1019228,Corner of 3rd Street and Duluth Ave.,Thief River Falls,Pennington,Minnesota,56701,-,Y,N,Y,N,Y,Y,Y,-96.184263,48.118841
1017961,"Avenue of the Flags, San Rafael , California 94903",San Rafael,Marin,California,94903,Y,Y,Y,N,Y,Y,Y,Y,-122.534505,38.001229
1002407,570 Western Ave.,Brattleboro,Windham,Vermont,5301,Y,Y,Y,Y,Y,Y,Y,Y,-72.58407,42.8499
1009802,Burnham Street at Main Street,Tigard,Washington,Oregon,,N,Y,N,Y,Y,Y,Y,N,-122.772142,45.429956
1004291,11652 Hydetown Road,Titusville,Crawford,Pennsylvania,16354,-,Y,N,Y,Y,Y,Y,Y,-79.699976,41.635684
1019963,21st & Main Street,Torrington,Goshen,Wyoming,82240,N,Y,Y,Y,Y,Y,Y,N,-104.184071,42.064541
1019860,7720 Harwood Avenue,Wauwatosa,Milwaukee,Wisconsin,53213,Y,Y,Y,N,Y,Y,Y,Y,-88.008346,43.048824
1019393,410 N. Main Street,Hillsville,Carroll,Virginia,24343,-,Y,N,Y,Y,Y,N,N,-80.7362,36.766222
1019213,Main Street,Wadley,Randolph,Alabama,36276,N,Y,N,Y,N,Y,Y,N,-85.573055,33.1234
1019638,95 Coral Reef,DuBois,Clearfield,Pennsylvania,15801,-,Y,Y,Y,Y,Y,Y,Y,-78.704999,41.201813
1018933,Trout Creek Park,Trout Creek,Sanders,Montana,59874,-,Y,N,Y,Y,Y,Y,N,-115.587957,47.832429
1020002,Riverfront Park,Troy,Rensselaer,New York,12180,Y,Y,Y,N,Y,Y,Y,Y,-73.691288,42.732715
1019632,175 Monroe Road,Meridianville,Madison,Alabama,35759,-,Y,N,Y,Y,Y,N,N,-86.57513,34.859086
1011075,80 Flat St.,Brattleboro,Windham,Vermont,5301,Y,Y,Y,Y,N,Y,Y,Y,-72.560166,42.850844
1018397,6th and Madison Streets,Bloomington,Monroe,Indiana,47404,Y,Y,Y,Y,Y,Y,Y,Y,-86.537883,39.167687
1019324,www.lakecountyfarmersfinest.org,Lakeport,Lake,California,95453,Y,N,Y,Y,Y,N,Y,N,-122.91374,39.043566
1018283,415 South Spring Street,Tupelo,Lee,Mississippi,38804,N,Y,N,N,Y,N,Y,Y,-88.704327,34.253733
1019349,1900 Jack Warner Pkwy,Tuscaloosa,Tuscaloosa,Alabama,35401,Y,Y,N,Y,Y,Y,Y,Y,-87.562834,33.216479
1012573,Main Street City Park and Fairgrounds,Twin Bridges,Madison,Montana,59754,-,Y,N,Y,Y,Y,Y,Y,-112.33373,45.542747
1005493,106 Avenue A,Sterling IL,Whiteside,Illinois,61081,-,Y,Y,Y,Y,Y,Y,Y,-89.697172,41.787255
1006169,,Two Rivers,Manitowoc,Wisconsin,54241,-,N,N,Y,N,Y,Y,N,-87.569392,44.150114
1018968,106 Lakeside Drive,Union,Union,South Carolina,29379,-,Y,N,Y,Y,Y,Y,Y,-81.614994,34.716023
1019215,148 Old Smokey Rd,Blairsville,Union,Georgia,30512,Y,Y,Y,Y,Y,Y,Y,N,-83.9506972,34.8857201
1019925,115 Durham Drive,Maynardville,Union,Tennessee,37807,N,Y,Y,Y,Y,Y,Y,N,-83.8228,36.237614
1020113,3215 Quicksand Road,Jackson,Breathitt,Kentucky,41339,-,Y,N,Y,N,Y,Y,N,-83.348327,37.535327
1010158,280 Common Road,Union,Knox,Maine,4862,Y,Y,Y,Y,Y,Y,N,N,-69.274562,44.211498
1019540,66-70 Union Square,Somerville,Middlesex,Massachusetts,2143,Y,Y,Y,N,Y,Y,Y,Y,-71.094533,42.379761
1018634,111 E. University Ave.,Gainesville,Alachua,Florida,32601,Y,Y,Y,N,Y,Y,Y,Y,-82.323602,29.6517956
1019764,2850 Tremont Rd,Upper Arlington,Franklin,Ohio,43221,Y,Y,N,N,Y,Y,Y,Y,-83.066903,40.013849
1019105,220 Maxwell Avenue,Greenwood,Greenwood,South Carolina,29646,Y,Y,Y,Y,N,Y,N,Y,-82.1638058,34.1903885
1001886,Fifth Street and Evans Street,Greenville,Pitt,North Carolina,27858,-,Y,N,Y,Y,Y,Y,Y,-77.373338,35.611005
1019448,62 N. State St.,Westerville,Franklin,Ohio,43081,N,Y,Y,N,Y,Y,Y,N,-82.932051,40.12757
1019342,2752 Buffalo Speedway,Houston,Harris,Texas,77027,Y,Y,Y,N,Y,Y,Y,Y,-95.431103,29.741093
1018852,102 Capitol Ave,Urbana,Benton,Iowa,52345,-,Y,N,Y,Y,Y,N,N,-91.873662,42.223981
1019498,9020 Amelung Street,Frederick,Frederick,Maryland,21704,-,Y,N,Y,Y,Y,Y,Y,-77.35447,39.331636
1018556,1400 Park Ave,Bremerton,Kitsap,Washington,98337,Y,Y,Y,Y,Y,Y,Y,N,-122.628866,47.574253
1005631,Corner 12th St. & Independence Ave. SW,Washington,District of Columbia,District of Columbia,20250,N,Y,Y,N,Y,Y,Y,Y,-77.028494,38.887743
1018535,210 Southpark Dr.,Henderson,Vance,North Carolina,27536,Y,Y,N,Y,Y,Y,Y,N,-78.4244013,36.3378971
1019692,Galleria Shoppes at Vanderbilt,Naples,Collier,Florida,34109,Y,Y,Y,Y,Y,Y,Y,Y,-81.771054,26.246337
1018597,Main and Market Streets,Vermillion,Clay,South Dakota,57069,Y,Y,Y,Y,Y,Y,Y,N,-96.93415,42.779219
1018598,515 High Street,Vermillion,Clay,South Dakota,57069,Y,Y,Y,Y,Y,Y,Y,Y,-96.9346099,42.7851033
1019078,Depot Park (at the Walmart Shopping Plaza),Rutland,Rutland,Vermont,5701,Y,Y,Y,Y,Y,Y,Y,Y,-72.980071,43.605826
1019080,251 West Street,RUTLAND,Rutland,Vermont,5701,-,Y,Y,Y,N,Y,Y,Y,-72.985592,43.607916
1019182,PO Box 873,Nevada,Vernon,Missouri,64772,N,Y,N,N,Y,Y,Y,N,-94.340102,37.843772
1019952,Lakeview Parkway and Hawthorn Parkway,Vernon Hills,Lake,Illinois,60061,-,Y,N,N,N,N,Y,Y,-87.962265,42.241619
1012247,300 N. Richardson,Vicksburg,Kalamazoo,Michigan,49097,N,N,N,N,N,N,N,N,-85.528345,42.126553
1019146,1 Vogt Drive,Bridgewater,Somerset,New Jersey,8807,Y,Y,Y,Y,Y,Y,N,N,-74.607976,40.588552
1019513,2805 North Navarro,Victoria,Victoria,Texas,77901,N,Y,N,Y,N,Y,Y,N,-97.000968,28.821562
1012297,5106 Fleet Ave,Cleveland,Cuyahoga,Ohio,44105,-,Y,N,N,N,N,Y,N,-81.654595,41.455724
1018286,Main Street (Route 90),Aurora,Cayuga,New York,13026,N,Y,N,Y,Y,Y,Y,Y,-76.700376,42.745254
1018155,165 N Washington St,Constantine,St. Joseph,Michigan,49042,N,Y,Y,Y,Y,Y,Y,N,-85.670007,41.843957
1019645,Stephen Street & Talcott Avenue (behind LaDolce Vita),Lemont,Cook,Illinois,60439,-,Y,N,Y,N,Y,Y,Y,-87.998186,41.675519
1019156,5127 Oakton Street,Skokie,Cook,Illinois,60077,N,Y,Y,N,Y,Y,Y,Y,-87.756755,42.026029
1006342,102 N. Second St.,Vincennes,Knox,Indiana,47591,N,Y,Y,Y,Y,Y,Y,Y,-87.531359,38.68061
1020169,212 E 1st Street,O'Fallon,St. Clair,Illinois,62269,-,Y,Y,Y,Y,Y,Y,Y,-89.909163,38.591603
1018214,100 W. Shaw,Fresno,Fresno,California,93704,Y,Y,Y,N,Y,Y,Y,Y,-119.7910413,36.8097606
1018504,195 Main Street,Voluntown,New London,Connecticut,6384,N,Y,N,Y,N,Y,Y,N,-71.865502,41.573913
1018756,20 N Main Street,Brigham City,Box Elder,Utah,84302,-,Y,Y,Y,N,Y,Y,Y,-112.015057,41.510773
1001925,68 Maple Ave.,Voorheesville,Albany,New York,12186,-,Y,Y,N,Y,Y,Y,N,-73.930027,42.649656
1010394,Main Street West & Allegheny Avenue next to Hillâ€™s Hardware,Wabasha,Wabasha,Minnesota,55981,Y,Y,N,Y,Y,Y,Y,Y,-92.032633,44.384124
1019155,500 Washington Avenue,Waco,McLennan,Texas,76701,Y,Y,Y,Y,Y,Y,Y,Y,-97.132941,31.55682
1019752,151 Main Street,Wadsworth,Medina,Ohio,44281,-,Y,Y,Y,Y,N,Y,Y,-81.732318,41.028681
1005268,1139 A Kilani Avenue,Wahiawa,Honolulu,Hawaii,96786,N,Y,N,N,Y,N,N,N,-158.02258,21.500382
1004574,Corner of 7th and Beech,Wahoo,Saunders,Nebraska,68066,-,Y,N,Y,N,Y,N,N,-96.617391,41.212079
1005263,98-1650 Kaahumanu Street,Pearl City,Honolulu,Hawaii,96782,N,Y,N,N,Y,N,N,N,-157.952992,21.402403
1005269,94-870 Lumiana Street,Waiapahu,Honolulu,Hawaii,96767,N,N,N,N,N,N,N,N,-157.971725,21.453708
1005264,41-741 Kalanianaole Highway.,Waimanalo,Honolulu,Hawaii,96795,N,N,N,N,Y,N,N,N,-157.6946,21.331444
1005266,94-230 Paiwa Street,Waipahu,Honolulu,Hawaii,96767,N,Y,N,N,Y,N,N,N,-157.999449,21.387839
1005483,"Hitchcock Free Academy, a community center parking lot, at  2 Brookfield Rd.",Brimfield,Hampden,Massachusetts,1010,Y,Y,Y,Y,Y,Y,Y,N,-72.199901,42.122751
1019489,8100 Braddock Road,Annandale,Fairfax,Virginia,22003,N,Y,Y,N,N,Y,Y,N,-77.196229,38.832801
1020197,1799 Locust Street,Walnut Creek,Contra Costa,California,94596,Y,Y,Y,Y,Y,Y,Y,Y,-122.040479,37.902666
1018219,,Ottumwa,Wapello,Iowa,52501,N,Y,N,Y,N,Y,Y,N,-92.425855,41.017422
1018552,3211 Harborview Drive,Gig Harbor,Pierce,Washington,98335,Y,Y,Y,Y,Y,Y,Y,Y,-122.581037,47.331497
1020021,22 Locust Street,Waterloo,Seneca,New York,13165,N,Y,Y,Y,Y,Y,Y,Y,-76.865814,42.903737
1019394,690 Thomaston Rd.,Watertown,Litchfield,Connecticut,6795,-,Y,Y,Y,Y,Y,Y,N,-73.106489,41.62258
1018319,501 7th St SE,Watford City,McKenzie,North Dakota,58854,N,Y,N,Y,Y,Y,Y,N,-103.271392,47.797315
1001962,850 Rossville Road,Waukon,Allamakee,Iowa,52172,N,Y,N,N,Y,Y,N,N,-91.472878,43.260191
1011229,1460 n Augusta Ave,Waycross,Ware,Georgia,31503,-,Y,Y,Y,Y,Y,Y,Y,-82.3818511,31.235752
1019613,149 South Main Street,Wayland,Allegan,Michigan,49348,N,Y,N,Y,N,Y,Y,N,-85.642864,42.67262
1019905,807 Broad St.,Providence,Providence,Rhode Island,2907,-,N,N,N,N,N,Y,N,-71.41892,41.801869
1004499,397 Boston Post Road,Wayland,Middlesex,Massachusetts,1778,Y,Y,Y,N,Y,Y,Y,Y,-71.369892,42.363071
1019016,Center & Main,Torrey,Wayne,Utah,84775,-,Y,Y,Y,Y,Y,Y,Y,-111.42089,38.299219
1019664,200 Willow Avenue,Honesdale,Wayne,Pennsylvania,18431,Y,Y,N,Y,Y,Y,Y,N,-75.251749,41.567023
1012485,Warren and Woodward Ave,Detroit,Wayne,Michigan,48202,-,Y,N,N,Y,N,Y,Y,-83.064645,42.356528
1020047,215 McElroy St.,Waynesboro,Waynesboro,Virginia,22980,N,Y,Y,N,Y,Y,N,Y,-78.885734,38.068559
1019124,High Street,Waynesburg,Fulton,Pennsylvania,15370,-,Y,N,N,Y,N,Y,N,-80.186112,39.896462
1019743,41 Grove Avenue,East Providence,Providence,Rhode Island,2914,-,Y,Y,N,Y,Y,Y,Y,-71.356584,41.799956
1006093,Baker's Island,Webster Springs,Webster,West Virginia,26288,N,Y,N,N,N,N,Y,N,-80.415459,38.47842
1000384,"1028 Ridge Road, Webster Towne Center",Webster,Monroe,New York,14580,-,Y,N,Y,Y,N,Y,N,-77.452948,43.212229
1019864,Wayne Avenue & Hospital Rd,Indiana,Indiana,Pennsylvania,15701,N,Y,N,N,N,Y,Y,N,-79.159344,40.610507
1019257,161 S Main St,Broadway,Rockingham,Virginia,22815,N,Y,N,Y,Y,Y,Y,Y,-78.799904,38.611375
1012212,1 State Street,Weiser,Washington,Idaho,83672,-,Y,N,Y,N,Y,Y,N,-116.97113,44.244083
1019641,2931 Monroe Avenue,Missouri Valley,Harrison,Iowa,51555,N,Y,Y,Y,Y,Y,Y,Y,-95.848181,41.583893
1019114,200 Main Street,Wellfleet,Barnstable,Massachusetts,2667,Y,Y,Y,Y,Y,Y,Y,Y,-70.027995,41.939238
1002890,4394 W Washington Blvd.,Los Angeles,Los Angeles,California,90016,Y,Y,N,Y,Y,Y,Y,Y,-118.334753,34.03979
1002280,851 Couvillion St,Moreauville,Avoyelles,Louisiana,71355,-,N,N,Y,N,N,N,N,-91.979567,31.035239
1019067,1210 Patterson Ave. SW,Roanoke,Roanoke City,Virginia,24016,-,Y,Y,Y,Y,Y,Y,Y,-79.958472,37.27783
1018650,1600 Purdue Ave.,Los Angeles,Los Angeles,California,90025,Y,Y,Y,Y,Y,Y,Y,Y,-118.450674,34.045724
1019424,80 Main Street,West Orange,Essex,New Jersey,7052,-,Y,N,Y,Y,Y,Y,N,-74.238131,40.780392
1019657,1380 Bill Virdon Blvd.,West Plains,Wright,Missouri,65775,Y,Y,N,Y,N,Y,Y,N,-91.835774,36.723987
1019877,,West Point,Dodge,Nebraska,,-,N,N,N,N,N,N,N,-96.705918,41.837741
1019847,100 East Penn Drive,Enola,Cumberland,Pennsylvania,17025,N,Y,Y,N,Y,Y,Y,Y,-76.937407,40.273997
1019984,45 School St,Brockton,Plymouth,Massachusetts,2301,N,N,N,N,Y,N,Y,N,-71.018866,42.082799
1002177,Main street,Village of Highland Falls,Orange,New York,10928,Y,Y,Y,Y,N,Y,Y,N,-73.96631,41.36957
1016908,2233 W Division St,Chicago,Cook,Illinois,60622,Y,Y,Y,N,Y,Y,Y,Y,-87.684396,41.902872
1019911,186 Providence St,West Warwick,Kent,Rhode Island,2893,-,N,N,N,N,N,N,N,-71.516856,41.713691
1012204,19251 N Westbrook Parkway,Peoria,Maricopa,Arizona,85382,-,Y,Y,Y,Y,N,Y,Y,-112.265596,33.658197
1010319,10503 Westheimer Road,Houston,Harris,Texas,77042,-,Y,Y,N,N,Y,Y,Y,-95.560152,29.736539
1019509,"315 Main Street, Jess Price Park",Westcliffe,Custer,Colorado,81252,-,Y,N,Y,N,N,Y,N,-105.466411,38.136152
1019364,Main and 11th st,Rainelle,Greenbrier,West Virginia,25962,-,Y,N,Y,Y,Y,Y,N,-80.760056,37.972743
1019444,1 S Grove St,Westerville,Franklin,Ohio,43081,Y,Y,N,Y,Y,Y,Y,Y,-82.935814,40.125435
1018841,36 Court Street,Westfield,Hampden,Massachusetts,1085,Y,Y,Y,Y,N,Y,Y,Y,-72.7516316,42.1196339
1019797,2925 W. Broad Street,Columbus,Franklin,Ohio,43204,-,Y,N,Y,Y,Y,Y,Y,-83.078781,39.954491
1019794,925 E. Mt. Vernon Avenue,Columbus,Franklin,Ohio,43203,-,Y,N,Y,N,N,N,N,-82.976997,39.97139
1002816,21-33 Academy St. (Town Common),Westminster,Worcester,Massachusetts,1473,Y,Y,N,Y,Y,Y,Y,N,-71.906161,42.541635
1020070,9705 Westport Road,Louisville,Jefferson,Kentucky,40241,-,Y,N,Y,Y,Y,Y,Y,-85.571695,38.288727
1021217,750 University Row,Madison,Dane,Wisconsin,53705,Y,Y,Y,N,Y,Y,Y,N,-89.470022,43.076385
1004515,510 W. Ottawa St.,Lansing,Ingham,Michigan,48933,N,Y,N,N,N,Y,Y,N,-84.559858,42.73477
1005280,Corner of Western Drive and Mission St.,Santa Cruz,Santa Cruz,California,95060,Y,Y,Y,N,Y,Y,Y,Y,-122.057,36.9598
1020020,1030 Broxton St,Los Angeles,Los Angeles,California,90024,Y,Y,N,Y,N,Y,Y,Y,-118.44653,34.061784
1019252,1030 Broxton Avenue,Los Angeles,Los Angeles,California,90024,Y,Y,N,Y,Y,Y,Y,Y,-118.446688,34.061997
1020010,105 College Street,White House,Sumner,Tennessee,37188,-,Y,Y,Y,Y,Y,Y,N,-86.653004,36.467683
1019955,26 White St.,Eureka Springs,Carroll,Arkansas,72632,Y,Y,N,N,Y,Y,N,N,-93.741728,36.404902
1019392,3379 Millbranch Road,Memphis,Shelby,Tennessee,38116,-,Y,N,N,N,Y,Y,Y,-90.008281,35.055288
1019527,15786 HWY 101 SOUTH,Brookings,Curry,Oregon,97415,Y,Y,Y,Y,Y,Y,Y,Y,-124.244963,42.037301
1020157,NIBROC Park,Corbin,Whitley,Kentucky,40771,Y,Y,N,N,N,Y,Y,N,-84.096509,36.947
1020156,Billwoods Park,Williamsburg,Whitley,Kentucky,40769,Y,Y,N,N,N,Y,Y,N,-84.159267,36.741975
1019221,2608 Blaisdell Ave S,Minneapolis,Hennepin,Minnesota,55408,Y,Y,N,Y,Y,N,Y,Y,-93.280032,44.955321
1019878,,Dorchester,Saline,Nebraska,,-,N,N,N,N,N,N,N,-97.114886,40.64738
1019069,8116 19th St,Lubbock,Lubbock,Texas,79407,-,Y,Y,Y,Y,Y,Y,Y,-101.99615,33.578343
1018274,842 CBD Loop,North Wilkesboro,Wilkes,North Carolina,28659,Y,Y,Y,Y,N,Y,Y,Y,-81.1452,36.159075
1019652,225 Penn Avenue,Wilkinsburg,Allegheny,Pennsylvania,15221,N,Y,N,N,Y,Y,Y,N,-79.890864,40.445948
1019744,402 W Duke of Gloucester Street,Williamsburg,Williamsburg,Virginia,23185,Y,Y,Y,N,Y,Y,Y,Y,-76.706824,37.270881
1019337,100 East 2nd Ave.,Williamson,Mingo,West Virginia,25661,N,Y,N,Y,N,Y,Y,N,-82.276602,37.670411
1020187,1425 Lincoln Avenue,San Jose,Santa Clara,California,95125,Y,Y,Y,Y,Y,Y,Y,Y,-121.819306,37.296867
1021210,Centre Street West PArking Lot,Brookline,Norfolk,Massachusetts,2446,Y,Y,Y,N,Y,Y,N,Y,-71.123782,42.34219
1019433,Larawy Rd,Winchester,Middlesex,Massachusetts,1890,Y,Y,Y,Y,Y,Y,Y,Y,-71.137946,42.452024
1019369,Meridian & Washington St.,Winchester,Randolph,Indiana,47394,Y,Y,N,Y,Y,Y,Y,N,-84.977051,40.1721
1011274,1262 Winchester Rd,Huntsville,Madison,Alabama,35811,-,Y,Y,Y,Y,Y,Y,Y,-86.526471,34.801092
1021231,9950 E CORNVILLE RD,CORNV,Yavapai,Arizona,86325,N,Y,N,Y,Y,N,Y,Y,-111.908597,34.739119
1019229,Market Street,Winnsboro,Wood,Texas,75494,N,Y,Y,Y,Y,Y,Y,N,-95.289646,32.957692
1019848,323 Vermont Avenue,Oak Ridge,Anderson,Tennessee,37830,-,N,N,N,N,N,N,N,-84.251024,36.017239
1019653,333 Main Street,"Green Bay, WI",Brown,Wisconsin,54301,Y,Y,Y,Y,N,Y,Y,Y,-88.01125,44.517943
1019449,420 W. 1st St.,Casper,Natrona,Wyoming,82601,N,Y,Y,Y,N,Y,Y,Y,-106.329524,42.850412
1018925,883 Highland Avenue SE,Hickory,Catawba,North Carolina,28602,Y,Y,Y,Y,N,Y,Y,Y,-81.3258422,35.735392
1019463,100-198 1st Avenue South,Wisconsin Rapids,Wood,Wisconsin,54495,-,Y,Y,Y,Y,N,Y,N,-89.82674,44.392924
1018891,15487 Citrus Way,Brooksville,Hernando,Florida,34614,-,Y,Y,Y,N,Y,Y,N,-82.449304,28.654639
1008231,309 E. Main Street,Wise,Wise,Virginia,24293,-,Y,N,Y,Y,Y,Y,N,-82.578257,36.9768742
1019845,"570 Brevard Road, Asheville, NC  28806",Asheville,Buncombe,North Carolina,28806,Y,Y,Y,Y,Y,Y,Y,Y,-82.598648,35.555133
1020158,640 S KY 15,Campton,Wolfe,Kentucky,41301,N,N,N,N,N,N,Y,N,-83.542778,37.727015
1009027,233 South Main St,Wolfeboro,Carroll,New Hampshire,3894,Y,Y,Y,N,Y,Y,Y,Y,-71.202747,43.580593
1019098,8924 CR 7100,Wolfforth,Lubbock,Texas,79382,-,Y,Y,Y,Y,Y,Y,Y,-102.0163305,33.5197029
1020138,N. Gratz St.,Midway,Woodford,Kentucky,40347,N,Y,N,Y,N,N,Y,N,-84.682308,38.149925
1020168,525 Marsailles Road,VERSAILLES,Woodford,Kentucky,40383,Y,Y,N,Y,Y,Y,Y,N,-84.733856,38.050275
1019038,6 Maple Lane,Woodstock,Ulster,New York,12498,Y,Y,N,N,Y,Y,Y,N,-74.117834,42.040522
1005140,Market Street and Elm Street,Woodstock,Cherokee,Georgia,30188,-,Y,Y,N,Y,Y,Y,Y,-84.52092,34.100488
1011337,13th St. and Locust Ave.,Woodward,Woodward,Oklahoma,73801,N,Y,N,Y,Y,Y,Y,N,-99.3957807,36.4314963
1019906,201 Thayer St,Providence,Providence,Rhode Island,2906,-,Y,Y,N,Y,Y,Y,Y,-71.400031,41.826418
1019912,450 Clinton St,Woonsocket,Providence,Rhode Island,2895,-,N,N,N,N,N,N,N,-71.504321,42.007654
1019193,56 NW 29th St,Miami,Miami-Dade,Florida,33127,Y,Y,N,N,N,Y,Y,Y,-80.196719,25.803534
1017915,210 W. Spring Street,Wytheville,Wythe,Virginia,24368,-,Y,Y,Y,Y,Y,Y,Y,-81.0833677,36.9486397
1019708,65 N. Main St.,Yardley borough,Bucks,Pennsylvania,19067,Y,Y,Y,Y,Y,Y,Y,Y,-74.841627,40.243417
1018508,Buttonwood Park,Yardley borough,Bucks,Pennsylvania,19067,Y,Y,Y,Y,Y,Y,Y,Y,-74.839868,40.240633
1007259,"Main Street, North of Elm Street",Penn Yan,Yates,New York,14527,Y,Y,Y,Y,Y,Y,Y,N,-77.053889,42.661345
1002366,1940 North 30th Road,Hollywood,Broward,Florida,33021,Y,Y,Y,Y,Y,Y,Y,Y,-80.169243,26.03026
1019508,1901 South Tiger Drive,Yorktown,Delaware,Indiana,47396,-,Y,N,Y,Y,Y,Y,Y,-85.495124,40.177147
1019247,800 Towne and County BLVD.,Houston,Harris,Texas,77024,Y,Y,N,Y,Y,Y,Y,Y,-95.386342,29.780472
1019245,23501 Cinco Ranch BLVD.,Katy,Harris,Texas,77494,Y,Y,N,Y,Y,Y,Y,Y,-95.7750405,29.7413678
1019727,61 N. Green Street,Brownsburg,Hendricks,Indiana,46112,-,Y,Y,Y,Y,N,Y,Y,-86.396445,39.844272
1019246,4503 Canyon Village  Trace Dr.,Humble,Harris,Texas,77396,Y,Y,N,Y,Y,Y,Y,Y,-95.2539369,29.9415214
1019250,14303 West Lake Houston Parkway,Houston,Harris,Texas,77044,Y,Y,N,Y,Y,Y,Y,Y,-95.1773832,29.9341141
1019242,17317 Cathedral Pines Drive,Humble,Harris,Texas,77346,-,Y,N,Y,Y,Y,Y,Y,-95.26831,29.988144
1019244,9945 Barker Cypress Road,Cypress,Harris,Texas,77443,Y,Y,N,Y,Y,Y,Y,Y,-95.6872981,29.9223808
1019327,16 S Washington,Ypsilanti,Washtenaw,Michigan,48197,Y,Y,Y,Y,Y,Y,Y,Y,-83.614751,42.240285
1016909,1712 Fairlane Road,Yreka,Siskiyou,California,96097,N,Y,N,Y,Y,Y,Y,N,-122.6401341,41.7070195
1019863,103 N Arendell Ave,Zebulon,Wake,North Carolina,27597,N,Y,N,Y,Y,Y,Y,N,-78.314111,35.821835
1019792,Beaver Street and South Division Street,Zelienople,Butler,Pennsylvania,16063,-,Y,N,Y,Y,Y,Y,N,-80.130181,40.792698
1017968,Corner of Hwy 8 and N Alvey Street,Bruce,Rusk,Wisconsin,54819,N,Y,Y,Y,Y,Y,Y,Y,-91.2746971,45.4551101
1008607,277 Pleasant Hill Rd,Brunswick,Cumberland,Maine,4011,-,Y,Y,Y,Y,Y,Y,Y,-69.995923,43.890786
1019218,100 N. First Street,Hampton,Hampton,Virginia,23664,N,Y,N,Y,N,Y,Y,Y,-76.291807,37.041273
1008961,"79-7500 Mamalahoa Highway, Unit 1",Kealakekua,Hawaii,Hawaii,96750,Y,Y,Y,N,N,Y,Y,Y,-155.9236509,19.525784
1008953,99 Main Street,Bucksport,Hancock,Maine,4416,Y,Y,N,Y,Y,Y,Y,Y,-68.796497,44.572636
1000843,"150 N. Third Street Burbank, CA 91502",Burbank,Los Angeles,California,91502,Y,Y,Y,N,Y,Y,Y,N,-118.3079771,34.1828004
1019492,5671 Roberts Parkway,Burke,Fairfax,Virginia,22015,Y,Y,Y,N,Y,Y,Y,Y,-77.263568,38.776991
1019965,345 Pine Street,Burlington,Chittenden,Vermont,5401,Y,Y,Y,Y,Y,Y,Y,Y,-73.215415,44.46973
1019799,75 Tinkham Lane,Harrisville,Providence,Rhode Island,2830,-,Y,N,Y,Y,Y,Y,N,-71.677124,41.967496
1002567,701 Cedar,Greenville,Butler,Alabama,36037,Y,Y,N,Y,Y,Y,Y,N,-86.617709,31.830281
1001362,Uptown Butte,Butte,Silver Bow,Montana,59701,Y,Y,Y,Y,Y,Y,Y,Y,-112.5364,46.01269
1020089,7 0 Main Street,"Cadiz, KY",Trigg,Kentucky,42211,-,Y,N,N,Y,Y,Y,N,-87.835998,36.862889
1004927,600 Cagan Park Ave.,Clermont,Lake,Florida,34714,-,Y,Y,Y,N,Y,Y,Y,-81.678425,28.355644
1019922,891 Mountain Ranch Road,San Andreas,Calaveras,California,95249,N,Y,N,Y,Y,Y,Y,Y,-120.667822,38.191243
1019203,108 Indian Head Road,Toms River,Ocean,New Jersey,8753,Y,Y,N,Y,N,N,Y,Y,-74.207478,39.992509
1019978,505 S. Algiers St.,Murphys,Calaveras,California,95247,Y,Y,N,N,Y,Y,Y,N,-120.463811,38.13686
1018262,Pearl St,St. Johnsbury,Caledonia,Vermont,5819,Y,Y,Y,Y,Y,Y,Y,Y,-72.016637,44.416902
1018263,Depot Square,St. Johnsbury,Caledonia,Vermont,5819,Y,Y,Y,Y,Y,Y,Y,Y,-72.015393,44.417208
1019980,3920 N Greenbay Rd,Caledonia,Racine,Wisconsin,53404,-,Y,N,Y,Y,N,Y,N,-87.822883,42.769605
1020188,"California Avenue, at El Camino",Palo Alto,Santa Clara,California,94306,Y,Y,Y,Y,Y,Y,Y,Y,-122.13255,37.46778
1018459,22810 Three Notch Road,California,St. Mary's,Maryland,20619,Y,Y,N,Y,Y,Y,Y,N,-76.499596,38.294524
1019997,2220 Ventura Blvd.,Camarillo,Ventura,California,93010,Y,Y,N,Y,Y,Y,Y,Y,-119.041574,34.216518
1020160,1000 Main Street,Cambria,San Luis Obispo,California,93428,Y,Y,Y,N,Y,Y,Y,Y,-121.096629,35.564323
1020183,Camden Avenue and Union Avenue,San Jose,Santa Clara,California,95124,Y,Y,Y,N,Y,Y,Y,Y,-121.819306,37.296867
1020117,7634 Alexandria Pike,Alexandria,Campbell,Kentucky,41001,-,Y,N,N,N,N,N,N,-84.392139,38.97801
1012233,7777 Walnut Grove Rd,Memphis,Shelby,Tennessee,38120,Y,Y,N,Y,Y,Y,Y,Y,-89.801733,35.127452
1020118,3504 Alexandria Pike,Highland Heights,Campbell,Kentucky,41075,-,Y,N,N,Y,Y,N,Y,-84.451866,39.028829
1020119,709 Monmouth St,Newport,Campbell,Kentucky,41071,-,Y,N,N,Y,Y,N,N,-84.491761,39.090164
1020184,Campbell Avenue & Central Avenue,Campbell,Santa Clara,California,95008,Y,Y,Y,Y,Y,Y,Y,Y,-121.954352,37.280232
1009034,200 Harding Street,Worcester,Worcester,Massachusetts,1604,Y,Y,Y,Y,Y,Y,Y,Y,-71.797436,42.256235
1019810,36 East Canal Street,Newark,Licking,Ohio,43055,Y,Y,Y,N,Y,Y,Y,Y,-82.401032,40.056586
1021202,127 West Center Street,Medina,Orleans,New York,14103,N,Y,N,Y,N,Y,N,N,-78.388368,43.220102
1012038,7248 Owensmouth st,canoga park,Los Angeles,California,91303,Y,Y,Y,Y,Y,Y,Y,Y,-118.601612,34.203746
1019772,500 North Ridge Road,Canton,Wayne,Michigan,48188,Y,Y,Y,Y,Y,Y,Y,Y,-83.533591,42.308841
1018068,SE 47th Terr & SE 10th Pl,Cape Coral,Lee,Florida,33904,Y,Y,Y,Y,Y,Y,Y,Y,-81.952514,26.563733
1005285,35 S. Spanish St.,Cape Girardeau,Cape Girardeau,Missouri,63701,-,Y,Y,Y,Y,Y,Y,Y,-89.519874,37.302699
1005258,1201 Ala Moana Boulevard,Honolulu,Honolulu,Hawaii,96822,N,N,N,N,N,N,N,N,-157.84493,21.287867
1011930,126 West Loockerman Street (Loockerman Way Plaza),Dover,Kent,Delaware,19904,-,Y,N,Y,Y,Y,N,N,-75.5262294,39.1576541
1018359,1300 Pennsylvania Avenue,DC,District of Columbia,District of Columbia,20004,N,Y,N,N,Y,Y,Y,Y,-77.030256,38.894748
1008450,3690 The Barnyard,Carmel,Monterey,California,93923,Y,Y,Y,N,Y,Y,Y,N,-121.9270394,36.9872756
1006651,Corner of Bird and Stossel,Carnation,King,Washington,98014,Y,Y,Y,N,Y,Y,Y,Y,-121.912419,47.648587
1019417,6619 hwy 29 north,Pelzer,Anderson,South Carolina,29669,-,Y,Y,N,N,Y,Y,Y,-82.4614,34.641892
1008322,Carrollton Uptown Square,Carrollton,Carroll,Missouri,64633,Y,Y,N,Y,N,Y,Y,N,-93.496941,39.358097
1021213,3rd & Curry St.,Carson City,Carson City,Nevada,89703,Y,Y,N,Y,Y,Y,Y,Y,-119.768164,39.162841
1020071,94 FAIRGROUND DR,GRAYSON,Carter,Kentucky,41143,N,Y,N,N,N,Y,Y,N,-82.904359,38.331557
1020074,131 Jessica Lane,Olive Hill,Carter,Kentucky,41164,N,Y,N,N,N,N,Y,N,-83.180887,38.29761
1012093,108 Main St.,Carver,Plymouth,Massachusetts,2330,N,Y,N,Y,Y,Y,Y,Y,-70.769182,41.888852
1008054,17375 Spring Hill Dr,Brooksville,Hernando,Florida,34604,Y,Y,Y,Y,Y,Y,Y,Y,-82.441514,28.481294
1019159,4965 Catawba Creek Road,Catawba,Roanoke,Virginia,24070,N,Y,N,Y,Y,Y,N,N,-80.1068482,37.3835006
1012484,Corner Of NW Cornell and Murray Roads,Portland,Washington,Oregon,97229,N,Y,N,Y,Y,Y,Y,Y,-122.8141034,45.5263877
1019842,1046 Cedar Point Blvd.,Cedar Point,Carteret,North Carolina,28584,N,Y,Y,N,Y,Y,Y,Y,-77.084819,34.686956
1019405,101 N. Main St.,Celina,Mercer,Ohio,45822,-,Y,Y,Y,N,Y,Y,Y,-84.57095,40.549926
1018734,142 N Ohio Street,Celina,Collin,Texas,75009,-,Y,Y,Y,N,Y,Y,Y,-96.7869845,33.3247511
1021226,4301 S Central Ave,Los Angeles,Los Angeles,California,90011,Y,N,N,N,N,Y,Y,N,-118.256796,34.005326
1019907,559 Dexter St,Central Falls,Providence,Rhode Island,2863,-,N,N,N,N,N,N,N,-71.39565,41.885605
1019618,2251 NW Bucklin Hill Rd,Silverdale,Kitsap,Washington,98383,-,Y,N,Y,N,Y,Y,Y,-122.680109,47.650238
1020142,401 S. Pavilion Way,Palm Springs,Riverside,California,92262,N,Y,Y,N,Y,Y,Y,Y,-116.525258,33.817078
1020141,2300 E. Baristo Rd,Palm Springs,Riverside,California,92262,-,Y,Y,N,Y,Y,Y,Y,-116.521181,33.820251
1008612,5920 NW 13th Street,Gainesville,Alachua,Florida,32653,Y,Y,Y,N,Y,Y,Y,Y,-82.352515,29.7106652
1020058,NE Corner Friant and Ft Washington,Fresno,Fresno,California,93730,Y,Y,Y,Y,Y,N,Y,Y,-119.776881,36.874654
1020057,SE Corner Blackstone and Nees,Fresno,Fresno,California,93720,Y,Y,N,Y,Y,N,Y,Y,-119.789099,36.849327
1020056,SE Corner Blackstone and Nees,Fresno,Fresno,California,93720,Y,Y,N,Y,Y,N,Y,Y,-119.789095,36.849308
1019225,Challis City Park,Challis,Custer,Idaho,83226,N,Y,Y,Y,Y,Y,Y,Y,-114.227231,44.505154
1019543,185 US  Route 2,Grand Isle,Grand Isle,Vermont,5458,Y,Y,N,Y,Y,Y,Y,Y,-73.297621,44.722766
1018886,100 block of South Samuel Street,Charles Town,Jefferson,West Virginia,25414,N,Y,Y,Y,Y,Y,Y,Y,-77.858454,39.289073
1017995,,Charleston,Franklin,Arkansas,72933,N,Y,N,Y,N,N,Y,Y,-94.0363153,35.2970353
1019788,4150 Old Post Road (Rt. 1A)," Charlestown, RI ",Washington,Rhode Island,2813,-,Y,N,Y,N,N,N,N,-71.630764,41.384847
1011689,1801 Yorkmont Road,Charlotte,Mecklenburg,North Carolina,28217,N,Y,Y,Y,Y,Y,Y,Y,,
1005834,1652 Main Street Rte 28,Chatham,Barnstable,Massachusetts,2633,Y,Y,Y,N,Y,Y,Y,Y,-69.962249,41.676615
1019956,73484 Twentynine Palms Hwy,Twentynine Palms,San Bernardino,California,92277,Y,Y,N,Y,N,Y,Y,N,-116.058946,34.13576
1018304,255 E Basse,San Antonio,Bexar,Texas,78209,-,Y,Y,N,N,Y,Y,Y,-98.481174,29.493258
1019881,,Tekamah,Burt,Nebraska,,-,N,N,N,N,N,N,N,-96.222387,41.775832
1008606,near 6701 Mimms Loop,Chesterfield,Chesterfield,Virginia,23832,-,Y,N,Y,N,Y,Y,Y,-77.504419,37.376728
1020128,2nd and Wall Streets,Chico,Butte,California,95927,Y,Y,Y,Y,Y,Y,Y,Y,-121.838323,39.730823
1020129,North Valley Plaza Mall,Chico,Butte,California,95926,Y,Y,Y,N,Y,Y,Y,Y,-121.848452,39.758425
1020127,6491 Clark Road,Paradise,Butte,California,95969,Y,Y,N,Y,Y,Y,Y,Y,-121.595446,39.77368
1001763,East Lee Highway between Chestnut and Pine Avenues (Warrior Park),Chilhowie,Smyth,Virginia,24319,Y,Y,N,N,N,Y,Y,N,-81.676633,36.80295
1019104,308 North Main Street,China Grove,Rowan,North Carolina,28023,-,Y,N,N,Y,N,N,N,-80.5778246,35.570981
1008409,1 S. Bridge St.,Chippewa Falls,Chippewa,Wisconsin,54729,-,Y,Y,Y,Y,Y,Y,N,-91.390203,44.935009
1004360,603 Church Street,Blackstone,Nottoway,Virginia,23824,Y,Y,N,N,Y,Y,Y,N,-78.008079,37.077437
1019141,369 West Cheves Street,Florence,Florence,South Carolina,29501,Y,Y,Y,Y,N,Y,Y,Y,-79.771393,34.195452
1004070,Corner of 6th Street and State Avenue's Parking Lot,Alamosa,Alamosa,Colorado,81101,Y,Y,Y,Y,Y,Y,Y,Y,-105.865006,37.467321
1005250,Alapai & Beretania Street,Honolulu,Honolulu,Hawaii,96813,N,N,N,N,Y,N,N,N,-157.852699,21.305408
1021199,4325 Wightman St.,San Diego,San Diego,California,92104,N,N,N,Y,N,Y,Y,Y,-117.101527,32.747817
1019717,1150 South Gay Street,Auburn,Lee,Alabama,36830,Y,Y,Y,Y,Y,Y,Y,Y,-85.475592,32.584813
1004255,700 S. Railroad,Loveland,Larimer,Colorado,80537,Y,Y,Y,Y,Y,Y,Y,Y,-105.078652,40.387479
1017956,"St. Anthony Municipal Parking Lot, at the intersection of Rte. 8 (Marshall St.) and St. Anthony Drive",North Adams,Berkshire,Massachusetts,1247,-,Y,Y,Y,Y,Y,Y,Y,-73.112792,42.700694
1017930,1529 Brownsville Road,Pittsburgh,Allegheny,Pennsylvania,15210,-,Y,N,N,N,N,Y,N,-79.988803,40.400201
1020046,7221 Broadview Road,Seven Hills,Cuyahoga,Ohio,44131,N,Y,N,N,N,N,Y,N,-81.684196,41.369077
1006460,"Clark Avenue, between 2nd and 3rd Street",White Bear Lake,Ramsey,Minnesota,55110,Y,Y,Y,N,Y,Y,Y,N,-93.009953,45.084125
1005940,corner of Whalley Ave. and West Rock Ave.,New Haven,New Haven,Connecticut,6515,Y,Y,Y,N,Y,N,N,N,-72.958562,41.325348
1005941,Corner of Front St. and Grand Ave.,New Haven,New Haven,Connecticut,6513,Y,Y,N,N,N,N,Y,N,-72.888848,41.308956
1019371,208 E. State Street,Albany,Delaware,Indiana,47320,N,Y,Y,Y,Y,Y,Y,N,-85.235831,40.299191
1019206,115 Water St,New Haven,New Haven,Connecticut,6511,Y,Y,Y,N,N,Y,Y,Y,-72.9188338,41.3011808
1005943,DePalma Ct. between Chapel St. and Wooster St.,New Haven,New Haven,Connecticut,6511,Y,Y,Y,N,Y,Y,Y,Y,-72.917848,41.303232
1019061,14 North Street,Claremont,Sullivan,New Hampshire,3743,-,Y,Y,Y,Y,Y,Y,Y,-72.339305,43.375823
1019840,"Beachview Park, Chestnut St",Clarkston,Asotin,Washington,99403,-,Y,N,Y,Y,Y,Y,Y,-117.039927,46.410563
1019110,141 S Ridgeway Drive,Cleburne,Johnson,Texas,76033,N,Y,Y,Y,N,Y,Y,Y,-97.407713,32.339893
1019741,1150 S Peace Haven Road,Clemmons,Forsyth,North Carolina,27012,-,Y,Y,Y,N,Y,Y,N,-80.386699,36.033223
1019704,"3426 Connecticut Ave NW, Washington, DC 20008",Washington,District of Columbia,District of Columbia,20008,N,Y,Y,N,N,Y,Y,Y,-77.058336,38.934867
1018381,"971 Route 146, Shenendehowa United Methodist Church parking lot ",Clifton Park,Saratoga,New York,12065,N,Y,N,N,Y,Y,Y,N,-73.809271,42.869606
1019823,20 West Park Row,Clinton,Oneida,New York,13323,Y,Y,Y,Y,Y,Y,Y,Y,-75.378462,43.048866
1019763,N High St and W Dunedin Rd,Columbus,Franklin,Ohio,43214,Y,Y,Y,N,Y,Y,Y,Y,-83.016501,40.034269
1019113,Broadway & Second Ave,Alexandria,Douglas,Minnesota,56308,Y,Y,Y,N,Y,Y,N,Y,-95.375902,45.890762
1000549,21 College Street,Clio,Barbour,Alabama,36311,Y,Y,N,Y,Y,N,Y,N,-85.619065,31.7078144
1019474,900 Barring Avenue,Scranton,Lackawanna,Pennsylvania,18508,Y,Y,Y,N,Y,Y,Y,N,-75.665908,41.404178
1018969,650 Ten Rod Rd.,North Kingstown,Washington,Rhode Island,2852,Y,Y,Y,Y,N,Y,Y,Y,-71.485463,41.572691
1019821,2325 Boston Neck Rd,Saunderstown,Washington,Rhode Island,2874,Y,Y,N,Y,Y,Y,Y,Y,-71.423632,41.512
1020135,225 Cabrillo Highway,Half Moon Bay,San Mateo,California,94019,Y,Y,Y,N,Y,Y,Y,N,-122.437378,37.46677
1020137,450 Old County Road,Pacifica,San Mateo,California,94044,Y,Y,Y,N,Y,Y,Y,Y,-122.495081,37.609415
1021232,801 SE Larch Avenue,College Place,Walla Walla,Washington,99324,Y,Y,Y,Y,Y,Y,Y,Y,-118.386932,46.043011
1001290,Main St. and Route 179,Collinsville,Hartford,Connecticut,6019,Y,Y,Y,N,Y,Y,Y,N,-72.923264,41.810819
1000210,7350 Pine Creek Road,Colorado Springs,El Paso,Colorado,80919,N,Y,Y,Y,Y,Y,Y,Y,-104.814688,38.937716
1009656,215 S. Tejon,Colorado Springs,El Paso,Colorado,80903,Y,Y,Y,Y,Y,Y,Y,Y,-104.822309,38.830543
1019831,Jefferson,IOLA,Allen,Kansas,66749,-,Y,N,Y,Y,Y,Y,N,-95.400669,37.927427
1018196,5th Street & Riverside Drive,Columbia,Maury,Tennessee,38401,N,Y,N,Y,Y,Y,Y,Y,-87.0304808,35.6187845
1019790,1769 West Ash Street,Columbia,Boone,Missouri,65203,Y,Y,Y,Y,Y,Y,Y,Y,-92.364624,38.958293
1010758,10800 Airport Road,Columbia,Tuolumne,California,95310,Y,Y,Y,Y,Y,Y,Y,Y,-120.410011,38.029395
1019483,14 st and 26 Ave,Columbus,Platte,Nebraska,68601,-,Y,N,Y,Y,Y,Y,Y,-97.36036,41.430012
1019199,202 N. East Avenue,Columbus,Cherokee,Kansas,66725,Y,Y,N,Y,Y,Y,Y,N,-94.831459,37.171861
1020124,10th Street Memorial Park,Colusa,Colusa,California,95932,N,Y,N,Y,Y,Y,Y,N,-122.014038,39.214999
1011003,9079 HWY377,Collinsville,Cooke,Texas,76240,N,N,N,N,N,Y,Y,N,-96.9110998,33.5491175
1019592,Main Street,Como,Panola,Mississippi,38619,-,Y,N,N,N,N,N,N,-89.939947,34.513561
1019042,800 Main Street,Hartford,Hartford,Connecticut,6103,-,Y,Y,Y,Y,Y,Y,N,-72.672892,41.766118
1006766,"320 Central Ave., Suite 410",Coos Bay,Coos,Oregon,97420,Y,Y,Y,Y,Y,Y,Y,Y,-124.215299,43.367982
1019832,807  N. State,Iola,Allen,Kansas,66749,N,Y,N,Y,N,Y,Y,N,-95.400669,37.927427
1012265,1245 S Cleveland-Massillon Rd,Copley,Summit,Ohio,44321,Y,Y,N,Y,Y,Y,Y,Y,-81.644372,41.104215
1018190,1513 7th St,Coralville,Johnson,Iowa,52241,-,Y,N,Y,Y,Y,Y,N,-91.584155,41.678726
1012666,100 N Shoreline Blvd,Corpus Christi,Nueces,Texas,78401,N,Y,Y,Y,Y,Y,Y,Y,-97.392206,27.791601
1008959,Main and Elm Streets,Cortez,Montezuma,Colorado,81321,-,Y,N,Y,Y,Y,Y,Y,-108.587634,37.348444
1018629,Old Redwood Hwy and W Sierra,cotati,Sonoma,California,94931,Y,N,Y,Y,Y,N,N,N,-122.707298,38.326544
1010975,47 Doster Road,Ariton,Barbour,Alabama,36311,Y,N,N,N,N,Y,Y,N,-85.674054,31.64705
1004382,1832 Massachusetts Street,Lawrence,Douglas,Kansas,66044,Y,Y,Y,N,Y,Y,Y,Y,-95.235146,38.950747
1018221,609 Dixie Street,Carrollton,Carroll,Georgia,30117,Y,Y,Y,Y,Y,Y,Y,Y,-85.07274,33.571347
1000368,1642 16th St,Barron,Barron,Wisconsin,54812,Y,Y,Y,Y,Y,Y,Y,Y,-91.828516,45.443768
1019530,1175 W Exchange St,Akron,Summit,Ohio,44302,N,Y,Y,N,Y,Y,Y,Y,-81.553272,41.098698
1012389,17675 SW Farmington Rd and SW Kinnaman Rd,Aloha,Washington,Oregon,97007,-,Y,N,Y,N,N,N,Y,-122.858722,45.480164
1019529,4040 Riverview Rd.,Peninsula,Summit,Ohio,44264,Y,Y,Y,Y,Y,Y,Y,Y,-81.583614,41.189312
1019531,21 Furnace Street,Akron,Summit,Ohio,44308,N,Y,Y,N,Y,Y,Y,Y,-81.515871,41.08885
1019258,2315 Ira Rd.,Akron,Summit,Ohio,44333,Y,Y,Y,Y,Y,Y,Y,Y,-81.589922,41.192676
1019325,2299 South St.,Coventry,Tolland,Connecticut,6238,Y,Y,Y,Y,Y,Y,Y,Y,-72.345186,41.764283
1019296,3rd and Greenup Street,Covington,Kenton,Kentucky,41011,N,Y,N,N,Y,Y,Y,Y,-84.508855,39.088659
1012552,3821 SOUTHWEST BLVD,Fort Worth,Tarrant,Texas,,N,Y,Y,N,Y,Y,Y,Y,-97.442048,32.716447
1009993,410 W 9th St.,Cozad,Dawson,Nebraska,69130,Y,Y,N,N,N,N,Y,Y,-99.9901154,40.8606228
1019130,"Decks Reserve Carpark, Wallace Street, Mouteka",Wellington,Park,Wyoming,70105,Y,N,N,N,N,N,N,N,-109.58853,44.5205554
1021227,3650 W Martin Luther King Jr Blvd,Los Angeles,Los Angeles,California,90008,Y,Y,N,N,N,Y,Y,N,-118.335422,34.008706
1019260,200 Broadway Street,New Orleans,Orleans,Louisiana,70118,Y,Y,Y,N,Y,Y,Y,Y,-90.133127,29.932171
1020150,108 S Main St,Alturas,Modoc,California,96101,N,Y,N,Y,Y,Y,Y,N,-120.542201,41.483907
1019261,1235 N. Peters,New Orleans,Orleans,Louisiana,70116,Y,Y,N,N,N,Y,Y,N,-90.058904,29.960279
1019262,200 Broadway Street,New Orleans,Orleans,Louisiana,70118,Y,Y,Y,N,Y,Y,Y,Y,-90.133127,29.932159
1002470,Front Street and Garrison Street,Fremont,Sandusky,Ohio,43420,-,Y,Y,Y,Y,Y,Y,Y,-83.1135499,41.345408
1012365,Anne St. at University Blvd. E,Takoma Park,Montgomery,Maryland,20912,Y,Y,N,Y,Y,Y,Y,Y,-76.990169,38.990479
1001869,"Depot Park, Woodstock & Williams Streets",Crystal Lake,McHenry,Illinois,60014,-,Y,Y,N,Y,Y,Y,N,-88.31701,42.243752
1019701,819 E. Lake Shore Drive,Culver,Marshall,Indiana,46511,Y,Y,N,Y,Y,Y,Y,N,-86.419302,41.218494
1019702,107 N Main Street,Culver,Marshall,Indiana,46511,Y,Y,N,Y,Y,Y,Y,N,-86.422907,41.216815
1020109,819 S Main Street,Burkesville,Cumberland,Kentucky,42717,N,Y,N,N,Y,Y,N,N,-85.364614,36.790074
1019460,11501 E Washington Street,Cumberland,Marion,Indiana,46229,N,Y,Y,Y,Y,Y,Y,N,-85.961442,39.775951
1019539,1817 Front Street,Cuyahoga Falls,Summit,Ohio,44222,-,Y,Y,Y,N,Y,Y,Y,-81.48356,41.130404
1011171,300 & 400 Blocks of  Main Street,"Ames, IA",Story,Iowa,50010,Y,Y,Y,Y,Y,Y,Y,Y,-93.614943,42.025222
1004516,120 White Street,Danbury,Fairfield,Connecticut,6810,-,Y,N,N,N,Y,Y,N,-73.450227,41.397912
1019163,120 N Front St,Dardanelle,Yell,Arkansas,,Y,Y,N,Y,Y,Y,Y,N,-93.153099,35.220839
1012505,Main Street,Darlington,Lafayette,Wisconsin,53530,N,Y,N,Y,Y,Y,Y,N,-90.117445,42.677666
1018157,North Park Mall east entrance,Davenport,Scott,Iowa,52804,-,Y,N,Y,Y,Y,Y,N,-90.571154,41.562863
1019880,,David City,Butler,Nebraska,,-,N,N,N,N,N,N,N,-97.126392,41.255569
1012254,Ash  and 8th street,Dawson,Lac qui Parle,Minnesota,56232,N,Y,N,N,Y,Y,Y,N,-96.0574386,44.9259444
1019100,Kestrel Rise Rd. and Daybreak Pkwy/W 11400 S,South Jordan,Salt Lake,Utah,84009,-,Y,N,Y,Y,Y,Y,Y,-112.002561,40.547045
1019648,520 N. Main Street,DeSoto,Jefferson,Missouri,63020,N,Y,N,Y,Y,Y,Y,N,-90.552184,38.143961
1018945,22271 West Village Drive,Dearborn,Wayne,Michigan,48124,Y,Y,Y,Y,Y,Y,Y,Y,-83.211488,42.313057
1019970,308 Clairemont Ave,Decatur,DeKalb,Georgia,30030,-,Y,Y,N,N,Y,Y,Y,-84.296808,33.778773
1003563,186 Recreation Road,Dawsonville,Dawson,Georgia,30534,-,Y,Y,Y,Y,Y,Y,N,-84.099043,34.437795
1012296,DeForest Street,DeForest,Dane,Wisconsin,53532,Y,Y,Y,Y,Y,Y,Y,N,-89.339846,43.246672
1002536,1410 Del Monte Center,Monterey,Monterey,California,93940,Y,N,N,N,Y,Y,N,N,-121.9270394,36.9872756
1020061,1709 W Douglas,Wichita,Sedgwick,Kansas,67213,Y,Y,N,Y,N,Y,Y,Y,-97.360349,37.683757
1018416,605 S Railroad (Hwy 330),Delcambre,Iberia,Louisiana,70528,-,Y,Y,Y,Y,Y,Y,Y,-91.982453,29.941659
1019308,332 Kenwood Ave,Delmar,Albany,New York,12054,Y,Y,Y,Y,Y,Y,N,Y,-73.825895,42.619919
1020191,"NE 2nd Avenue, half block east of Atlantic Avenue",Delray Beach,Palm Beach,Florida,33444,-,Y,Y,N,Y,Y,Y,Y,-80.071595,26.462365
1007255,22307 Dock Ave S,Des Moines,King,Washington,98198,Y,Y,Y,Y,Y,Y,Y,Y,-122.329307,47.401657
1019999,12926 Bank Street,Dillsboro,Dearborn,Indiana,47018,N,Y,N,Y,N,Y,Y,N,-85.05935,39.018054
1018958,1 N. 2nd Street,Dillsburg,York,Pennsylvania,17019,Y,N,N,N,N,N,N,N,-77.037849,40.110975
1019458,136 N Bridge St,Dimondale,Eaton,Michigan,48821,N,Y,Y,Y,Y,Y,Y,N,-84.647388,42.646201
1009959,600 E. 2nd Street,Dayton,Montgomery,Ohio,45402,Y,Y,Y,Y,Y,Y,Y,Y,-84.18103,39.762593
1019438,303 Madison Street,Madison,Davidson,Tennessee,37115,-,Y,Y,Y,N,Y,Y,N,-86.717491,36.257792
1018816,5401 Courthouse Circle,Eastman,Dodge,Georgia,31023,-,Y,N,Y,Y,Y,Y,N,-83.176423,32.201081
1019742,327 N. Iowa Street,Dodgeville,Iowa,Wisconsin,53533,-,Y,Y,Y,Y,Y,Y,Y,-90.129944,42.962345
1019439,390 Main Street,Dove Creek,Dolores,Colorado,81324,-,Y,N,N,Y,Y,Y,Y,-108.903587,37.764836
1019964,FW Gestrin and E. Roseberry Rd,donnelly,Valley,Idaho,83615,Y,Y,N,Y,N,Y,Y,Y,-116.07672,44.730034
1018706,1353 Dorchester Avenue,Dorchester,Suffolk,Massachusetts,2122,Y,N,N,N,N,N,N,N,-71.060126,42.304202
1020111,2999 Darbytown Road,Henrico,Henrico,Virginia,23231,N,Y,N,N,Y,Y,Y,Y,-77.405887,37.5380571
1003046,118 S. Main St,Dousman,Waukesha,Wisconsin,53118,-,Y,N,Y,Y,N,Y,N,-88.4725142,43.013121
1009829,550 Central Avenue,Dover,Rockingham,New Hampshire,3820,Y,Y,Y,Y,Y,Y,Y,Y,-70.875971,43.200765
1016793,168 West Boston Post Rd.,Mamaroneck,Westchester,New York,10543,Y,Y,Y,N,Y,Y,Y,Y,-73.734523,40.947737
1010972,110th Street and Manhattan Avenue,Manhattan,New York,New York,10026,Y,Y,Y,N,Y,Y,Y,Y,-73.959648,40.80137
1012157,Kennedy Common (306 Main),Anaconda,Deer Lodge,Montana,59711,N,Y,Y,Y,N,Y,Y,Y,-113.139108,46.099059
1010958,515 North Avenue,New Rochelle,Westchester,New York,10801,N,Y,N,N,N,Y,Y,N,-73.786334,40.91964
1009895,289 4th Street,Brooklyn,Kings,New York,11215,Y,Y,Y,N,Y,Y,Y,Y,-73.983925,40.672277
1016867,1 Park Lane,Downingtown,Chester,Pennsylvania,19335,N,Y,Y,Y,Y,Y,Y,Y,-75.705606,40.007243
1019667,14801 Main Street,Alachua,Alachua,Florida,32615,Y,Y,Y,N,N,Y,Y,Y,-82.495552,29.790872
1009043,Park Avenue and Harrison Avenue,Allen Park,Wayne,Michigan,48101,N,Y,Y,Y,Y,N,Y,N,-83.208989,42.254801
1003643,"300 block of State Street, 400 block of East Grand Avenue, Gantry parking lot",Beloit,Rock,Wisconsin,53511,Y,Y,Y,Y,Y,Y,Y,Y,-89.035555,42.499698
1020064,1947 Center St.,Berkeley,Alameda,California,94704,Y,Y,Y,N,Y,Y,Y,Y,-122.2716,37.869819
1020000,200 N. Main,Bloomington,McLean,Illinois,61701,Y,Y,N,Y,N,Y,Y,Y,-88.994107,40.480014
1020001,101 S. Madison,Bloomington,McLean,Illinois,61701,Y,Y,N,N,N,Y,Y,N,-88.996165,40.478127
1019370,202 N. Buffalo St.,Canton,Van Zandt,Texas,75103,Y,Y,N,N,N,Y,Y,Y,-95.863185,32.55736
1005944,611 R Avenue,Anacortes,Skagit,Washington,98221,Y,Y,Y,Y,Y,Y,Y,Y,-122.609181,48.516974
1019944,,Chico,Butte,California,95928,-,Y,N,Y,Y,Y,Y,Y,-121.840469,39.728991
1000841,701 W. Main St.,Denison,Grayson,Texas,75020,N,Y,N,Y,Y,Y,Y,N,-96.54535,33.755828
1019401,S. Grove Ave,Elgin,Kane,Illinois,60120,Y,Y,N,Y,Y,Y,Y,Y,-88.283268,42.035993
1008853,"3rd, 4th and Bond Sts.","Evansville,IN",Vanderburgh,Indiana,47708,-,Y,N,Y,Y,N,Y,Y,-87.586443,37.993544
1002400,206 S 4th Street,Murray,Calloway,Kentucky,42071,Y,Y,N,Y,Y,Y,Y,Y,-88.3022291,36.6097959
1019032,101 North Main Street,Lancaster,Lancaster,South Carolina,29720,Y,Y,N,Y,Y,Y,Y,N,-80.770914,34.721099
1019856,on the court square at 4th Street and Maple Street,Murray,Calloway,Kentucky,42071-0002,Y,Y,N,Y,Y,Y,Y,Y,-88.302435,36.609868
1019216,Melody Lane and Marina Square,Fort Pierce,St. Lucie,Florida,34950,Y,Y,Y,N,Y,Y,Y,Y,-80.321851,27.449057
1012243,Main Street from Western Ave. to Sheboygan St.,Fond du Lac,Fond du Lac,Wisconsin,54935,N,Y,Y,Y,Y,Y,Y,Y,-88.446973,43.775364
1012256,Main Street Plaza,Fond du Lac,Fond du Lac,Wisconsin,54935,N,Y,N,Y,Y,Y,Y,Y,-88.447092,43.777853
1019647,402 N. Murray Ave,Anderson,Anderson,South Carolina,29621,-,Y,Y,Y,Y,Y,Y,N,-82.652197,34.506898
1019654,200 S. Washington Street,Green Bay,Brown,Wisconsin,54301,Y,Y,Y,Y,Y,Y,Y,Y,-88.017128,44.513118
1019341,US 50 and Park Streets,Lawrenceburg,Dearborn,Indiana,47025,N,Y,N,Y,Y,Y,Y,Y,-84.857359,39.095734
1019083,7 Town Square,Lima,Allen,Ohio,45801,-,Y,N,N,Y,N,Y,Y,-84.1058237,40.7395472
1019720,Broadway Street near the Broadway Fountain,Madison,Jefferson,Indiana,47250,Y,Y,N,N,Y,Y,Y,N,-85.382973,38.738245
1018930,112 S. Third St.,Marquette,Marquette,Michigan,49855,Y,Y,N,Y,Y,Y,Y,Y,-87.395409,46.543488
1003977,Corner of Hwy 101 & Angle St,Newport,Jackson,Arkansas,72112,-,Y,N,Y,N,N,N,N,-91.234721,35.6268
1018621,7th Street behind the CVS between Grant Ave & Novato Blvd,Novato,Marin,California,94947,Y,Y,Y,Y,Y,Y,Y,Y,-122.578749,38.107536
1019721,"Gilman St, between Hamilton and Forest",Palo Alto,Santa Clara,California,94301,Y,Y,Y,N,Y,Y,Y,Y,-122.159029,37.44533
1019534,101 E Cherry Street,Rogers,Benton,Arkansas,72756,Y,Y,N,Y,Y,Y,Y,Y,-94.115864,36.330089
1005281,Cedar St & Lincoln St.,Santa Cruz,Santa Cruz,California,,Y,Y,Y,N,Y,Y,Y,Y,-122.0270374,36.9724758
1020084,1505 US-127 N,Lawrenceburg,Anderson,Kentucky,40342,-,Y,N,Y,Y,Y,Y,N,-84.917629,38.076447
1019525,Yakima Ave & S 3rd Street,Yakima,Yakima,Washington,98901,Y,Y,Y,Y,Y,Y,Y,Y,-120.502787,46.602267
1019729,421 Linden St.,Dresden,Weakley,Tennessee,38225,Y,Y,Y,Y,Y,Y,Y,Y,-88.693465,36.277008
1004676,3100 Swann Drive,Baltimore,Baltimore City,Maryland,21217,Y,Y,N,Y,N,Y,Y,N,-76.645847,39.317944
1005358,4201 Central Parkway,Dublin,Alameda,California,94568,Y,Y,Y,N,Y,Y,Y,N,-121.878639,37.710402
1005197,Iowa Street between 10th & 13th Streets,Dubuque,Dubuque,Iowa,52001,Y,Y,Y,Y,Y,Y,Y,Y,-90.667851,42.504521
1019994,Gitch ode' Akiing formerly known as Lake Place Park 214 E Superior Street,Duluth,St. Louis,Minnesota,55802,N,Y,N,Y,Y,Y,Y,N,-92.093948,46.788805
1018953,259 W 9th Street,Durango,La Plata,Colorado,81301,Y,Y,Y,Y,Y,Y,Y,Y,-107.882758,37.273063
1000312,501 Foster Street,Durham,Durham,North Carolina,27701,Y,Y,Y,Y,Y,Y,Y,Y,-78.901856,36.000559
1009830,"Jackson Landing, 10 Old Piscataqua Road",Durham,Rockingham,New Hampshire,,Y,Y,Y,Y,Y,Y,Y,Y,-70.910656,43.13661
1012345,Brown Ave,Duvall,King,Washington,98019,-,Y,Y,Y,Y,Y,Y,Y,-121.985974,47.7382671
1003516,1500 W. Catalpa Ave.,Chicago,Cook,Illinois,60640,Y,Y,Y,N,Y,Y,Y,N,-87.668602,41.981745
1019082,40 East Center Street,Fallon,Churchill,Nevada,89406,Y,Y,N,Y,N,N,Y,Y,-118.776299,39.473055
1019870,5th St. and Hwy 34,eagle,Cass,Nebraska,68347,-,N,N,N,N,N,N,N,-96.432729,40.816121
1018159,572 Stokeswood Avenue,Atlanta,Fulton,Georgia,30316,Y,Y,Y,N,Y,Y,Y,N,-84.344531,33.738679
1012407,Across from 201 Border St.,East Boston,Suffolk,Massachusetts,2128,N,Y,N,Y,Y,Y,Y,Y,-71.0395,42.37485
1011673,2600 Navigation Blvd.,Houston,Harris,Texas,77003,N,Y,Y,Y,Y,Y,Y,Y,-95.342978,29.757511
1019079,Between 10 and 20 Community Way in parking lot,East Greenbush,Rensselaer,New York,12061,-,Y,Y,N,N,Y,Y,N,-73.695566,42.618063
1020133,Hollywood Blvd. and Western Ave.,Los Angeles,Los Angeles,California,90028,N,N,N,N,N,Y,Y,N,-118.308877,34.10151
1019510,44 City Hall Plaza,East Orange,Essex,New Jersey,7018,Y,Y,N,N,Y,N,Y,N,-74.209979,40.76125
1020172,2555 Pulgas Avenue,East Palo Alto,San Mateo,California,94303,Y,N,N,N,N,N,Y,N,-122.13255,37.469415
1012717,2757 East Point St.,East Point,Fulton,Georgia,30344,Y,Y,N,Y,Y,Y,Y,Y,-84.442141,33.679488
1020060,41 Central Street,Andover,Essex,Massachusetts,1810,Y,Y,Y,Y,Y,Y,Y,Y,-71.143138,42.653616
1019094,760 E Water St Elmira,Elmira,Chemung,New York,14901,-,Y,Y,Y,N,Y,Y,N,-76.793909,42.088765
1019125,4927 - 5089 Transit Road,Clarence,Erie,New York,14221,Y,Y,Y,Y,Y,Y,Y,Y,-78.595325,42.97573
1019462,50 Payson Ave,Easthampton,Hampshire,Massachusetts,1027,-,Y,Y,Y,Y,Y,Y,Y,-72.669638,42.265189
1019624,2020 MLK Jr. Ave,Knoxville,Knox,Tennessee,37915,N,Y,N,Y,Y,N,Y,Y,-83.900903,35.976258
1019767,660 Douglas Pike,Smithfield,Providence,Rhode Island,2917,Y,Y,N,N,Y,Y,Y,N,-71.505333,41.9015
1021228,1146 Logan St,Los Angeles,Los Angeles,California,90026,Y,Y,Y,N,Y,Y,Y,N,-118.258276,34.076409
1012783,200 North Broad St,Edenton,Chowan,North Carolina,27932,N,Y,Y,Y,Y,Y,Y,N,-76.607401,36.062086
1012160,5th Ave between Main and Bell & Bell St. between 5th & 6th Ave,Edmonds,Snohomish,Washington,98020,Y,Y,Y,Y,Y,Y,Y,Y,-122.376658,47.811372
1019118,7809 Highway 42,Egg Harbor,Door,Wisconsin,54209,N,Y,N,Y,N,N,N,Y,-87.280716,45.049942
1019936,10700 Main Street,El Monte,Los Angeles,California,91731,-,Y,Y,Y,Y,Y,Y,Y,-118.03995,34.075484
1019484,6621 Columbia Pike,Annandale,Fairfax,Virginia,,N,Y,N,N,Y,Y,Y,Y,-77.196229,38.832801
1012634,Corner of Edgington Ave. and 14th Street,Eldora,Hardin,Iowa,50627,-,Y,N,Y,Y,N,N,N,-93.100656,42.36051
1019921,,Elgin,Bastrop,Texas,78621,N,Y,N,Y,Y,Y,Y,Y,-97.370756,30.346425
1018900,Main ST,Ellington,Tolland,Connecticut,6029,-,Y,Y,Y,Y,Y,Y,Y,-72.4681079,41.9036393
1018898,11 Pinney St,Ellington,Tolland,Connecticut,6029,-,Y,Y,Y,N,Y,Y,N,-72.49035,41.8697886
1020112,2944 S KY 7,Sandy Hook,Elliott,Kentucky,41171,N,N,N,N,Y,Y,Y,N,-83.122634,38.093439
1018717,Elm Street,West Newton,Middlesex,Massachusetts,2465,Y,Y,Y,N,N,Y,Y,Y,-71.229493,42.349361
1021207,Elmwood and Bidwell,Buffalo,Erie,New York,14221,Y,Y,Y,N,Y,Y,Y,Y,-78.877625,42.923862
1002657,235 Main St,Emmaus,Lehigh,Pennsylvania,18049,Y,Y,Y,N,Y,Y,Y,Y,-75.4903,40.5366
1002769,10234 Front Street,Empire,Leelanau,Michigan,49630,Y,Y,Y,Y,Y,Y,Y,N,-86.063056,44.811224
1019398,931 E 4th St,Joplin,Jasper,Missouri,64801,Y,Y,N,Y,Y,Y,Y,Y,-94.502691,37.087883
1019096,25 East Cedar St,Annandale,Wright,Minnesota,55302,Y,N,N,Y,Y,Y,Y,Y,-94.1238322,45.2636097
1012045,17400 Victory Blvd,Van Nuys,Los Angeles,California,91406,Y,Y,Y,Y,Y,Y,Y,Y,-118.5128542,34.1862306
1018940,,Engadine,Mackinac,Michigan,,-,Y,N,N,Y,Y,Y,N,-85.578248,46.119734
1019684,70 Pisgah Hwy,Candler,Buncombe,North Carolina,28715,Y,Y,N,Y,Y,Y,Y,Y,-82.684674,35.54099
1018765,104 North McKinney Street,Ennis,Ellis,Texas,75119,-,Y,N,Y,Y,Y,Y,Y,-96.629391,32.32763
1019687,1600 1st Street,Enumclaw,King,Washington,98022,-,Y,Y,Y,Y,Y,Y,Y,-121.987466,47.202843
1006678,1105 N.Railroad  Avenue,Espanola,Rio Arriba,New Mexico,87532,Y,Y,N,N,Y,Y,Y,N,-106.065805,36.003598
1003568,664 Wade St,Estacada,Clackamas,Oregon,97023,-,N,N,N,N,N,N,N,-122.331858,45.297544
1020053,514 N Hwy 3,Etna,Siskiyou,California,96027,Y,Y,N,Y,Y,Y,N,N,-122.895854,41.458263
1019954,44 Kingshighway,Eureka Springs,Carroll,Arkansas,72632,Y,Y,Y,Y,Y,Y,N,N,-93.746149,36.398616
1010195,200 South Main Street,Evart,Osceola,Michigan,49631,N,Y,N,Y,Y,Y,Y,N,-85.259592,43.899648
1018934,420 Field Street,Antigo,Langlade,Wisconsin,54409,N,Y,N,Y,Y,Y,Y,N,-89.14985,45.138703
1005267,91-955 North Road,Ewa Beach,Honolulu,Hawaii,96706,N,N,N,N,N,N,N,N,-158.007174,21.314954
1007798,"Swasey Parkway, off Water Street",Exeter,Rockingham,New Hampshire,,Y,Y,Y,Y,Y,Y,Y,Y,-70.950053,42.983633
1019081,On The Green,Fair Haven,Rutland,Vermont,5777,-,Y,N,Y,N,Y,Y,N,-73.266531,43.59449
1018622,124 Bolinas Avenue,Fairfax,Marin,California,94930,Y,Y,Y,Y,Y,Y,Y,Y,-122.58998,37.985729
1019186,10500 Page Avenue,Fairfax,Fairfax,Virginia,22030,-,Y,Y,Y,Y,Y,Y,Y,-77.308647,38.846056
1019049,50 N. Pine St.,Fairland,Ottawa,Oklahoma,74343,-,Y,N,Y,Y,Y,Y,Y,-94.854471,36.747475
1018562,319 W. Hastings Rd.,Spokane,Spokane,Washington,99218,Y,Y,Y,Y,Y,Y,Y,Y,-117.41778,47.768387
1019457,600 Fallbrook Blvd,Lincoln,Lancaster,Nebraska,68522,Y,Y,N,Y,Y,Y,Y,Y,-96.728376,40.877605
1010889,E Falls Park Drive and N 2nd Ave,Sioux Falls,Minnehaha,South Dakota,57101,Y,Y,Y,N,Y,Y,Y,Y,-96.723203,43.560777
1019841,7802 Marsh Road,Indianapolis,Marion,Indiana,46278,Y,N,Y,N,N,Y,Y,Y,-86.274997,39.894467
1004950,123 W. Illinois ave.,Morris,Grundy,Illinois,60450,Y,Y,Y,Y,Y,Y,Y,Y,-88.425186,41.356383
1019350,900 Skidmore Drive,Antioch,Lake,Illinois,60002,-,Y,Y,Y,Y,Y,Y,Y,-88.09457,42.478128
1019499,310 S. Manning Blvd,Albany,Albany,New York,12206,Y,N,N,N,Y,N,N,N,-73.798353,42.665745
1019523,221 N. Main St,Las Cruces,Dona Ana,New Mexico,88001,Y,Y,N,Y,N,Y,Y,Y,-106.789695,32.326444
1018937,12700 Denton Drive,Farmers Branch,Dallas,Texas,75234,-,Y,N,Y,N,Y,Y,Y,-96.8952798,32.9178496
1019436,33955 Community College Dr.,Soldotna,Kenai Peninsula,Alaska,99669,-,Y,N,N,Y,Y,Y,Y,-151.135361,60.472775
1012606,105 East Locust,El Dorado,Union,Arkansas,71730,N,Y,N,Y,Y,Y,Y,N,-92.66228,33.21024
1018131,750 Aurora Avenue,Naperville,DuPage,Illinois,60540,N,Y,N,Y,N,Y,Y,Y,-88.159755,41.767594
1020104,101 E. Depot Street,Springfield,Washington,Kentucky,40069,-,Y,N,Y,Y,Y,Y,Y,-85.217676,37.683658
1019459,620 N Apple Street,Greenfield,Hancock,Indiana,46140,N,Y,Y,Y,Y,Y,Y,N,-85.75609,39.792129
1019705,8711 E Pinnacle Peak Road,Scottsdale,Maricopa,Arizona,85252,-,Y,N,Y,N,Y,Y,Y,-111.893119,33.697831
1005069,40 Calhoun Street,Bluffton,Beaufort,South Carolina,29910,Y,Y,Y,N,Y,Y,Y,Y,-80.862568,32.234811
1019780,120 Hillside Ave,Newport,Newport,Rhode Island,2840,Y,Y,Y,N,Y,Y,Y,N,-71.308524,41.508657
1005159,2144 E Republic Rd,Springfield,Greene,Missouri,65804,Y,Y,Y,Y,Y,Y,Y,Y,-93.255076,37.136365
1019993,1099 Legion Park Road,Greensburg,Green,Kentucky,42743,N,Y,Y,Y,Y,Y,Y,N,-85.482096,37.244082
1020079,105 Merchant Street,Columbia,Adair,Kentucky,42728,N,Y,N,Y,Y,Y,Y,N,-85.307537,37.103437
1020080,105 Merchant Street,Columbia,Adair,Kentucky,42728,N,Y,N,Y,Y,Y,Y,N,-85.307537,37.103437
1019862,2A N Hanover St,Carlisle,Cumberland,Pennsylvania,17013,Y,Y,Y,N,Y,Y,Y,Y,-77.189168,40.202148
1018427,"Eastern Gateway Community College, 4000 Sunset Boulevard",Steubenville,Jefferson,Ohio,43952,-,Y,N,N,N,N,N,N,-80.669759,40.377613
1016870,46-2600 Hawaii Belt Highway,Honokaa,Hawaii,Hawaii,96727,Y,Y,Y,Y,Y,Y,Y,Y,-155.44974,20.070927
1019796,100 E EAST ST.,WASHINGTON COURT HOUSE,Fayette,Ohio,43160,N,Y,N,Y,Y,Y,Y,N,-83.427938,39.53886
1019801,100 E EAST STREET,Washington Court House,Fayette,Ohio,43160,N,Y,N,Y,Y,Y,Y,N,-83.427938,39.53886
1019800,401 N Central Ave,Connersville,Fayette,Indiana,47331,-,Y,Y,Y,Y,Y,Y,Y,-85.139738,39.641132
1019778,Memorial Blvd,Newport,Newport,Rhode Island,2840,Y,Y,Y,N,Y,Y,Y,Y,-71.305756,41.483666
1012627,East Camden,Fearrington Village,Chatham,North Carolina,27312,Y,Y,Y,N,Y,Y,Y,N,-79.090143,35.800209
1002721,"St. John's Church, Hwy. 9",Felton,Santa Cruz,California,95018,Y,Y,N,N,Y,Y,Y,Y,-122.073815,37.048109
1018973,"Plaza 501, 501 S. Florissant Rd.",Ferguson,St. Louis,Missouri,63135,Y,Y,N,Y,Y,Y,Y,Y,-90.3027133,38.7375795
1020193,1 Ferry Building,San Francisco,San Francisco,California,94111,Y,Y,Y,N,Y,Y,Y,Y,-122.39352,37.795162
1012308,942 Main Street,Cobleskill,Schoharie,New York,12043,N,Y,Y,Y,Y,Y,Y,N,-74.4669868,42.6792512
1019771,1445 Compton Road,Cincinnati,Hamilton,Ohio,45231,-,Y,Y,N,N,Y,N,Y,-84.54095,39.23161
1018193,West Fifth Street,Sycamore,Wyandot,Ohio,44882,-,Y,N,Y,N,Y,Y,N,-83.1700053,40.9509375
1020008,315 W Simcoe,Lafayette,Lafayette,Louisiana,70501,-,Y,N,Y,Y,Y,Y,Y,-92.031394,30.211573
1019677,15615 East 21st Street North,Wichita,Sedgwick,Kansas,67230,N,Y,Y,N,Y,Y,Y,N,-97.156597,37.723203
1004377,9116 Hwy 42,Fish Creek,Door,Wisconsin,54212,Y,Y,N,Y,Y,N,Y,N,-87.24535,45.113436
1019813,324 East Main Rd,Portsmouth,Newport,Rhode Island,2871,Y,Y,Y,Y,Y,Y,Y,Y,-71.261378,41.546506
1019914,1011 Point Judith Rd,Narragansett,Washington,Rhode Island,2882,-,Y,N,N,Y,Y,Y,Y,-71.488239,41.380339
1019897,1384 Elizaville Rd,Flemingsburg,Fleming,Kentucky,41041,-,Y,N,Y,Y,Y,Y,N,-83.759523,38.421407
1020091,361 N. Lake Drive,Prestonsburg,Floyd,Kentucky,41653,-,Y,N,Y,Y,Y,Y,N,-82.775995,37.670674
1020065,400 Block Lafollette Station,floyds knobs,Floyd,Indiana,47119,-,Y,Y,Y,Y,N,Y,Y,-85.896109,38.315002
1019123,200 S. David St.,Casper,Natrona,Wyoming,82601,N,Y,Y,Y,N,Y,Y,Y,-106.3269901,42.8482536
1003332,Main St. between 21st Street and Pacific Ave.,Forest Grove,Washington,Oregon,97116,Y,Y,Y,Y,Y,Y,Y,Y,-123.112063,45.520623
1002803,1650 Ashwood Blvd.,Charlottesville,Albemarle,Virginia,22911,N,Y,N,Y,Y,Y,Y,Y,-78.44106,38.1087
1018989,,Lawrence,Marion,Indiana,,Y,Y,N,Y,Y,Y,Y,Y,-85.989646,39.865956
1018505,213 E Sumner Avenue,Fort Sumner,De Baca,New Mexico,88119,N,Y,N,Y,N,Y,Y,N,-104.244013,34.470848
1019101,17 E School St.,Fox Lake,Lake,Illinois,60020,-,N,N,N,N,Y,N,N,-88.17851,42.398071
1019187,1200 Packard Rd,"Ann Arbor, Michigan, United States",Washtenaw,Michigan,48104,Y,Y,Y,Y,Y,Y,Y,Y,-83.838671,42.2532638
1002880,534 North Main Street,Frankenmuth,Saginaw,Michigan,48734,N,Y,Y,Y,Y,Y,Y,Y,-83.738212,43.344313
1019298,404 Wilkinson Blvd.,Frankfort,Franklin,Kentucky,40601,Y,Y,Y,Y,Y,Y,Y,Y,-84.880146,38.201858
1019147,Parking Lot 2 Blocks West of the Courthouse,Franklin,Johnson,Indiana,46131,Y,Y,Y,Y,Y,Y,N,Y,-86.05768,39.479799
1019795,1777 E. Broad Street,Columbus,Franklin,Ohio,43203,Y,Y,Y,Y,Y,Y,Y,Y,-82.952321,39.966884
1020092,304 N Main St,Franklin,Simpson,Kentucky,42134,N,Y,N,Y,N,N,N,N,-86.577261,36.724368
1020007,2000 W. Franklin Street,Evansville,Vanderburgh,Indiana,47710,-,Y,Y,Y,Y,Y,N,Y,-87.594742,37.980191
1008093,13 Park Square,Franklinville,Cattaraugus,New York,14737,N,Y,N,Y,Y,Y,Y,N,-78.4572594,42.3371786
1012429,453 Freedom Pkwy NE,Atlanta,Fulton,Georgia,30307,Y,Y,Y,N,Y,Y,Y,Y,-84.35682,33.76759
1018415,1102 W 32nd Street,Joplin,Newton,Missouri,64801,-,Y,N,N,Y,Y,Y,N,-94.5268459,37.0526877
1019600,2032 Central Plaza,New Braunfels,Comal,Texas,78130,N,Y,N,Y,Y,Y,Y,Y,-98.072988,29.717952
1019662,3904 VT-7A,Arlington,Bennington,Vermont,5250,N,Y,Y,Y,Y,Y,Y,Y,-73.146078,43.072884
1019404,"213 F Street, Antioch",Antioch,Contra Costa,California,94509,-,N,N,N,N,N,N,N,-121.812514,38.016546
1012466,,"Phoenixville, Pottstown, Coatesville, Parkesburg, West Chester, Kennett Square and Oxford",Chester,Pennsylvania,,N,N,N,N,N,Y,Y,N,-75.748454,39.9731925
1018671,1624 20th St NW,Washington,District of Columbia,District of Columbia,20009,Y,Y,Y,N,Y,Y,Y,Y,-77.044967,38.911806
1011730,1100 S Friendswood Dr.,Friendswood,Galveston,Texas,77546,Y,Y,N,N,N,Y,Y,Y,-95.191302,29.520767
1019762,301 E Wayne Street,Fort Wayne,Allen,Indiana,46802,Y,Y,Y,Y,Y,Y,Y,Y,-85.136155,41.078388
1019285,216 W Douglas Ave,FORT WAYNE,Allen,Indiana,46802,Y,Y,Y,Y,Y,Y,Y,Y,-85.140411,41.074494
1019998,9035 Bois d'Arc Lane,Fulshear,Fort Bend,Texas,77406,-,Y,Y,Y,Y,Y,Y,Y,-95.888647,29.689956
1018121,,Rochester,Fulton,Indiana,46975,Y,Y,N,Y,Y,Y,Y,N,-86.2158331,41.0647645
1019949,91 South St.,New York,New York,New York,10038,Y,Y,Y,N,N,Y,Y,Y,-74.003474,40.706222
1006661,1145 East Fulton,Grand Rapids,Kent,Michigan,49503,Y,Y,Y,Y,Y,Y,Y,Y,-85.640479,42.963913
1019904,85 Parade St,Providence,Providence,Rhode Island,2909,-,Y,Y,N,Y,Y,Y,Y,-71.4316,41.814767
1019630,160 W Franklin St,Gallatin,Sumner,Tennessee,37066,-,Y,N,Y,N,Y,Y,Y,-86.448948,36.388902
1011814,1370 Galleria @ Tyler,Riverside,Riverside,California,92503,Y,Y,Y,Y,Y,Y,Y,Y,-117.4578357,33.9097475
1018970,1210 Fleming,Garden City,Finney,Kansas,67846,-,Y,N,Y,Y,Y,Y,N,-100.8532074,37.9772536
1018831,136 E Washington St,Gardner,Johnson,Kansas,66030,Y,Y,N,Y,Y,Y,Y,N,-94.925777,38.812999
1019728,2345 Pagoda Dr,Indianapolis,Marion,Indiana,46225,Y,Y,Y,Y,Y,Y,Y,Y,-86.14183,39.731109
1020095,117 Lexington RD,Lancaster,Garrard,Kentucky,40444,N,N,N,N,N,Y,N,N,-84.583209,37.614373
1019587,1028 E Main Street,Gas City,Grant,Indiana,46933,N,Y,N,Y,Y,N,N,N,-85.598506,40.489812
1019602,6719 W. Montgomery,Houston,Houston,Texas,77091,N,N,N,N,N,N,N,N,-95.422239,29.857439
1019603,6402 Market St.,Houston,Houston,Texas,77020,N,N,N,N,N,N,N,N,-95.386342,29.780472
1019604,3810 W. Fuqua St.,Houston,Houston,Texas,77045,N,N,N,N,N,N,N,N,-95.43355,29.614043
1019222,2400 Bradley Beach Road,Arnold,Jefferson,Missouri,63010,Y,Y,N,Y,Y,Y,Y,Y,-90.353093,38.453275
1019605,7037 Capitol St. 77011,Houston,Houston,Texas,77011,N,N,N,N,N,N,N,N,-95.300902,29.734482
1019606,9720 Spaulding St. 77016,Houston,Houston,Texas,77016,N,N,N,N,N,N,N,N,-95.304197,29.851549
1019607,6400 High Star Dr.,Houston,Houston,Texas,77074,N,N,N,N,N,N,N,N,-95.496227,29.711246
1019608,9314 Cullen St. 77051,Houston,Houston,Texas,77051,N,N,N,N,N,N,N,N,-95.356477,29.656412
1008573,602 NE 70th Street,Gladstone,Clay,Missouri,64118,N,Y,N,Y,Y,Y,Y,N,-94.5730016,39.2214548
1002767,6394 Western Ave.,Glen Arbor,Leelanau,Michigan,49636,Y,Y,Y,Y,Y,Y,Y,N,-85.986905,44.897978
1005588,201  W CHASTAIN BLVD. WEST,GLENCOE,Etowah,Alabama,35905,-,N,N,N,N,N,N,N,-85.934714,33.957828
1019710,10 Sanford St,Glens Falls,Warren,New York,12801,Y,Y,Y,Y,N,Y,Y,Y,-73.653504,43.317546
1019414,6926 N. Glenwood Ave.,Chicago,Cook,Illinois,60626,Y,Y,Y,N,Y,Y,Y,N,-87.666352,42.007871
1020050,9150 Garland Road,Dallas,Dallas,Texas,75218,N,Y,N,N,Y,Y,Y,Y,-96.706451,32.829956
1019495,Artisan Alley,DeLand,Volusia,Florida,32720,N,Y,N,Y,Y,Y,Y,Y,-81.304341,29.027562
1019833,411 Rosie Park Way,Goodhue,Goodhue,Minnesota,55027,-,Y,N,Y,Y,Y,Y,Y,-92.624672,44.403334
1012253,South Church and Main Street,Goshen,Orange,New York,10924,N,Y,Y,N,N,Y,Y,Y,-74.322899,41.401966
1005937,11 Golf Course Road,Grand Rapids,Itasca,Minnesota,55744,N,Y,N,Y,Y,Y,Y,Y,-93.529757,47.221394
1017947,2080 Westover Ave SW,Roanoke,Roanoke City,Virginia,24015,Y,Y,Y,Y,Y,Y,Y,Y,-79.977892,37.264872
1018611,600 Cherokee Avenue SE,Atlanta,Fulton,Georgia,30312,Y,Y,Y,Y,Y,Y,Y,Y,-84.373629,33.738909
1019989,W.145th. Street between Edgecombe & Bradhurst Aves.,New York,New York,New York,10031,N,Y,N,N,N,Y,Y,N,-73.943475,40.823804
1009808,38 Avenue A,Turners Falls,Franklin,Massachusetts,1376,-,Y,N,Y,Y,Y,Y,N,-72.556098,42.609053
1006059,317 Washington St.,Watertown,Jefferson,New York,13601,Y,Y,Y,Y,Y,Y,Y,Y,-75.91127269,43.9720957
1004849,1071 Piedmont Ave NE,Atlanta,Fulton,Georgia,30309,Y,Y,Y,Y,Y,Y,Y,Y,-84.378551,33.784257
1006997,617 Michigan Avenue,Walker,Cass,Minnesota,56484,Y,Y,N,Y,Y,Y,Y,Y,-94.584857,47.100539
1020068,1966 Broad Street,Augusta-Richmond County consolidated government (balance),Richmond,Georgia,30904,-,Y,Y,Y,Y,Y,Y,Y,-82.073422,33.365531
1019805,25 Crescent Road,Greenbelt,Prince George's,Maryland,20770,Y,Y,Y,N,Y,Y,Y,Y,-76.877296,39.001146
1019132,42 Carmen Place,Ruckersville,Greene,Virginia,22968,-,Y,Y,N,Y,Y,Y,Y,-78.384143,38.233858
1018472,739 Third Street,Gretna,Jefferson,Louisiana,70053,Y,Y,N,Y,Y,Y,Y,Y,-90.0653599,29.9165076
1019088,4000 Gus Young Ave,baton rouge,East Baton Rouge,Louisiana,70802,-,Y,N,N,N,N,Y,N,-91.1491139,30.4617557
1018619,400 Block of South River Park Drive,Guttenberg,Clayton,Iowa,52052,-,Y,N,Y,Y,Y,Y,N,-91.095446,42.782433
1005265,99-795 Iwaiwa Street,Aiea,Honolulu,Hawaii,96701,N,N,N,N,N,N,N,N,-157.914948,21.373292
1019673,345 High Street,Hamilton,Butler,Ohio,45011,-,Y,N,Y,Y,Y,Y,Y,-84.565522,39.394328
1018774,7165 Ramsey Street,Fayetteville,Cumberland,North Carolina,28310,N,Y,N,N,N,N,N,N,-78.8531625,35.1865196
1019738,106 Western Ave.,Hampden,Penobscot,Maine,4444,Y,Y,Y,Y,Y,Y,Y,Y,-68.847236,44.74558
1019209,7400 Hampton Blvd.,Norfolk,Norfolk,Virginia,23505,Y,Y,Y,N,Y,Y,Y,Y,-76.305582,36.912352
1019938,3234 S. LaChance Rd,Lake City,Missaukee,Michigan,49651,N,Y,Y,Y,Y,Y,Y,N,-85.296147,44.292952
1001245,3300 Aggie Road,Jonesboro,Craighead,Arkansas,72401,N,Y,N,Y,Y,Y,Y,Y,-90.667327,35.840771
1001597,1st Street NW and 1st Ave. NW,Hampton,Franklin,Iowa,50441,N,Y,N,Y,N,Y,Y,N,-93.209702,42.742892
1006425,55299C Kuhio Hwy,Hanalei,Kauai,Hawaii,96714,-,Y,Y,Y,Y,Y,Y,Y,-159.497738,22.203847
1019065,200 West Main Cross,Findlay,Hancock,Ohio,45840,-,Y,N,Y,Y,N,Y,Y,-83.653004,41.039589
1019148,210 East Chestnut Street,Hanover,York,Pennsylvania,17331,N,Y,Y,Y,N,Y,Y,Y,-76.98261,39.803273
1019533,647 E. Market Street,Akron,Summit,Ohio,44304,Y,Y,N,Y,N,N,Y,Y,-81.521429,41.080456
1019770,381 Ontario Street,Akron,Summit,Ohio,44310,Y,Y,N,Y,Y,N,Y,N,-81.521429,41.080456
1019154,4525 Knoll Rd,Fort Wayne,Allen,Indiana,46809,N,Y,N,Y,Y,Y,Y,N,-85.2011808,41.0359345
1018380,850 West Central Texas Expressway,Harker Heights,Bell,Texas,76548,N,Y,N,Y,N,Y,Y,Y,-97.681611,31.073245
1020122,364 Oddville Ave,Cynthiana,Harrison,Kentucky,,-,Y,N,Y,Y,Y,Y,N,-84.286978,38.394075
1020125,111 S Main St,Cynthiana,Harrison,Kentucky,,-,Y,N,Y,Y,N,Y,N,-84.297879,38.390005
1002984,Between 5th and 6th Streets on the south side of Main Street,Atchison,Atchison,Kansas,66002,N,Y,N,N,Y,Y,Y,Y,-95.119878,39.560737
1020107,Main Street,Munfordville,Hart,Kentucky,42765,N,Y,N,Y,N,N,Y,N,-85.889578,37.271492
1011782,1001 N Oaks Ave,Hartford,Minnehaha,South Dakota,57033,N,N,N,Y,Y,N,Y,Y,-96.947438,43.632679
1019383,W. 125th Street & Adam Clayton Powell Blvd,New York,New York,New York,,N,Y,N,N,N,N,N,N,-73.947702,40.808707
1019373,Brooklyn Avenue & Prospect Place,New York,Kings,New York,,N,N,N,N,N,N,N,N,-73.94453,40.674043
1019374,Lafayette btwn Waverly & Washington,Brooklyn,New York,New York,,N,N,N,N,N,N,N,N,-73.96631,40.688145
1019366,Asch Loop & Aldrich Street,Bronx,Bronx,New York,,N,Y,N,N,N,N,Y,N,-73.831007,40.870274
1019375,Ocean Pkwy btwn Shore Pkwy & Avenue Z,New York,Kings,New York,,N,Y,N,N,N,N,Y,N,-73.966129,40.58551
1019380,E. 104th Street & 3rd Avenue,New York,New York,New York,,N,N,N,N,N,N,N,N,-73.945625,40.790266
1019381,Lenox Avenue btwn W. 136th & W. 138th Street,New York,New York,New York,,N,Y,N,N,N,N,Y,N,-73.9401,40.814968
1019377,E. 163rd btwn Southern & Bruckner Boulevards,New York,Bronx,New York,,N,N,N,N,N,N,N,N,-73.890698,40.820779
1005086,1002 East State Street,Athens,Athens,Ohio,45701,Y,Y,Y,N,Y,Y,Y,Y,-82.056622,39.336038
1019378,1400 Pelham Parkway,New York,Bronx,New York,,N,Y,N,N,N,N,Y,N,-73.846979,40.857347
1019376,Clarkson Avenue btwn E. 37th & E. 39th Street,New York,Kings,New York,,N,N,N,N,N,N,N,N,-73.94252,40.655889
1019382,Lenox Avenue btwn W. 117th & W. 118th Street,New York,New York,New York,,N,N,N,N,N,N,N,N,-73.948857,40.803029
1002339,97-99th Street and 2nd Ave.,Manhattan,New York,New York,,N,Y,N,N,N,N,Y,Y,-73.94622,40.785539
1002335,Mt. Eden Pkwy & Morris Avenue,Bronx,Bronx,New York,,N,Y,N,N,N,N,Y,N,-73.909517,40.8427
1005332,E. Mosholu Pkwy N. & Jerome Avenue,Bronx,Bronx,New York,,N,Y,N,N,N,N,N,N,-73.883864,40.880479
1019379,E. 149th Street & Eagle Avenue,New York,Bronx,New York,,N,N,N,N,N,N,N,N,-73.911898,40.81385
1002345,Broadway btwn W. 138th & W. 139th St,New York,New York,New York,,N,N,N,N,N,N,N,N,-73.953193,40.822369
1009660,300 Keahole Street,Honolulu,Honolulu,Hawaii,,N,N,N,N,Y,N,N,N,-157.713935,21.283943
1018282,Franklin Avenue & Summit Street,Kent,Portage,Ohio,44240,Y,Y,Y,Y,Y,Y,Y,Y,-81.360033,41.150692
1018033,271 W Hancock Ave,Athens,Clarke,Georgia,30601,Y,Y,N,N,N,Y,N,N,-83.380247,33.959088
1020044,"1435 E Main St, ",Kent,Portage,Ohio,44240,Y,Y,Y,Y,Y,Y,Y,Y,-81.337712,41.155218
1021211,73 Monument Place,Heathsville,Northumberland,Virginia,22473,-,Y,N,Y,Y,N,N,N,-76.473204,37.916391
1019786,250 South Main,Heber City,Wasatch,Utah,84032,-,Y,N,Y,Y,N,Y,N,-111.167763,40.329639
1019757,1200 N. Vista St.,West Hollywood,Los Angeles,California,90046,Y,Y,Y,N,Y,Y,Y,Y,-118.351209,34.09406
1019192,100 North King Street,Hendersonville,Henderson,North Carolina,28739,-,Y,N,Y,Y,Y,Y,N,-82.458271,35.314825
1019895,,Henderson,York,Nebraska,,-,N,N,N,N,N,N,N,-97.811491,40.778922
1010011,North Main Street,Hendricks,Lincoln,Minnesota,56136,N,Y,N,N,Y,N,N,N,-96.425425,44.507062
1019802,17004 York Rd,Parkton,Baltimore,Maryland,,Y,Y,Y,Y,Y,Y,Y,Y,-76.644722,39.4668834
1020174,1313 N. Mill St.,London,Laurel,Kentucky,40741,-,Y,N,Y,Y,Y,Y,N,-84.096167,37.135019
1003684,12505 N Main St   91739,Rancho Cucamonga,San Bernardino,California,91739,Y,Y,Y,Y,Y,Y,Y,Y,-117.532318,34.110872
1018032,705 Sunset Dr,Athens,Clarke,Georgia,30606,Y,Y,N,Y,Y,Y,Y,Y,-83.4121317,33.9644564
1019234,418 Main Street,Springerville,Apache,Arizona,85938,N,Y,N,Y,N,Y,Y,Y,-109.281673,34.1324115
1012043,1 Pier Avenue,Hermosa Beach,Los Angeles,California,,Y,Y,N,Y,Y,Y,Y,Y,-118.401347,33.861972
1006285,2535 Highway 51 South,Hernando,DeSoto,Mississippi,38632,N,Y,Y,Y,Y,Y,Y,Y,-89.994281,34.823026
1019486,768 Lynn Street,Herndon,Fairfax,Virginia,20170,N,Y,N,N,Y,Y,Y,N,-77.387108,38.970411
1020026,2001 Lock B Road North,Clarksville,Montgomery,Tennessee,37043,N,Y,N,Y,N,N,Y,N,-87.24862,36.433597
1019224,18422 Bear Valley RD,Victorville,San Bernardino,California,92395,Y,Y,Y,Y,Y,Y,Y,Y,-117.257633,34.473755
1019220,901 N Main Street,High Point,Guilford,North Carolina,27262,N,Y,Y,Y,Y,Y,Y,Y,-80.012645,35.966162
1012260,115 NE Railroad Avenue,High Springs,Alachua,Florida,32643,N,Y,Y,Y,Y,Y,Y,Y,-82.596257,29.825509
1006831,61 Highland Center Drive,Monterey,Highland,Virginia,24465,Y,Y,Y,Y,Y,Y,Y,N,-79.586195,38.409646
1018951,1118 1st Ave,Manson,Calhoun,Iowa,50563,-,Y,Y,Y,N,Y,Y,N,-94.5353089,42.5171234
1018330,201 County Street,Attleboro,Bristol,Massachusetts,2703,Y,Y,Y,Y,Y,Y,Y,Y,-71.299235,41.937562
1019688,5137 Glade Chapel Road,Hillsboro,Jefferson,Missouri,63050,N,Y,N,N,N,N,Y,N,-90.566655,38.232278
1019959,1st Ave and NW Lincoln St,Hillsboro,Washington,Oregon,97124,N,Y,N,Y,Y,N,N,N,-122.990366,45.524375
1019962,6125 NE Cornell Rd,Hillsboro,Washington,Oregon,97124,Y,Y,Y,Y,Y,Y,Y,N,-122.917552,45.534675
1001244,1405 SW Vermont Street,Portland,Multnomah,Oregon,97219,Y,Y,Y,N,Y,Y,Y,Y,-122.693689,45.47778
1019669,"S Commerce St, Hinesville, GA 31313",Hinesville,Liberty,Georgia,31313,N,Y,Y,Y,Y,Y,Y,N,-81.59569,31.846772
1008020,96 Otis Street,Hingham,Plymouth,Massachusetts,2043,N,Y,Y,Y,Y,Y,Y,Y,-70.888967,42.247351
1005076,30 E. Chicago Ave.,Hinsdale,DuPage,Illinois,60521,Y,Y,Y,N,Y,Y,Y,Y,-87.928694,41.8036543
1019330,121 Orange Street,Hot Springs,Garland,Arkansas,71901,N,Y,N,Y,Y,Y,Y,Y,-93.050943,34.504886
1021208,Grove PATH Plaza,Jersey City,Hudson,New Jersey,,Y,Y,Y,N,Y,Y,Y,Y,-74.042428,40.719659
1019273,Corner of Dupont and Johnson Avenues,Lewes,Sussex,Delaware,19958,Y,Y,Y,N,N,Y,Y,Y,-75.147374,38.771568
1021225,3528 Larga Ave,Los Angeles,Los Angeles,California,90039,Y,Y,Y,N,Y,Y,Y,Y,-118.260151,34.117828
1019275,Corner of Sussex Drive and Savannah Road,Lewes,Sussex,Delaware,19958,Y,N,Y,N,Y,Y,Y,Y,-75.148318,38.767185
1019057,Crooked Hammock Way and Kings Highway,Lewes,Sussex,Delaware,19958,N,Y,N,N,Y,N,N,N,-75.149992,38.74513
1011761,67 West Henderson Street,Marion,McDowell,North Carolina,28752,N,Y,Y,Y,Y,Y,Y,N,-82.008815,35.682465
1018972,1 E Water St,Newburgh,Warrick,Indiana,47630,N,Y,Y,Y,Y,Y,Y,Y,-87.405321,37.944042
1008980,101 S Market St.,Holden,Johnson,Missouri,64040,N,Y,N,Y,N,N,N,N,-93.9908869,38.7186566
1019302,Crapo Park,Holly,Oakland,Michigan,48442,N,Y,N,Y,Y,Y,Y,N,-83.625343,42.7906
1018853,300 West Ballentine Street,Holly Springs,Wake,North Carolina,27540,-,Y,Y,Y,Y,Y,Y,Y,-78.83619,35.650573
1021229,1600 Ivar Ave,Los Angeles,Los Angeles,California,90028,Y,Y,Y,N,Y,Y,Y,Y,-118.328191,34.099639
1018458,21078 Three Notch Road,Lexington Park,St. Mary's,Maryland,20653,Y,Y,Y,Y,Y,Y,Y,Y,-76.420927,38.247929
1007267,Ocean Drive,Homer,Kenai Peninsula,Alaska,99603,-,Y,N,Y,Y,Y,Y,Y,-151.512342,59.638109
1019789,1140 Auburn Way S,Auburn,King,Washington,98002,Y,Y,Y,Y,Y,N,Y,Y,-122.218459,47.298267
1009663,Martin Ave and Chestnut Rd,Homewood,Cook,Illinois,60430,-,Y,Y,Y,Y,N,Y,Y,-87.666231,41.562264
1012076,5th Street & Columbia Street,Hood River,Hood River,Oregon,,Y,Y,Y,Y,Y,Y,Y,Y,-121.515814,45.710094
1019819,67212 E. HWY 26,Welches,Clackamas,Oregon,97067,Y,N,N,Y,Y,Y,Y,Y,-121.960918,45.349594
1019917,691 Main St,Warren,Bristol,Rhode Island,2885,-,Y,Y,N,Y,Y,Y,Y,-71.283775,41.7151025
1019781,1015 Hope St,Providence,Providence,Rhode Island,2906,Y,Y,Y,N,Y,Y,Y,Y,-71.356584,41.799956
1012041,33 14th Avenue North,Hopkins,Hennepin,Minnesota,55343,Y,Y,Y,Y,N,Y,Y,Y,-93.417104,44.925619
1020100,110 W 9th Street,HOPKINSVILLE,Christian,Kentucky,42240,-,Y,Y,Y,Y,Y,Y,N,-87.489438,36.866111
1019313,c/o Rajni Lerman,Hot Springs,Fall River,South Dakota,57747,N,Y,N,Y,Y,Y,Y,N,-103.479082,43.432276
1018200,498 Howard St.,Spartanburg,Spartanburg,South Carolina,29303,-,Y,N,Y,N,Y,Y,Y,-81.942413,34.956245
1005674,Corner of Columbia and Sixth Streets,Hudson,Columbia,New York,12534,Y,Y,Y,Y,Y,Y,Y,Y,-73.783692,42.248656
1000559,2031 S. Elliott Ave.,Aurora,Lawrence,Missouri,65605,N,Y,N,Y,Y,Y,N,N,-93.7201867,36.948908
1018152,2051 Huguenot Road,Richmond,Chesterfield,Virginia,23236,-,Y,N,Y,N,Y,Y,N,-77.610398,37.519516
1019990,2051 Huguenot Road,Richmond,Chesterfield,Virginia,23235,N,Y,N,Y,N,Y,Y,N,-77.610901,37.519378
1019056,111 Mine Street,Flemington,Hunterdon,New Jersey,8822,Y,Y,Y,N,Y,Y,Y,Y,-74.871278,40.5056638
1019586,208 East Street,Hutto,Williamson,Texas,78634,Y,Y,Y,Y,Y,Y,Y,N,-97.548336,30.545152
1011325,4310 Gallatin Street,Hyattsville,Prince George's,Maryland,20781,-,Y,Y,N,N,Y,Y,Y,-76.941854,38.952822
1019731,2700 Erie Avenue,Cincinnati,Hamilton,Ohio,45208,Y,Y,Y,N,Y,Y,Y,Y,-84.44233,39.139602
1012621,2nd Street,Ida Grove,Ida,Iowa,51445,N,Y,N,Y,N,Y,Y,N,-95.470874,42.345173
1006417,A - D St. Memorial Drive,Idaho Falls,Bonneville,Idaho,83402,N,Y,Y,Y,Y,Y,Y,Y,-112.042508,43.494592
1020136,139 North Main Street,Marion,Crittenden,Kentucky,42064,Y,Y,N,Y,N,Y,Y,N,-88.081353,37.334578
1019011,100 1st St. W,Independence,Buchanan,Iowa,50644,N,Y,N,Y,Y,Y,Y,N,-91.8949732,42.4687056
1019396,8190 E US Highway 36,Avon,Hendricks,Indiana,,-,Y,N,Y,Y,Y,Y,N,-86.38263,39.765279
1019236,211 W. Truman Rd.,Independence,Jackson,Missouri,64050,N,Y,N,Y,Y,Y,Y,N,-94.418179,39.093845
1018772,P.O. Box 651,Indian Lake,Hamilton,New York,12842,Y,Y,Y,Y,Y,Y,Y,Y,-74.270517,43.782822
1019861,8th & Church St.,Indiana,Indiana,Pennsylvania,15701,N,Y,N,N,Y,Y,Y,N,-79.155021,40.621852
1004384,South Steele Street and Adams Street,Ionia,Ionia,Michigan,48846,-,Y,N,N,Y,N,Y,N,-85.0677261,42.9814841
1012626,Corner of Rocksylvania Ave. anb Stevens St.,Iowa Falls,Hardin,Iowa,50126,-,Y,N,Y,Y,Y,N,N,-93.264356,42.521222
1019340,410 Livoinia Ave,"Brooklyn, NY",Kings,New York,11212,N,Y,N,N,Y,Y,Y,N,-73.901875,40.663651
1003680,1730 10th Ave N.W.,Issaquah,King,Washington,98027,Y,Y,Y,Y,Y,Y,Y,Y,-122.049115,47.550637
1004380,North end of Main Street,Ivanhoe,Lincoln,Minnesota,56142,-,N,N,N,Y,N,N,N,-96.246607,44.465197
1006376,130 S. 3rd,Douglas,Converse,Wyoming,82633,N,Y,N,Y,N,Y,Y,Y,-105.384457,42.759014
1018907,252 E. Jackson Blvd.,Jackson,Cape Girardeau,Missouri,63755,-,Y,N,Y,N,Y,Y,N,-89.6659726,37.3778137
1018965,6100 S. Blackstone Ave,Chicago,Cook,Illinois,60637,-,Y,Y,N,Y,Y,Y,Y,-87.5905914,41.784079
1019126,"281 COUNTRY CLUB RD., C/O AVON LIBRARY",AVON,Hartford,Connecticut,6001,Y,Y,Y,N,Y,Y,N,N,-72.860448,41.78971
1018343,Diploma Drive,Black River Falls,Jackson,Wisconsin,54615,Y,Y,Y,Y,Y,Y,Y,N,-90.862319,44.291599
1020106,1296South Main St.,Mckee,Jackson,Kentucky,40447,N,Y,N,N,N,N,Y,N,-83.988324,37.430289
1020108,3034 Welchburg Rd.,Tyner,Jackson,Kentucky,40486,N,N,N,N,N,N,N,N,-83.922703,37.330559
1019263,110 Railroad Avenue,Sylva,Jackson,North Carolina,28779,N,Y,Y,Y,Y,Y,Y,Y,-83.218394,35.375375
1018978,23 Central Street,Sylva,Jackson,North Carolina,28779,N,Y,Y,Y,Y,Y,Y,Y,-83.224149,35.375581
1008299,"Park and Ride, Stegall Drive",Jasper,Pickens,Georgia,30143,-,Y,Y,Y,Y,Y,Y,Y,-84.4343796,34.46747
1020192,10434 watterson trail,Jeffersontown,Jefferson,Kentucky,40299,N,Y,N,Y,Y,Y,Y,Y,-85.562797,38.19521
1020090,826 F. M. Stafford Ave.,Paintsville,Johnson,Kentucky,41240,-,Y,N,Y,Y,Y,Y,N,-82.8042,37.812048
1002907,61651 Twentynine Palms Highway,Joshua Tree,San Bernardino,California,92252,Y,Y,Y,Y,Y,Y,Y,Y,-116.3182535,34.1349431
1018242,350 Whittier,Juneau,Juneau,Alaska,99801,Y,Y,N,Y,Y,N,N,Y,-134.4136031,58.29985
1019044,201 Grant Ave,bainbridge,Putnam,Indiana,46105,Y,Y,Y,Y,Y,Y,Y,N,-86.817696,39.7622329
1005270,21 South Kainalu Drive,Kailua,Honolulu,Hawaii,96734,N,Y,N,N,Y,N,N,N,-157.737337,21.395631
1008375,7300 N. Fresno Street,Fresno,Fresno,California,93720,Y,Y,Y,N,Y,Y,Y,N,-119.781524,36.843017
1019774,1204 Bank Street,Kalamazoo,Kalamazoo,Michigan,49001,Y,Y,Y,Y,Y,Y,Y,Y,-85.588501,42.275163
1005252,1911 Kam IV Road,Honolulu,Honolulu,Hawaii,96819,N,Y,N,N,Y,N,N,N,-157.8698,21.344726
1008118,1400 Kalihi Street,Honolulu,Honolulu,Hawaii,96822,N,Y,N,N,Y,Y,Y,N,-157.872454,21.335165
1012702,67-139 Pukalani Road,Kamuela,Hawaii,Hawaii,96743,Y,Y,N,Y,Y,Y,Y,Y,-155.662467,20.016964
1005253,45-660 Keaahala Road,Kaneohe,Honolulu,Hawaii,96788,N,N,N,N,N,N,N,N,-157.810103,21.409789
1005254,91-1049 Kamaaha Loop,Kapolei,Honolulu,Hawaii,96707,N,N,N,N,N,N,Y,N,-158.066932,21.333263
1005255,700 Kalihi Street,Honolulu,Honolulu,Hawaii,96819,N,Y,N,N,Y,N,N,N,-157.877976,21.327407
1019003,400 Bear Creek Parkway,Keller,Tarrant,Texas,76248,Y,Y,Y,Y,Y,Y,Y,Y,-97.243807,32.926757
1019076,Main St. and 6th Ave.,Baldwin,St. Croix,Wisconsin,54002,Y,Y,N,N,Y,Y,Y,N,-92.370763,44.966999
1020052,625 52nd Street,Kensoha,Kenosha,Wisconsin,53140,N,Y,Y,N,Y,Y,Y,Y,-87.819917,42.587305
1020011,Kensington train station parking lot,Kensington,Montgomery,Maryland,20895,Y,Y,Y,N,Y,Y,Y,Y,-77.073728,39.026476
1019758,4900 Breton Rd SE,Kentwood,Kent,Michigan,49508,-,Y,N,N,Y,Y,N,Y,-85.596957,42.874316
1019210,906 Broad Street,Camden,Kershaw,South Carolina,29021,Y,Y,N,Y,N,Y,Y,Y,-80.6061919,34.243264
1010636,105 Moore Road,King,Stokes,North Carolina,27021,N,Y,N,Y,Y,Y,Y,Y,-80.341586,36.276453
1019120,King George Middle School at 8246 Dahlgren Rd,King George,King George,Virginia,22485,N,Y,N,Y,Y,Y,Y,Y,-77.2028,38.27678
1003269,Wall Street - Uptown Kingston,Kingston,Ulster,New York,12402,Y,Y,Y,Y,Y,Y,Y,Y,-74.019483,41.932986
1019491,5870 Kingstowne Towne Center,Alexandrida,Fairfax,Virginia,22315,N,Y,Y,N,N,Y,Y,Y,-77.276198,38.8347926
1020032,2814 Town Center Circle,Kingwood,Harris,Texas,77339,Y,N,N,N,N,N,N,N,-95.184629,30.047327
1019087,1027 Highway 56,Kinsley,Edwards,Kansas,67547,-,Y,N,N,N,N,N,N,-99.419852,37.918535
1012081,Corner of Franklin and Harlow Streets,Bangor,Penobscot,Maine,4401,Y,Y,Y,N,Y,Y,N,Y,-68.771649,44.8039587
1019266,100 North Elson Street,Kirksville,Adair,Missouri,63501,-,Y,N,Y,Y,Y,Y,N,-92.584293,40.195114
1019212,47 Road 6500,Kirtland,San Juan,New Mexico,87417,-,N,N,N,N,Y,N,N,-108.3605187,36.7507894
1011117,10 Shapleigh Road,Kittery,York,Maine,3904,Y,Y,Y,Y,Y,Y,Y,Y,-70.736542,43.090021
1020075,34 Bond Hill Rd,Barbourville,Knox,Kentucky,40906,N,Y,Y,Y,N,Y,Y,N,-83.867633,36.849364
1003343,East Tremont Ave. between Lafontaine Ave& Arthue Ave,Bronx,Bronx,New York,10460,N,Y,N,N,Y,Y,Y,N,-73.893737,40.846468
1019986,Tremont Ave between Arthur Ave & LaFontaine Ave,Bronx,Bronx,New York,10457,N,Y,N,N,N,Y,N,N,-73.891978,40.849357
1020123,100 East Main Street,La Grange,Oldham,Kentucky,40031,N,Y,Y,Y,Y,Y,Y,N,-85.379458,38.407465
1019506,209 Washington Ave,La Plata,Charles,Maryland,20646,N,Y,N,Y,Y,Y,Y,Y,-76.978699,38.531647
1019649,106 Godfrey Road West,Weston,Fairfield,Connecticut,6883,-,Y,Y,N,Y,Y,Y,N,-73.385668,41.235769
1019409,224 E. First Street,Lewisville,Lafayette,Arkansas,71845,N,N,N,N,Y,Y,Y,N,-93.577673,33.355445
1020029,30 N. Broad St,Winder,Barrow,Georgia,30680,Y,Y,N,Y,Y,Y,Y,Y,-83.721123,33.993074
1019103,28214 West Northwest Highway,Lake Barrington,Lake,Illinois,60010,-,Y,N,N,N,N,Y,N,-88.183818,42.180694
1003863,"Millennium Plaza Park, 200 First Street",Lake Oswego,Clackamas,Oregon,97034,Y,Y,Y,Y,Y,Y,Y,Y,-122.664838,45.417893
1012206,281 Station Street,Lake Placid,Essex,New York,12946,Y,Y,Y,Y,Y,Y,Y,Y,-73.9841054,44.2770413
1019850,1001 Kingwood ST,Brainerd,Crow Wing,Minnesota,56401,Y,Y,N,Y,Y,Y,Y,N,-94.193437,46.358912
1019851,7915 MN-210,Baxter,Crow Wing,Minnesota,56425,Y,Y,N,Y,Y,Y,Y,N,-94.235284,46.352551
1019198,6110 Lakeside Avenue,RICHMOND,Henrico,Virginia,23228,N,Y,Y,Y,Y,Y,Y,N,-77.4710931,37.6145155
1002021,1606 lakeside ave.,henrico,Henrico,Virginia,23228,-,Y,Y,Y,Y,Y,Y,Y,-77.470522,37.614945
1019427,Chautauqua Ave,Lakewood,Chautauqua,New York,14750,Y,Y,N,Y,Y,Y,Y,N,-79.326095,42.103565
1020051,6434 E Mockingbird Lane,Dallas,Dallas,Texas,75218,N,Y,N,N,Y,Y,Y,Y,-96.751083,32.835725
1019035,610  E. Main St  or Corner of Main St & South Linden St,Lamoni,Decatur,Iowa,50140,N,N,N,Y,Y,Y,Y,N,-93.933204,40.62353
1003335,101 Midland Avenue,Basalt,Eagle,Colorado,81621,N,Y,Y,Y,Y,Y,Y,Y,-107.034736,39.368957
1019901,101 N Broad St,Lanark,Carroll,Illinois,61046,-,Y,Y,Y,N,N,Y,N,-89.8327,42.102207
1019852,West Chestnut Street,Lancaster,Fairfield,Ohio,43130,-,Y,Y,N,Y,Y,Y,Y,-82.603853,39.712631
1019352,505 College Meadows Drive,Sheridan,Sheridan,Wyoming,82801,-,Y,Y,N,N,Y,Y,Y,-106.960648,44.794818
1005352,Lane Event Center (Fairgrounds),Eugene,Lane,Oregon,97401,Y,Y,Y,Y,Y,N,Y,Y,-123.116207,44.056748
1009803,8th Ave & Oak St.,Eugene,Lane,Oregon,97401,Y,Y,Y,N,Y,Y,Y,Y,-123.09154,44.050826
1019756,400 Penn Street,Lansdale,Montgomery,Pennsylvania,19446,Y,Y,Y,N,Y,Y,Y,Y,-75.277496,40.234201
1000133,200 W. Oak Street,Fort Collins,Larimer,Colorado,80521,Y,Y,Y,Y,Y,Y,Y,Y,-105.07995,40.586187
1012344,109 Weatherly Road,Huntsville,Madison,Alabama,35803,Y,Y,Y,N,Y,Y,Y,Y,-86.56453,34.647522
1019030,,Laurel,Jones,Mississippi,39440,-,Y,Y,Y,Y,Y,Y,Y,-89.130033,31.692522
1018834,,Lawrence,Van Buren,Michigan,49064,-,Y,N,N,Y,Y,Y,N,-86.048868,42.219637
1019871,200 Clark St.,Bassett,Rock,Nebraska,68714,-,N,N,N,N,N,N,N,-99.536625,42.582541
1019450,250 40th Street,Pittsburgh,Allegheny,Pennsylvania,15201,-,Y,Y,N,Y,Y,Y,Y,-79.961092,40.467011
1016810,309 S Lebanon St.,Lebanon,Boone,Indiana,46052,-,Y,Y,Y,Y,Y,Y,Y,-86.469047,40.0456714
1018113,579 Exeter Road,Lebanon,New London,Connecticut,6249,Y,Y,Y,Y,Y,Y,Y,N,-72.212877,41.635781
1019158,18402 US Highway 281 N,San Antonio,Bexar,Texas,78259,N,Y,Y,Y,N,Y,Y,Y,-98.465436,29.609419
1006652,6601 Biscayne Blvd,Miami,Miami-Dade,Florida,33138,Y,Y,N,Y,Y,Y,Y,Y,-80.18319,25.836248
1002768,River Street,Leland,Leelanau,Michigan,49654,Y,Y,N,Y,Y,N,N,N,-85.759459,45.022857
1019512,17201 W. 87th St. Pkwy,Lenexa,Johnson,Kansas,66219,N,Y,Y,Y,Y,Y,Y,Y,-94.803914,38.965267
1010483,100N. Herritage Street,Kinston,Lenoir,North Carolina,2804,N,Y,N,Y,N,Y,Y,N,-77.584119,35.260631
1016916,4040 Harrison Ave,Cincinnati,Hamilton,Ohio,45211,-,Y,Y,Y,Y,Y,Y,N,-84.617203,39.1587027
1004651,7785 North State street,Lowville,Lewis,New York,13367,-,Y,Y,N,N,N,Y,N,-75.500665,43.794672
1019712,25 S McCamly,Battle Creek,Calhoun,Michigan,49034,N,Y,Y,Y,Y,Y,Y,N,-85.185107,42.31994
1019503,170 S Fremont St,Lewiston,Winona,Minnesota,55952,Y,Y,Y,Y,Y,Y,Y,Y,-91.866902,43.980991
1019808,65 Main St.,Lewiston,Androscoggin,Maine,4240,Y,Y,Y,Y,Y,Y,Y,Y,-70.220379,44.096575
1019726,130 East Ave.,Lewiston,Androscoggin,Maine,4240,Y,Y,Y,Y,Y,Y,Y,Y,-70.172185,44.089594
1019537,Massachusetts Ave & Fletcher Ave,Lexington,Middlesex,Massachusetts,2420,Y,Y,Y,Y,Y,Y,Y,Y,-71.222455,42.446439
1019346,739 Massachusetts Avenue,LEXINGTON,Middlesex,Massachusetts,2420,N,Y,N,Y,N,Y,Y,N,-71.206748,42.429242
1019650,"Liberty Park, 600 East 900 South",Salt Lake City,Salt Lake,Utah,84105,-,Y,Y,Y,Y,Y,Y,Y,-111.872426,40.744796
1018927,110 Andi Lane,Ligonier,Westmoreland,Pennsylvania,15658,Y,Y,Y,Y,Y,Y,Y,Y,-79.2507333,40.2501886
1004848,360 Lincoln Street,Caliente,Lincoln,Nevada,89008,Y,Y,N,N,N,Y,Y,N,-114.5149,37.61666
1011300,N. Broadway & Sichel,Los Angeles,Los Angeles,California,90031,Y,Y,N,Y,N,Y,Y,Y,-118.213092,34.07348
1020132,N. Broadway & Sichel,Los Angeles,Los Angeles,California,90031,Y,Y,N,Y,N,Y,Y,Y,-118.213102,34.073591
1019617,500 Baybrook Mall Drive,Friendswood,Harris,Texas,77546,-,Y,N,N,Y,Y,Y,Y,-95.150553,29.548618
1019304,SW Corner Fort Street & Southfield,Lincoln Park,Wayne,Michigan,48146,N,Y,N,Y,Y,N,Y,N,-83.177696,42.249938
1021198,6939 Linda Vista Rd.,San Diego,San Diego,California,92111,N,N,Y,Y,N,Y,Y,Y,-117.170563,32.785209
1019167,,Linton,Greene,Indiana,47441,N,Y,N,Y,Y,Y,Y,Y,-87.149098,39.039325
1019678,West Street and Woodruff Lane,Litchfeild,Litchfield,Connecticut,6759,Y,Y,Y,N,Y,Y,Y,Y,-73.189724,41.743812
1019679,421 Bantam Rad,Litchfield,Litchfield,Connecticut,6759,Y,Y,Y,N,N,Y,Y,Y,-73.215193,41.740678
1019631,520 Lucky Road,Seymour,Wright,Missouri,65746,-,Y,N,Y,Y,Y,Y,Y,-92.680159,37.118045
1019207,331 West 18th Street,Erie,Erie,Pennsylvania,16502,N,Y,N,Y,Y,N,Y,N,-80.085081,42.1155929
1019995,555 W Date Street,San Diego,San Diego,California,92101,Y,Y,Y,Y,Y,Y,Y,Y,-117.167574,32.723123
1019538,Miles Band Shell Park,Livingston,Park,Montana,59047,Y,Y,Y,Y,Y,Y,Y,Y,-110.556707,45.654254
1018418,29350 W. Chicago,Livonia,Wayne,Michigan,48150,-,Y,N,Y,N,N,Y,N,-83.331995,42.362596
1019874,Indian Creek Mall 2205 N 6th St,Beatrice,Gage,Nebraska,68310,-,N,N,N,N,N,N,N,-96.747301,40.273594
1018901,1848 Church Street,Appomattox,Appomattox,Virginia,24522,-,Y,N,Y,N,Y,Y,Y,-78.826847,37.353215
1020094,255 John Paul Avenue,Russellville,Logan,Kentucky,42276,N,Y,N,Y,Y,Y,Y,N,-86.884185,36.866286
1019494,8990 Lorton Station Blvd,Lorton,Fairfax,Virginia,22079,N,Y,Y,N,N,Y,Y,Y,-77.216355,38.698239
1005431,"City Hall, 6718 Rio Grande Blvd. NW",Los Ranchos,Bernalillo,New Mexico,87107,Y,Y,Y,Y,Y,Y,Y,Y,-106.654254,35.159135
1018919,"Sunset Park, Georgia Street",Louisiana,Pike,Missouri,63353,-,Y,N,Y,Y,Y,Y,N,-91.062659,39.441188
1016820,3410 N Southport Ave,Chicago,Cook,Illinois,60657,N,Y,Y,N,Y,Y,Y,Y,-87.664233,41.943816
1018922,5473 Bostwick Street,Lowville,Lewis,New York,13367,Y,Y,Y,Y,Y,Y,Y,Y,-75.491021,43.793854
1011800,3200 University Ave,Des Moines,Polk,Iowa,50311,N,N,N,N,Y,N,N,N,-93.660454,41.599698
1004752,North James Street Plaza,Ludington,Mason,Michigan,49431,N,Y,Y,Y,Y,Y,Y,Y,-86.447843,43.956255
1019622,"EE Lake General Store, 33721 Snickersville Turnpike",Bluemont,Loudoun,Virginia,20135,Y,Y,N,Y,Y,Y,N,N,-77.833365,39.110875
1009004,229 Lake Ella Drive,Tallahassee,Leon,Florida,32303,N,Y,Y,N,Y,Y,Y,N,-84.279874,30.461953
1020102,26 Hwy 52 W,Beattyville,Lee,Kentucky,41311,N,Y,N,Y,Y,N,N,N,-83.705633,37.591129
1019177,21060 Whitfield Drive,Sterling,Loudoun,Virginia,20165,Y,Y,Y,Y,Y,Y,Y,Y,-77.395364,39.031603
1019175,"101 Catoctin Circle, S. E.",Leesburg,Loudoun,Virginia,20175,Y,Y,Y,Y,Y,Y,Y,Y,-77.565734,39.107555
1019176,Gramercy Park Drive and Central Station Drive,Ashburn,Loudoun,Virginia,20147,Y,Y,Y,Y,Y,Y,Y,Y,-77.489597,39.006277
1019940,1219 Main St,Lynchburg,Lynchburg,Virginia,24504,N,Y,Y,Y,Y,Y,Y,Y,-79.140379,37.411517
1019435,4th and Grover Street at Centennial Park,Lynden,Whatcom,Washington,98264,Y,Y,N,Y,Y,Y,Y,Y,-122.452228,48.944087
1011538,5239 Floyd Road,Mableton,Cobb,Georgia,30126,N,Y,N,N,N,Y,Y,N,-84.575384,33.826085
1000481,112 N. John Wayne Dr.,Winterset,Madison,Iowa,50273,Y,Y,N,Y,Y,Y,Y,Y,-94.013604,41.335222
1012249,Highway 40 E. and 1st St.,Madison,Lac qui Parle,Minnesota,56256,N,Y,N,N,Y,Y,Y,N,-96.1754168,45.0087575
1005201,Central Avenue between Cook Avenue and Main Street,Madison,Morris,New Jersey,7940,-,Y,Y,N,Y,Y,Y,N,-74.414532,40.759057
1012046,"7th Street, between C and B Streets",Madras,Jefferson,Oregon,97741,-,Y,N,Y,N,Y,Y,Y,-121.127162,44.638418
1018735,,"Beaumont, ",Jefferson,Texas,77707,N,Y,N,Y,Y,Y,Y,Y,-94.169203,30.067686
1019360,55 South Gammon Road,Madison,Dane,Wisconsin,53717,Y,Y,Y,Y,N,Y,Y,Y,-89.502026,43.066326
1021197,Baldwin Avenue between 7th and 8th St.,DeFuniak Springs,Walton,Florida,32435,-,Y,Y,Y,N,Y,Y,N,-86.1137,30.720266
1018407,335 Clark Ave. South,Dyersburg,Dyer,Tennessee,38024,N,Y,N,Y,Y,Y,Y,N,-89.389356,36.030636
1006837,401 Main Street,Placerville,El Dorado,California,95667,Y,Y,N,Y,Y,Y,Y,N,-120.796965,38.730544
1011119,Main Street and Highland Ave,Chanute,Neosho,Kansas,66720,-,Y,N,Y,N,Y,Y,Y,-95.4504829,37.6817937
1019706,1030 Main Street,Honesdale,Wayne,Pennsylvania,18431,Y,Y,N,N,N,Y,N,N,-75.257714,41.575082
1019501,413 N Milwaukee Ave,Liberytville,Lake,Illinois,60048,Y,Y,Y,N,Y,Y,Y,Y,-87.954744,42.287242
1005256,1527 Keeaumoku Street,Honolulu,Honolulu,Hawaii,96822,N,N,N,N,N,N,N,N,-157.836497,21.303939
1019969,163 Spruce St.,Manchester,Hartford,Connecticut,6040,N,Y,N,N,N,Y,Y,N,-72.518324,41.781503
1003980,South Broadway and West Main,Manhattan,Gallatin,Montana,59741,Y,Y,N,Y,Y,Y,Y,N,-111.333325,45.856793
1001275,3601 West Thirteen Mile Rd.,Royal Oak,Oakland,Michigan,48073,N,Y,Y,Y,Y,Y,Y,Y,-83.192119,42.514952
1018217,180 Memorial Drive,Manistee,Manistee,Michigan,49660,Y,Y,Y,Y,Y,Y,Y,Y,-86.323001,44.249273
1018998,180 N. Maple Street,Manistique,Schoolcraft,Michigan,49854,N,Y,N,N,Y,Y,Y,N,-86.243595,45.959984
1005257,Manoa Rd,Honolulu,Honolulu,Hawaii,96826,N,N,N,N,N,N,N,N,-157.807997,21.314189
1019111,703 East Broad Street,Mansfield,Tarrant,Texas,76063,N,Y,Y,Y,N,Y,Y,Y,-97.134052,32.564588
1010286,157 E Wapato Way,Manson,Chelan,Washington,98831,Y,Y,N,Y,Y,N,Y,N,-120.155979,47.884784
1005218,175 5th Street South,Manzanita,Tillamook,Oregon,97130,N,Y,Y,Y,Y,Y,Y,Y,-123.93282,45.718515
1016799,25719 Maple Valley Black Diamond Road,Maple Valley,King,Washington,98038,Y,Y,Y,N,Y,Y,Y,Y,-122.024172,47.367496
1003238,65 Church St,MARIETTA,Cobb,Georgia,30060,Y,Y,Y,N,Y,Y,Y,N,-84.549494,33.953194
1002235,2200 31st Street,Marion,Linn,Iowa,52302,-,Y,N,Y,Y,Y,Y,Y,-91.580744,42.0443772
1019058,Main and Church,Marion,Marion,Ohio,43302,-,Y,N,Y,N,Y,Y,N,-83.122972,40.593304
1019875,,Beaver City,Furnas,Nebraska,,-,N,N,N,N,N,N,N,-99.827615,40.138332
1019482,2620 23 ST,Columbus,Platte,Nebraska,68601,N,Y,Y,Y,Y,Y,Y,N,-97.361665,41.440025
1019368,9705 W. 142nd Steet,Orland Park,Cook,Illinois,60462,Y,Y,Y,Y,Y,Y,Y,Y,-87.856517,41.631943
1000242,300 Conti,Mobile,Mobile,Alabama,36602,N,Y,N,Y,Y,Y,Y,Y,-88.045015,30.69035
1019022,W South Park Ave & Georgia St,Oshkosh,Winnebago,Wisconsin,54901,Y,Y,Y,Y,N,Y,Y,Y,-88.557509,44.0053166
1000616,200 Parkway Street West,Mobile,Mobile,Alabama,36606,N,Y,N,N,N,N,N,Y,-88.160082,30.691614
1019185,1301 Biscayne Blvd,Miami,Miami-Dade,Florida,33132,Y,Y,Y,N,N,Y,Y,Y,-80.189222,25.787119
1019866,3510 W 15th Ave,Gary,Lake,Indiana,46404,-,N,N,N,Y,Y,N,N,-87.344853,41.595883
1019806,Ford Center Plaza 6th and Main St,Evansville,Vanderburgh,Indiana,47715,-,Y,Y,Y,Y,Y,Y,Y,-87.568349,37.972884
1011972,Military Avenue and West Mason Street,Green Bay,Brown,Wisconsin,54303,N,Y,N,Y,Y,Y,Y,N,-88.06464,44.52221
1019876,,Broken Bow,Custer,Nebraska,,-,N,N,N,N,N,N,N,-99.63987,41.40541
1020097,Hwy 231 South,Beaver Dam,Ohio,Kentucky,42320,N,Y,N,Y,Y,Y,Y,N,-86.877647,37.407199
1019189,Market Square,Knoxville,Knox,Tennessee,37901,Y,Y,Y,Y,Y,Y,Y,Y,-83.919249,35.964694
1019924,317 North Main Street,Marksville,Avoyelles,Louisiana,71351,Y,Y,N,Y,Y,Y,Y,N,-92.066227,31.124408
1019843,3048 Main Street,Marlette,Sanilac,Michigan,48453,Y,Y,Y,Y,Y,Y,Y,Y,-83.080532,43.327346
1020190,1933 Mayfield Highway,Benton,Marshall,Kentucky,42025,-,Y,N,Y,Y,Y,Y,N,-88.378744,36.842165
1002929,140 Main St  (Route 3A),Marshfield,Plymouth,Massachusetts,2050,Y,Y,Y,Y,Y,Y,Y,Y,-70.717317,42.098148
1019659,Main St. and Smithwick St.,Williamston,Martin,North Carolina,27892,-,Y,N,Y,N,N,N,N,-77.055113,35.855219
1018976,1 Schiber Ct.,Maryville,Madison,Illinois,62062,-,Y,N,N,Y,Y,Y,N,-89.9500804,38.7331622
1019902,2114 Old Main Street,Maysville,Mason,Kentucky,41056,Y,Y,N,Y,Y,Y,Y,N,-83.80842,38.615073
1001281,100 block East Maple at Jefferson (in street),Mason,Ingham,Michigan,48854,N,Y,N,Y,Y,N,Y,N,-84.4426,42.580168
1005642,882 Cummins Hwy,Mattapan,Suffolk,Massachusetts,2126,Y,Y,N,N,Y,Y,Y,N,-71.076514,42.3313532
1018759,4100 Urbandale Avenue,Des Moines,Polk,Iowa,50310,-,Y,N,Y,Y,Y,Y,N,-93.6731823,41.620058
1019300,101 East Butler Road,Mauldin,Greenville,South Carolina,29662,Y,Y,Y,Y,N,Y,Y,Y,-82.3063956,34.7796468
1019968,220 East State Street,mauston,Juneau,Wisconsin,53948,-,Y,N,Y,N,Y,Y,N,-90.082332,43.801304
1020145,"299 Wilburn Ross Hwy,",Stearns,McCreary,Kentucky,42647,-,Y,N,Y,Y,Y,Y,N,-84.474473,36.694321
1019487,2501 Sherwood Hall Lane,Alexandria,Fairfax,Virginia,22306,N,Y,Y,N,Y,Y,Y,Y,-77.082026,38.818343
1020134,2165 Central Ave,McKinleyville,Humboldt,California,95519,Y,N,N,N,Y,Y,Y,N,-124.100568,40.944643
1019490,1659 Chain Bridge Rd,McLean,Fairfax,Virginia,22101,N,Y,Y,N,N,Y,Y,N,-77.192913,38.943545
1020081,1041 Old Ekron Rd,Brandenburg,Meade,Kentucky,40108,N,Y,N,Y,Y,Y,Y,N,-86.166136,37.988637
1019634,2501 Mystic Valley Parkway,Medford,Middlesex,Massachusetts,2155,N,Y,N,Y,Y,Y,Y,Y,-71.115435,42.41853
1018908,1000 Youth Center Drive,Kyle,Shannon,South Dakota,57752,N,Y,N,N,N,N,N,N,-102.176734,43.424109
1019858,"2 public square, suite 305",medina,Medina,Ohio,44256,Y,Y,Y,N,Y,Y,Y,Y,-81.863333,41.138385
1019853,190 Meetinghouse Road,Bedford,Hillsborough,New Hampshire,3110,Y,Y,Y,N,Y,Y,Y,N,-71.48248,42.950376
1019759,PO Box 702,Pomeroy,Meigs,Ohio,45769,Y,Y,N,Y,Y,Y,Y,Y,-82.034026,39.026596
1021209,540 S. Front Street,Memphis,Shelby,Tennessee,38103,Y,Y,N,Y,Y,Y,Y,Y,-90.06008,35.132038
1020199,62 Back Street,Frenchburg,Menifee,Kentucky,40322,N,Y,N,Y,Y,Y,N,N,-83.62783,37.951788
1002905,Chestnut & Menlo Avenues,Menlo Park,San Mateo,California,94025,Y,Y,Y,N,Y,Y,Y,N,-122.1841,37.450822
1019816,800 1st Street & 8th Avenue,Menominee,Menominee,Michigan,49858,Y,Y,N,Y,N,Y,Y,N,-87.603938,45.105926
1018093,N. Centre St. & Chestnut Ave.,Merchantville,Camden,New Jersey,8109,N,N,N,Y,Y,Y,Y,N,-75.0490757,39.9524734
1019464,33 E. Broadway Ave.,Meridian,Ada,Idaho,83642,-,Y,N,Y,Y,Y,Y,Y,-116.392301,43.609999
1019137,North Broadway and East 5th Street,Peru,Miami,Indiana,46970,-,Y,N,Y,Y,Y,Y,N,-86.069521,40.755229
1000021,700 North Lamar Blvd.,Oxford,Lafayette,Mississippi,38655,N,Y,N,N,Y,Y,Y,Y,-89.516816,34.373647
1011076,530 Exchange St,Middlebury,Addison,Vermont,5753,N,Y,Y,Y,Y,Y,Y,N,-73.169908,44.026734
1019400,3055 River Road,Bedminster,Somerset,New Jersey,7921,Y,Y,Y,N,Y,Y,Y,Y,-74.646889,40.662856
1020087,,Middletown,Jefferson,Kentucky,40243,Y,N,N,N,N,Y,Y,N,-85.543717,38.242222
1019683,12 S Church St,Middletown,Frederick,Maryland,21769,Y,Y,Y,Y,Y,Y,Y,N,-77.54531,39.441867
1019777,End of Ashman Street at the base of the Tridge,Midland,Midland,Michigan,48640,Y,Y,Y,N,Y,Y,Y,Y,-84.247412,43.612027
1012786,"6655 Delmar Blvd, Back Lot",University City,St. Louis,Missouri,63130,Y,Y,Y,Y,Y,Y,Y,Y,-90.307251,38.656378
1005633,500 Main St  Riverside Park,Miles City,Custer,Montana,,-,Y,N,Y,Y,Y,Y,N,-105.840096,46.408215
1006681,108 West Main Street (Wasson Field),Milford,New Haven,Connecticut,6460,N,Y,N,Y,Y,Y,Y,Y,-73.062096,41.226598
1009658,94-1150 Lanikuhana Ave.,Mililani,Honolulu,Hawaii,96789,N,Y,N,N,Y,N,N,N,-158.018299,21.440682
1020034,16501 Redland Road,Rockville,Montgomery,Maryland,20855,-,Y,Y,N,Y,Y,Y,Y,-77.150329,39.126727
1020035,16501 Redland Road,Rockville,Montgomery,Maryland,20855,-,Y,Y,Y,Y,Y,Y,Y,-77.150144,39.126885
1020038,9601 Medical Center Drive,Rockville,Montgomery,Maryland,20850,Y,Y,Y,Y,Y,Y,Y,Y,-77.199488,39.104422
1010607,2 South Bond Street,Bel Air,Harford,Maryland,21014,Y,Y,Y,Y,Y,Y,Y,Y,-76.351011,39.535284
1012523,704 South 2nd Street,Minneapolis,Hennepin,Minnesota,55401,Y,Y,Y,Y,Y,Y,Y,Y,-93.256278,44.978211
1010485,Cotton Avenue,Millen,Jenkins,Georgia,30442,Y,Y,N,N,N,N,Y,N,-81.936127,32.802685
1018486,6 Village Center Boulevard,Milton,Sussex,Delaware,19968,N,Y,Y,N,Y,Y,Y,N,-75.310511,38.769132
1019239,115 E. Front St.,Mineola,Wood,Texas,75773,N,Y,N,Y,Y,Y,Y,Y,-95.489641,32.662165
1019716,1200 North Minnetrista Pkwy,Muncie,Delaware,Indiana,47303,Y,Y,Y,Y,Y,Y,Y,Y,-85.393346,40.198978
1006069,Historic Downtown Minturn,Minturn,Eagle,Colorado,81645,-,Y,Y,Y,N,Y,Y,Y,-106.4315,39.58839
1020195,84 Bartlett Street,San Francisco,San Francisco,California,94111,Y,Y,Y,Y,Y,Y,Y,N,-122.419881,37.755373
1016862,5635 Johnson Drive,Mission,Johnson,Kansas,66202,-,Y,N,Y,Y,N,Y,N,-94.6512054,39.0219446
1018939,Circle Square (by the XXXXs),Missoula,Missoula,Montana,,Y,Y,Y,N,Y,Y,Y,Y,-113.992113,46.87474
1010037,1670 E 120th St,Los Angeles,Los Angeles,California,90059,Y,N,N,N,N,Y,Y,N,-118.243583,33.923533
1008140,1207 10th Street,Bellingham,Whatcom,Washington,98226,Y,Y,N,Y,Y,Y,Y,N,-122.469657,48.75262
1001104,1515 SW 10th Avenue,Topeka,Shawnee,Kansas,66604,N,Y,N,N,Y,Y,Y,N,-95.69624,39.049968
1012314,10th St and 16th Ave,Monroe,Green,Wisconsin,53566,Y,Y,N,Y,Y,Y,Y,Y,-89.639374,42.60185
1019844,7700 Block of SE Stark Street,Portland,Multnomah,Oregon,97215,Y,Y,Y,N,Y,Y,Y,Y,-122.584311,45.519002
1020166,"6131 La Salle Ave, Oakland, CA 94611",Oakland,Alameda,California,94611,Y,Y,Y,Y,Y,Y,Y,Y,-122.209928,37.826522
1004297,Middle Street and Island Street,MONTEVALLO,Shelby,Alabama,35115,-,Y,N,Y,Y,Y,Y,N,-86.862926,33.09948
1020085,153 South Maysville Street,Mt. Sterling,Montgomery,Kentucky,40353,Y,Y,N,Y,Y,Y,Y,N,-83.941302,38.054333
1019432,119 W Washington Street,Monticello,Jasper,Georgia,31064,-,Y,N,Y,Y,Y,Y,N,-83.684074,33.304463
1011901,300 West Main Street,Montour Falls,Schuyler,New York,14865,Y,Y,Y,N,Y,Y,Y,Y,-76.847748,42.346431
1019507,S. Uncompahgre and S. 1st Street,Montrose,Montrose,Colorado,81401,-,Y,Y,Y,Y,Y,Y,Y,-107.874269,38.479423
1019480,1400 SE Bybee Blvd,Portland,Multnomah,Oregon,97202,Y,Y,N,N,Y,Y,Y,Y,-122.651387,45.47394
1019473,Broadway between Heron & State St,Aberdeen,Grays Harbor,Washington,98520,-,Y,N,Y,Y,Y,Y,Y,-123.816413,46.972973
1002064,5429 State Route 19N,Belmont,Allegany,New York,14813,N,Y,N,Y,N,Y,Y,N,-78.0565113,42.2489416
1018573,Intersection Main and Kennebec,McConnelsville,Morgan,Ohio,43756,N,Y,N,Y,N,N,N,N,-81.853276,39.648855
1018314,Main St. & Indiana St.,Martinsville,Morgan,Indiana,46151,N,Y,Y,Y,Y,Y,N,N,-86.428695,39.423392
1018317,Monroe & Main St.,Mooresville,Morgan,Indiana,46158,N,Y,Y,Y,Y,Y,N,N,-86.3796098,39.612806
1012560,111 North Green Street,Morganton,Burke,North Carolina,28655,-,Y,N,Y,Y,Y,Y,Y,-81.688488,35.7466269
1012166,26 Mills Street,Morristown,Morris,New Jersey,7960,Y,Y,Y,Y,N,Y,Y,Y,-74.489945,40.801309
1020162,Main St. and Morro Bay Blvd.,Morro Bay,San Luis Obispo,California,93442,Y,Y,Y,Y,Y,Y,Y,Y,-120.849956,35.365976
1018926,"400 South Main, Moscow, Idaho 83843",Moscow,Latah,Idaho,83843,Y,Y,Y,Y,Y,Y,Y,N,-117.0014061,46.7317086
1005559,1101 Main Street,City,Marathon,Wisconsin,54455,-,Y,Y,Y,Y,Y,Y,Y,-89.708626,44.797421
1018991,250 Metacom Ave,Bristol,Bristol,Rhode Island,2809,Y,Y,Y,N,Y,Y,Y,Y,-71.256882,41.669478
1018995,3200 Mt. Pleasant St NW,Washington,District of Columbia,District of Columbia,20010,-,Y,Y,N,Y,Y,Y,Y,-77.038675,38.931518
1011363,Memorial Park,Belton,Cass,Missouri,64012,-,Y,N,Y,Y,Y,Y,N,-94.525252,38.808556
1009673,Broadway and Main St.,Mt. Pleasant,Isabella,Michigan,48858,N,Y,N,Y,Y,Y,Y,Y,-84.776193,43.604509
1021230,320 N. Bardstown Rd,MT Washington,Bullitt,Kentucky,40047,-,Y,Y,Y,Y,Y,Y,N,-85.543754,38.049484
1010316,1155 College Street,Macon,Bibb,Georgia,31201,Y,Y,Y,Y,Y,Y,Y,Y,-83.646551,32.833797
1012725,1301 Muldoon Road,Anchorage,Anchorage,Alaska,99504,-,Y,N,Y,Y,Y,Y,Y,-149.731189,61.208991
1018924,"Outside at Books & Brews, 2100 West White River Boulevard",Muncie,Delaware,Indiana,47303,Y,Y,N,Y,Y,Y,Y,Y,-85.410675,40.1883942
1018931,Veteran's Drive,Munising,Alger,Michigan,49862,N,Y,N,Y,Y,Y,Y,N,-86.653401,46.412557
1019857,3235 Sardis Road,Murrysville,Westmoreland,Pennsylvania,15668,Y,Y,N,Y,Y,Y,Y,N,-79.696788,40.430121
1018903,610 S Valley Way,Palmer,Matanuska-Susitna,Alaska,99645,Y,Y,Y,Y,Y,Y,Y,Y,-149.113628,61.59993
1019682,301 Main Street,Myersville,Frederick,Maryland,21773,N,Y,Y,Y,Y,Y,Y,N,-77.56524,39.505519
1011535,1100 West Street,Napa,Napa,California,94559,Y,Y,Y,Y,Y,Y,Y,Y,-122.285131,38.301189
1001533,First Street between B & D Streets,Benicia,Solano,California,94510,Y,Y,Y,Y,Y,Y,Y,Y,-122.161188,38.046215
1020055,7 Erie Avenue,Narrowsburg,Sullivan,New York,12764,-,Y,Y,N,Y,Y,Y,N,-75.05512,41.596136
1003081,1006 Peachtree St.,Rocky Mount,Nash,North Carolina,27804,N,Y,Y,Y,Y,Y,Y,Y,-77.8023,35.9551
1020017,Common Street,Natick,Middlesex,Massachusetts,1760,-,Y,Y,Y,N,Y,Y,Y,-71.341206,42.290237
1018702,Garrity Way,Needham,Norfolk,Massachusetts,2492,N,Y,N,Y,Y,Y,Y,Y,-71.236446,42.280988
1019737,Spring & Jefferson St,Downtown Neosho,Newton,Missouri,64850,N,Y,Y,Y,Y,Y,Y,Y,-94.370028,36.870009
1019908,675 Plainfield St,Providence,Providence,Rhode Island,2909,-,N,N,N,N,N,N,N,-71.461775,41.8118
1005527,200 Market Street (outdoor); 150 West Main Street (indoor),New Albany,Franklin,Ohio,43054,Y,Y,Y,Y,Y,Y,Y,Y,-82.815383,40.081412
1019725,On Washington Street between Main & Front Streets in Historic Downtown,New Baltimore,Macomb,Michigan,48047,-,Y,N,Y,Y,Y,Y,Y,-82.737607,42.68546
1012739,1997 Acushnet Ave.,New Bedford,Bristol,Massachusetts,2745,N,Y,N,N,Y,Y,Y,N,-70.923644,41.675431
1012738,1119 Pleasant St.,New Bedford,Bristol,Massachusetts,2740,N,N,N,N,N,N,N,N,-70.928587,41.644314
1018644,Elm and Harrison,Bennet,Lancaster,Nebraska,68317,Y,Y,N,Y,Y,Y,N,N,-96.503262,40.680612
1019348,466 Brock Ave,New Bedford,Bristol,Massachusetts,2740,N,Y,Y,N,Y,Y,Y,N,-70.937913,41.661303
1012737,101 West Rodney French Blvd,New Bedford,Bristol,Massachusetts,2744,N,Y,Y,N,Y,Y,Y,N,-70.937913,41.661303
1019227,1101 Hwy 69,New Glarus,Green,Wisconsin,53574,-,Y,N,Y,Y,Y,Y,Y,-89.632242,42.809612
1019879,,Grand Island,Hall,Nebraska,,-,N,N,N,N,N,N,N,-98.357951,40.922193
1020043,4775 New Harvest Lane,Knoxville,Knox,Tennessee,37918,-,Y,N,N,Y,Y,Y,N,-83.883624,36.039471
1005939,Church St.,New Haven,New Haven,Connecticut,6510,Y,Y,Y,N,Y,N,N,Y,-72.924912,41.307645
1005991,9200 New Ashcake Road,Mechanicsville,Hanover,Virginia,23116,Y,Y,Y,Y,Y,Y,Y,N,-77.410676,37.699238
1012044,5 Granite St,Newmarket,Rockingham,New Hampshire,3875,Y,Y,N,Y,Y,Y,N,Y,-70.9380776,43.0788567
1019240,1 McFadden Place,Newport Beach,Orange,California,92663,Y,Y,N,Y,Y,Y,Y,Y,-117.928792,33.607886
1019294,717 N. Main Street,Nicholasville,Jessamine,Kentucky,40356,N,Y,N,Y,Y,Y,Y,Y,-84.56655,37.893076
1005183,129 Fairfax Street at Washington Street/522,Berkeley Springs,Morgan,West Virginia,25411,Y,Y,Y,Y,Y,Y,Y,Y,-78.227534,39.624722
1019883,,Stanton,Madison,Nebraska,,-,N,N,N,N,N,N,N,-97.212686,41.948007
1010614,19 Maple Avenue,Norfolk,Litchfield,Connecticut,6058,Y,Y,Y,Y,Y,Y,Y,Y,-73.197873,41.990739
1020048,18 Gov Center Ln,Verona,Augusta,Virginia,24482,N,Y,N,N,Y,Y,N,Y,-79.015369,38.192673
1020066,Shattuck and Vine,Berkeley,Alameda,California,94702,Y,Y,N,N,Y,Y,Y,N,-122.269078,37.880337
1019867,1447 North Main Street,North Canton,Stark,Ohio,44720,Y,Y,N,Y,Y,Y,Y,Y,-81.408671,40.892808
1019407,"River Front Park, Rail Road Place",North Creek,Warren,New York,12843,Y,Y,Y,Y,N,Y,Y,Y,-73.988272,43.702638
1018875,417 Blust Ave.,Mansfield,Richland,Ohio,44903,Y,Y,Y,Y,Y,N,Y,N,-82.524714,40.770362
1018184,1st NE and Delaware,Mason City,Cerro Gordo,Iowa,50401,Y,Y,N,Y,Y,Y,Y,N,-93.199249,43.15259
1018550,59 Spruce Street,Columbus,Franklin,Ohio,43215,-,Y,N,N,Y,Y,Y,N,-83.0043304,39.9718961
1009884,100 Spring St,Chambersburg,Franklin,Pennsylvania,17201,N,Y,Y,Y,Y,Y,Y,N,-77.662435,39.938459
1019005,12290 Sylvania-Metamora Rd,Berkey,Lucas,Ohio,43504,-,Y,Y,Y,N,N,Y,N,-83.839418,41.715538
1018455,37600 New Market Turner Road,Charlotte Hall,St. Mary's,Maryland,20622,-,Y,N,Y,Y,Y,Y,N,-76.77563,38.473539
1019640,1401 Laubach Avenue Municipal Park,Northampton,Northampton,Pennsylvania,18067,N,Y,N,Y,Y,N,Y,N,-75.489035,40.684278
1006780,University Avenue NE and 7th Avenue NE,Minneapolis,Hennepin,Minnesota,55413,Y,Y,Y,Y,Y,Y,Y,Y,-93.262339,44.995288
1002764,105 S. Bay Street,Northport,Leelanau,Michigan,49670,Y,Y,Y,Y,Y,Y,Y,N,-85.614175,45.129668
1018728,9301 tampa ave,northridge,Los Angeles,California,91324,Y,Y,Y,Y,Y,Y,Y,N,-118.5562362,34.2385732
1019231,2900 N. Sherman,Madison,Dane,Wisconsin,53704,-,Y,Y,N,Y,Y,Y,Y,-89.363109,43.128582
1019815,4101 Hamilton Ave,Cincinnati,Hamilton,Ohio,45223,N,Y,N,N,Y,Y,Y,Y,-84.540295,39.160611
1019008,2-75 North Broad Street,Norwich,Chenango,New York,13815,N,Y,Y,Y,Y,Y,Y,Y,-75.523491,42.53149
1019345,201 3rd Avenue,Knoxville,Knox,Tennessee,37917,N,Y,Y,Y,Y,Y,Y,Y,-83.922656,35.976857
1020054,543 Beulah Road,Vienna,Fairfax,Virginia,22180,Y,Y,Y,N,Y,Y,Y,Y,-77.264712,38.915538
1019933,Pitts Street,Berlin,Worcester,Maryland,21811,Y,Y,Y,Y,Y,N,Y,Y,-75.219195,38.325291
1019127,537 Franklin Avenue,Nutley,Essex,New Jersey,7110,-,Y,Y,N,Y,Y,Y,Y,-74.154584,40.824341
1019828,Drexel Town Square,Oak Creek,Milwaukee,Wisconsin,53154,Y,Y,Y,Y,Y,Y,Y,Y,-87.915013,42.898212
1019488,3200 Jermantown Road,Oakton,Fairfax,Virginia,22124,N,Y,Y,N,Y,Y,Y,N,-77.302226,38.889444
1018829,640 Washington Street,Brighton,Suffolk,Massachusetts,2135,-,Y,Y,Y,N,Y,Y,Y,-71.1691939,42.3506821
1019223,1300 Capitol Heights Blvd,Capitol Heights,Prince George's,Maryland,20743,N,Y,N,Y,N,Y,N,N,-76.9185759,38.8708398
1019971,"630 East Lake Drive, SUITE E",Decatur,DeKalb,Georgia,30030,-,Y,Y,Y,Y,Y,Y,Y,-84.304799,33.760143
1019353,corner of SE 3rd Street and SE 3rd Avenue,Ocala,Marion,Florida,34471,-,Y,Y,Y,Y,Y,Y,Y,-82.320981,29.19393
1001839,4900 Newport Avenue,San Diego,San Diego,California,92107,Y,Y,Y,Y,Y,Y,Y,N,-117.25016,32.74619
1006250,6th Street & Asbury Avenue,Ocean City,Cape May,New Jersey,8226,Y,Y,Y,Y,Y,Y,Y,Y,-74.572082,39.282143
1019200,239 Ocean Parkway,Ocean Pines,Worcester,Maryland,21811,Y,Y,Y,Y,Y,Y,Y,Y,-75.160072,38.3992566
1019707,11 Sullivan Street,Berwick,York,Maine,3901,Y,Y,Y,Y,Y,Y,Y,Y,-70.86243,43.269956
1001271,"Mailcode L338, 3181 SW Sam Jackson Park Rd",Portland,Multnomah,Oregon,97239,N,Y,N,Y,Y,Y,Y,Y,-122.687706,45.499865
1020130,North Figueroa & Ave. 58,Los Angeles,Los Angeles,California,90042,Y,Y,Y,Y,N,Y,Y,Y,-118.1919,34.110124
1020131,N Figueroa & Ave. 58,Los Angeles,Los Angeles,California,90042,Y,Y,Y,Y,N,Y,Y,Y,-118.191934,34.110171
1020146,492 9th street,Oakland,Alameda,California,94609,Y,Y,Y,Y,Y,Y,Y,N,-122.274596,37.801382
1009659,2237 South King Street,Honolulu,Honolulu,Hawaii,,N,N,N,N,Y,N,N,N,-157.827323,21.292322
1010865,300 Courthouse Square,Beaufort,Carteret,North Carolina,28516,-,Y,Y,Y,Y,Y,Y,Y,-76.663201,34.719572
1019646,700 Capitol Way N,Olympia,Thurston,Washington,98501,Y,Y,Y,Y,Y,Y,Y,Y,-122.902519,47.050425
1018655,67th & Center Street,Omaha,Douglas,Nebraska,68106,Y,Y,Y,Y,Y,Y,Y,Y,-96.0138738,41.2377371
1019343,11th & Jackson Street,Omaha,Douglas,Nebraska,68102,Y,Y,Y,Y,Y,Y,Y,Y,-96.041927,41.264675
1001034,N7332 Water Circle Place,Oneida,Outagamie,Wisconsin,54155,Y,Y,N,Y,Y,Y,Y,N,-88.202341,44.503625
1019168,1st Avenue N and 19th Street,Bessemer,Jefferson,Alabama,35020,-,N,N,N,Y,Y,Y,N,-86.95137,33.40113
1019317,4024 RIchlands Hwy,Jacksonville,Onslow,North Carolina,28540,N,Y,Y,Y,Y,Y,Y,Y,-77.493131,34.782436
1018807,525 Orange Center Road,Orange,New Haven,Connecticut,6477,N,Y,N,Y,Y,Y,Y,Y,-73.0210587,41.2735586
1020114,303 W. Palm Ave.,Orange,Orange,California,92866,Y,Y,Y,N,Y,Y,Y,Y,-117.855866,33.791554
1018920,2042 Park Ave,Orange Park,Clay,Florida,32073,-,Y,Y,Y,N,Y,Y,Y,-81.701986,30.165438
1008468,"2051, Kaen Rd, off Beavercreek Rd.",Oregon City,Clackamas,Oregon,97045,N,Y,Y,Y,Y,Y,Y,Y,-122.597822,45.333082
1019202,16th St. and Canal St.,Merced,Merced,California,95340,-,Y,N,Y,N,Y,Y,N,-120.484427,37.30093
1020198,28 Orinda Way,Orinda,Contra Costa,California,94563,Y,Y,N,N,Y,Y,Y,N,-122.174543,37.882764
1008360,22 S. Beach St. (City Hall Plaza),Ormond Beach,Volusia,Florida,32174,N,Y,Y,Y,N,Y,Y,N,-81.055484,29.284852
1019416,101 Michigan Ave.,Orofino,Clearwater,Idaho,83544,N,Y,Y,Y,Y,Y,Y,N,-116.255806,46.477929
1019019,400-500 Blocks N Main St,Oshkosh,Winnebago,Wisconsin,54901,Y,Y,Y,Y,Y,Y,Y,Y,-88.537573,44.021478
1019169,995 9th Ave SW,Bessemer,Jefferson,Alabama,35022,N,N,N,N,N,N,Y,N,-86.990644,33.373082
1019023,400 & 500 Blocks N Main St & 100 Block Church Ave,Oshkosh,Winnebago,Wisconsin,54901,Y,Y,Y,Y,Y,Y,Y,Y,-88.537461,44.022875
1019025,108 W New York Ave,Oshkosh,Winnebago,Wisconsin,54901,Y,Y,Y,Y,N,Y,Y,Y,-88.540004,44.03325
1019387,15 Main Street,Oswego,Kendall,Illinois,60543,Y,Y,Y,Y,Y,Y,Y,N,-88.351638,41.684726
1021215,Maple & Market St,Overbrook,Osage,Kansas,66524,Y,Y,N,N,N,Y,Y,Y,-95.556782,38.777419
1020023,Main Street,Ovid,Seneca,New York,14521,N,Y,N,Y,Y,Y,Y,N,-76.822157,42.676729
1004212,Corner of Lanier and McClanahan Streets,Oxford,Granville,North Carolina,27565,N,Y,N,Y,Y,Y,Y,N,-78.5866163,36.3148277
1012777,500 South C Street,Oxnard,Ventura,California,93030,Y,Y,N,N,Y,Y,Y,N,-119.18027,34.19798
1008946,6200 Camp St,Pacific City,Tillamook,Oregon,97135,Y,Y,N,Y,Y,Y,Y,Y,-123.960749,45.205076
1012526,306 2nd Street,Paducah,McCracken,Kentucky,42001,Y,Y,N,Y,Y,Y,Y,Y,-88.596972,37.090713
1021200,Peck and Union st.,Watsonville,Santa Cruz,California,95076,Y,Y,N,Y,Y,Y,N,N,-121.755366,36.910275
1019695,22049 Main Street,Abita Springs,St. Tammany,Louisiana,70420,-,Y,Y,Y,Y,Y,Y,Y,-90.038907,30.479064
1019967,213 N Priaire St,Bethalto,Madison,Illinois,62010,-,Y,N,N,N,N,Y,N,-90.053468,38.902967
1019723,675 Oak Tree Road,Palisades,Rockland,New York,10964,-,Y,Y,Y,N,Y,Y,Y,-73.917284,41.011605
1019102,1400 W Villaret Blvd,San Antonio,Bexar,Texas,78224,-,N,N,N,N,N,N,N,-98.543052,29.321634
1005248,2007 Palolo Avenue,Honolulu,Honolulu,Hawaii,96813,N,N,N,N,Y,N,N,N,-157.797316,21.29891
1018687,6601 W 127th Street,Palos Heights,Cook,Illinois,60463,-,Y,N,Y,N,N,Y,Y,-87.7831286,41.6604652
1011995,27118 Silver Spur Road,Rolling Hills Estates,Los Angeles,California,90274,Y,Y,Y,Y,Y,Y,Y,Y,-118.373725,33.779336
1019755,3400 Georgia Ave NW,Washington,District of Columbia,District of Columbia,20009,-,Y,Y,N,N,Y,Y,Y,-77.023928,38.932172
1019761,3400 Georgia Ave NW,Washington,District of Columbia,District of Columbia,20010,Y,Y,Y,N,N,Y,Y,Y,-77.02396,38.932155
1006927,"English Landing Park, off Hwy 9 in Parkville MO",Parkville,Platte,Missouri,,N,Y,N,Y,Y,Y,Y,Y,-94.683086,39.187828
1019939,3100 N Walker Ave,Oklahoma City,Oklahoma,Oklahoma,73103,Y,Y,Y,Y,Y,Y,Y,Y,-97.52482,35.501891
1019674,Charles Colman Blvd & West Main Street,Pawling,Dutchess,New York,12564,Y,Y,Y,Y,Y,Y,Y,Y,-73.600845,41.564215
1010406,7600 Arlington Road,Bethesda,Montgomery,Maryland,20814,Y,Y,Y,Y,Y,Y,Y,Y,-77.09989,38.986761
1019910,374 Main ST,Pawtucket,Providence,Rhode Island,2860,-,N,Y,N,N,N,Y,N,-71.387274,41.877734
1018944,1005 Main Street,Pawtucket,Providence,Rhode Island,2860,Y,Y,Y,N,N,Y,Y,Y,-71.39999,41.862831
1019916,60 Rhodes Pl,Cranston,Providence,Rhode Island,2905,-,Y,Y,N,N,N,N,Y,-71.391872,41.767977
1019068,Kiwanis Park,Payette,Payette,Idaho,83661,-,Y,N,Y,N,N,N,N,-116.935907,44.069117
1019865,816 S. Beeline Hwy,Payson,Gila,Arizona,85541,N,Y,Y,Y,Y,Y,Y,Y,-111.327662,34.229962
1020175,14888 Peaceful Valley Road,Sonora,Tuolumne,California,95370,N,Y,Y,Y,Y,Y,Y,Y,-120.338076,37.974304
1019685,234 S. Arcola St.,Angleton,Brazoria,Texas,77515,-,Y,N,Y,Y,Y,N,Y,-95.428973,29.169195
1019454,23526 TX-71,Spicewood,Blanco,Texas,78669,N,Y,N,Y,Y,Y,Y,N,-98.084871,30.387133
1020072,68 Fairgrounds Road,Falmouth,Pendleton,Kentucky,41040,N,Y,N,Y,Y,Y,Y,Y,-84.332926,38.671615
1019854,101 Route 31 N,Pennington,Mercer,New Jersey,8534,Y,Y,N,Y,Y,Y,Y,Y,-74.795475,40.34913
1018161,2117 State St.,Bettendorf,Scott,Iowa,52722,-,Y,N,N,Y,Y,Y,N,-90.501985,41.525159
1019822,2115 Ferguson Rd.,Perry,Jefferson,Kansas,66073,-,Y,N,N,Y,Y,Y,N,-95.392324,39.08143
1018626,2nd Street between D St and B St,Petaluma,Sonoma,California,94952,Y,Y,N,N,Y,N,N,Y,-122.637103,38.233365
1018627,Petaluma Blvd S and D St,Petaluma,Sonoma,California,94952,Y,Y,Y,Y,Y,Y,Y,Y,-122.636797,38.231796
1012060,,Petersham,Worcester,Massachusetts,1366,-,Y,N,Y,Y,Y,Y,N,-72.186669,42.488744
1010839,4100 9th St. NW,Washington,District of Columbia,District of Columbia,20010,N,Y,Y,Y,Y,Y,Y,Y,-77.0250472,38.9411512
1019128,4725 Yadkinville Rd,Pfafftown,Forsyth,North Carolina,27040,Y,Y,N,Y,Y,Y,Y,Y,-80.256362,36.1304034
1001260,901 Old Austin Hutto Road,Pflugerville,Travis,Texas,78660,Y,Y,N,Y,Y,Y,Y,Y,-97.606001,30.442585
1020126,4128 Warbler Road,Phelan,San Bernardino,California,92371,N,Y,N,Y,Y,Y,Y,Y,-117.524831,34.439822
1002060,116 Main St. - opposite Local 111 restaurant,Village of Philmont,Columbia,New York,12565,Y,Y,Y,Y,Y,Y,Y,N,-73.649443,42.249303
1020177,1007 E. Jefferson St,Louisville,Jefferson,Kentucky,40206,Y,Y,Y,N,Y,Y,Y,N,-85.733398,38.251583
1020196,9300 Civic Center Dr,Beverly Hills,Los Angeles,California,90210,Y,Y,Y,N,Y,Y,Y,N,-118.398746,34.073685
1007245,2914 Sandy Ridge Road,Colfax,Guilford,North Carolina,27235,Y,Y,Y,Y,Y,Y,Y,Y,-79.992657,36.087691
1010408,910 Rose Avenue,North Potomac,Montgomery,Maryland,20852,Y,Y,Y,N,Y,Y,Y,Y,-77.117929,39.049352
1020165,130 Adams Lane,Pikeville,Pike,Kentucky,41501,-,Y,Y,Y,Y,Y,Y,N,-82.544326,37.485971
1019740,Main Street N and 1st Avenue N,Pine City,Pine,Minnesota,55063,-,N,N,Y,N,Y,Y,N,-92.97046,45.832115
1016803,2094 Pitkin Avenue,Brooklyn,Kings,New York,11207,N,N,N,N,Y,N,N,N,-73.895438,40.671863
1018921,SW Corner of Main and Choctaw,McAlester,Pittsburg,Oklahoma,74501,-,Y,Y,N,N,Y,Y,N,-95.769944,34.926816
1020005,6201 W. Michigan Ave,Ann Arbor,Washtenaw,Michigan,48108,N,Y,N,N,Y,Y,Y,N,-83.700262,42.197733
1019733,1714 Schneider Street NE,"Canton, OH",Stark,Ohio,44721,Y,Y,Y,Y,Y,Y,Y,Y,-81.350669,40.865422
1019328,220 West Washington,Hale,Iosco,Michigan,48739,N,Y,N,Y,Y,Y,Y,N,-83.798423,44.382435
1019885,,Plainview,Pierce,Nebraska,,-,N,N,N,N,N,N,N,-97.787145,42.353346
1019765,E Main St and S Dawson Ave,Bexley,Franklin,Ohio,43209,Y,Y,N,N,Y,Y,Y,Y,-82.935745,39.957135
1012268,798 E. Bridge St.,Plainwell,Allegan,Michigan,49080,Y,Y,N,Y,Y,Y,Y,N,-85.6305327,42.442652
1019344,211 N. Main St.,Plainwell,Allegan,Michigan,49080,-,Y,Y,Y,N,Y,Y,N,-85.650721,42.452003
1019478,2003 Main Street,Collbran,Mesa,Colorado,81624,N,Y,N,Y,Y,Y,Y,Y,-107.962277,39.238943
1019616,100 Park Place,Platteville,Grant,Wisconsin,53818,N,N,N,N,N,N,N,N,-90.47957,42.735314
1019615,205 Market Street,Platteville,Grant,Wisconsin,53818,N,Y,N,Y,N,Y,Y,Y,-90.479874,42.736018
1019884,,Plattsmouth,Cass,Nebraska,,-,N,N,N,N,N,N,N,-95.894144,41.005653
1020019,12775 W. Millennium,Playa Vista,Los Angeles,California,90094,Y,Y,Y,Y,Y,Y,Y,Y,-118.416626,33.975922
1008213,2nd Street,St. Marys,Pleasants,West Virginia,26170,N,Y,N,Y,N,Y,Y,N,-81.205928,39.390828
1019321,40 Romer Avenue,Pleasantville,Westchester,New York,10570,Y,Y,Y,Y,Y,Y,Y,Y,-73.783867,41.134211
1019322,Memorial Plaza (next to the train station),Pleasantville,Westchester,New York,10570,Y,Y,Y,Y,Y,Y,Y,Y,-73.791678,41.13476
1005949,42900 Big Bear Blvd,City of Big Bear Lake,San Bernardino,California,92315,N,Y,Y,Y,Y,Y,Y,Y,-116.866714,34.260803
1004602,Garro St.,Plymouth,Marshall,Indiana,46563,Y,Y,Y,N,Y,Y,Y,N,-86.307641,41.34065
1011146,38 Davis Drive,Poestenkill,Rensselaer,New York,12140,N,Y,Y,Y,Y,Y,Y,N,-73.5635307,42.6904758
1005259,85-037 Pokai Bay Road,Waianae,Honolulu,Hawaii,96792,N,N,N,N,N,N,N,N,-158.188437,21.442923
1012366,675 Ponce de Leon Avenue,Atlanta,DeKalb,Georgia,30308,Y,Y,N,N,Y,Y,Y,Y,-84.364596,33.772429
1019027,Highland St,Port Chester,Westchester,New York,10573,Y,Y,Y,N,N,Y,Y,Y,-73.661339,41.00211
1018986,228 S Ridge Street,Port Sanilac,Sanilac,Michigan,48469,Y,Y,N,Y,N,Y,Y,N,-82.543109,43.424322
1020037,600 Block Tyler St,PORT TOWNSEND,Jefferson,Washington,98368,Y,Y,Y,Y,Y,Y,Y,Y,-122.760304,48.11702
1018474,N Denver and McClellan,Portland,Multnomah,Oregon,97217,Y,N,N,N,Y,Y,Y,N,-122.686888,45.583106
1018477,NE 7th and Wygant,Portland,Multnomah,Oregon,97211,Y,Y,Y,N,Y,Y,Y,Y,-122.6585746,45.5573069
1018478,SE 92nd and Reedway,Portland,Multnomah,Oregon,97266,N,Y,N,N,Y,Y,Y,Y,-122.5685894,45.4813183
1019338,101 Lakeshore Drive,Big Lake,Sherburne,Minnesota,55309,-,Y,N,Y,Y,Y,Y,Y,-93.758167,45.333773
1018482,SW Park and Montgomery,Portland,Multnomah,Oregon,97201,Y,Y,Y,N,Y,Y,Y,Y,-122.6850889,45.5124099
1018483,SW Park and Main,Portland,Multnomah,Oregon,97205,Y,Y,Y,N,Y,N,Y,Y,-122.6825474,45.5170877
1007797,"City Hall, 1 Junkins Avenue",Portsmouth,Rockingham,New Hampshire,3801,Y,Y,Y,Y,Y,Y,Y,Y,-70.7535534,43.0711929
1018963,"2824 Prairie Lakes Dr, Ste. 201, Ste. 201",Sun Prairie,Dane,Wisconsin,53590,Y,Y,Y,Y,Y,Y,Y,N,-89.2702544,43.1680835
1019807,5955 W. Broad Street,Galloway,Franklin,Ohio,43119,-,Y,N,N,N,Y,Y,Y,-83.009303,39.9695356
1019149,100 N 100 E,Price,Carbon,Utah,84501,-,Y,N,Y,Y,Y,Y,N,-110.8088043,39.6010798
1019793,6605 Courts Drive,Prince George,Prince George,Virginia,23875,-,Y,Y,Y,Y,Y,Y,Y,-77.287343,37.224538
1020086,12900 W. Hwy 42,Prospect,Oldham,Kentucky,40059,Y,Y,N,Y,N,Y,Y,Y,-85.58996,38.37102
1019286,265 W Main Street,East Hampton,Middlesex,Connecticut,6424,-,Y,Y,Y,Y,N,Y,Y,-72.494904,41.572605
1018215,25 Hagen Road,San Felipe Pueblo,Sandoval,New Mexico,87001,-,Y,N,N,N,N,Y,N,-106.404321,35.416275
1019339,311 Lake Street South,Big Lake,Sherburne,Minnesota,55309,-,Y,N,Y,N,Y,Y,Y,-93.747475,45.329205
1019868,717 E Main Street,Purcellville,Loudoun,Virginia,20132,-,Y,Y,Y,Y,Y,Y,Y,-77.703843,39.136603
1003402,300  S Meridian,Puyallup,Pierce,Washington,98371,Y,Y,Y,Y,Y,Y,Y,Y,-122.2944912,47.1887299
1019477,326 N Main St,Quapaw,Ottawa,Oklahoma,74363,-,Y,Y,Y,Y,Y,Y,Y,-94.787418,36.955063
1005260,Monsarrat and Paki Streets,Honolulu,Honolulu,Hawaii,96822,N,N,N,N,Y,N,N,N,-157.81638,21.268812
1019122,530 W. Main St.,Quincy,Plumas,California,95971,-,Y,N,Y,Y,N,N,N,-120.950176,39.937091
1019315,128 N. 5th St.,QUINCY,Adams,Illinois,62301,Y,Y,Y,Y,Y,Y,Y,N,-91.409173,39.932754
1011310,2959 County Road 333,Wedowee,Randolph,Alabama,36278,Y,Y,N,N,Y,Y,Y,N,-85.451892,33.255362
1019204,1966 Highway 62 West,Pocahontas,Randolph,Arkansas,72455,N,Y,N,N,Y,Y,N,N,-90.983393,36.257409
1020093,70 Queendale Center,Beverly,Clay,Kentucky,40913,N,Y,N,Y,N,Y,Y,N,-83.526289,37.009793
1019500,Lion's Park,Red Lodge,Carbon,Montana,59068,N,Y,N,N,Y,N,Y,Y,-109.247918,45.1913
1019591,25 Concord Road,Billerica,Middlesex,Massachusetts,1821,N,Y,Y,Y,Y,Y,Y,Y,-71.269999,42.557646
1001766,307 East Reed Street,Red Oak,Montgomery,Iowa,51566,N,Y,N,Y,N,N,Y,N,-95.228044,41.009641
1020024,7711 Goodwood Boulevard,Baton Rouge,East Baton Rouge,Louisiana,70806,-,Y,N,N,N,Y,N,N,-91.106845,30.442682
1003609,501 Main Street,Baton Rouge,East Baton Rouge,Louisiana,70802,Y,Y,Y,N,Y,Y,Y,Y,-91.185794,30.452022
1003610,6400 Perkins Road,Baton Rouge,East Baton Rouge,Louisiana,70808,Y,Y,Y,N,Y,Y,Y,N,-91.121067,30.399197
1019410,12690 SW 280th Street,Homestead,Miami-Dade,Florida,33033,Y,Y,Y,Y,Y,Y,Y,Y,-80.395809,25.506957
1019411,12690 SW 280th Street,Homestead,Miami-Dade,Florida,33033,Y,Y,Y,Y,Y,Y,Y,Y,-80.39582,25.506957
1004750,100 E. State Street,Redlands,San Bernardino,California,92373,-,Y,Y,Y,Y,Y,Y,Y,-117.181441,34.056448
1004751,100 E. Redlands Boulevard,Redlands,San Bernardino,California,92373,Y,Y,Y,N,Y,Y,Y,N,-117.180913,34.05708
1000712,2000 North Dewey Avenue,Reedsburg,Sauk,Wisconsin,53959,-,Y,Y,Y,Y,Y,Y,Y,-89.993406,43.549612
1019235,303 S. Scales Street,Reidsville,Rockingham,North Carolina,27320,-,Y,N,Y,N,N,N,N,-79.6640029,36.3586088
1011037,,Bismarck,Burleigh,North Dakota,58501,-,Y,N,Y,Y,Y,Y,Y,-100.796471,46.803081
1009020,110 W Harrison St.,Rensselaer,Jasper,Indiana,47978,N,Y,N,Y,Y,Y,Y,Y,-87.1501069,40.9356403
1019493,1609 Washington Plaza,Reston,Fairfax,Virginia,20190,N,Y,Y,N,Y,Y,Y,N,-77.342215,38.948449
1002843,118 College Ave.,Rexburg,Madison,Idaho,83440,N,Y,N,Y,Y,Y,Y,N,-111.782405,43.823218
1018549,47 N 6th St,Richmond,Wayne,Indiana,47374,-,Y,Y,Y,Y,Y,Y,Y,-84.893388,39.829938
1019930,299 Hughitt Street,Ridgeway,Iowa,Wisconsin,53582,N,Y,Y,Y,Y,Y,Y,Y,-89.993242,42.998521
1019142,3310 Magnolia St.,Orangeburg,Orangeburg,South Carolina,29115,-,N,N,N,N,N,N,N,-80.838621,33.528187
1019145,5484 Carolina Hwy,Denmark,Bamberg,South Carolina,29042,-,N,N,N,N,Y,N,N,-81.144272,33.315079
1005060,Bradford Street and Route 202,Rindge,Cheshire,New Hampshire,3461,Y,Y,Y,Y,Y,Y,Y,N,-72.03585,42.765593
1019419,30 River Street,Petersburg,Petersburg,Virginia,23803,-,Y,N,Y,Y,Y,Y,Y,-77.40373,37.233787
1019312,Center Avenue,Hardin,Big Horn,Montana,59034,-,Y,N,Y,N,Y,Y,N,-107.608015,45.742235